"name","address","city","state","zip_code","latitude","longitude"
"Waffle House #29","5335 ROWSELL RD NE","ATLANTA","GA","30342","33.728619","-84.331975"
"Waffle House #7","1674 W WASHINGTON ROAD","EAST POINT","GA","30344","33.675472","-84.443448"
"Waffle House #43","509 N WEST SHORE BLVD","TAMPA","FL","33609","27.9487414","-82.5240906"
"Waffle House #40","840 RIVERSIDE DR","MACON","GA","31201","32.8424196","-83.6294334"
"Waffle House #22","4788 MEMORIAL DR","DECATUR","GA","30032","33.785869","-84.234661"
"Waffle House #35","1601 SHORTER AVE","ROME","GA","30161","34.268558","-85.21337"
"Waffle House #25","1425 E VIRGINIA AVE","COLLEGE PARK","GA","30337","33.659279","-84.435484"
"Waffle House #41","2548 WESLEY CHAPEL RD","DECATUR","GA","30035","33.7139239","-84.2157977"
"Waffle House #4","321 GEORGIA AVE","NORTH AUGUSTA","SC","29841","33.4911795","-81.9718588"
"Waffle House #46","300 DIXIE AVENUE","CARTERSVILLE","GA","30120","34.1768544","-84.7865008"
"Waffle House #61","4739 S BLVD","CHARLOTTE","NC","28210","35.1754036","-80.875809"
"Waffle House #54","4271 ROOSEVELT BLVD","JACKSONVILLE","FL","32210","30.2851918","-81.7200102"
"Waffle House #57","4005 BUENA VISTA RD","COLUMBUS","GA","31907","32.4632689","-84.9263286"
"Waffle House #63","2727 MANCHESTER EXPRESSWAY","COLUMBUS","GA","31904","32.5207108","-84.8991224"
"Waffle House #68","631 W. 15TH STREET","PANAMA CITY","FL","32401","30.1751152","-85.6668325"
"Waffle House #78","3421 MCFARLAND BLVD","TUSCALOOSA","AL","35405","33.2400313","-87.5912448"
"Waffle House #71","1072 AIRPORT ROAD","JACKSONVILLE","FL","32218","30.4825933","-81.6482597"
"Waffle House #74","4274 LAVISTA RD","TUCKER","GA","30084","33.847216","-84.2437899"
"Waffle House #80","3711 OGEECHEE RD","SAVANNAH","GA","31405","32.0557752","-81.1334417"
"Waffle House #91","263 MIRACLE STRIP PKWY SE","FT WALTON BEACH","FL","32548","30.4040645","-86.6125894"
"Waffle House #86","802 CLEVELAND AVE","ATTALLA","AL","35954","34.018171","-86.0740108"
"Waffle House #79","1141 HWY 280 BYP","PHENIX CITY","AL","36867","32.507045","-85.054388"
"Waffle House #89","4310 STATE HWY 21","GARDEN CITY","GA","31408","32.104243","-81.150571"
"Waffle House #90","90 N WHYTE HARDEE BD","HARDEEVILLE","SC","29927","32.276703","-81.081071"
"Waffle House #103","4731 CHAMBERS RD","MACON","GA","31206","32.8099445","-83.724281"
"Waffle House #100","2842 PANOLA RD","LITHONIA","GA","30058","33.705214","-84.169705"
"Waffle House #102","3009 ALCOA HWY","ALCOA","TN","37701","35.8247669","-83.9770094"
"Waffle House #88","1420 REDBUD RD","CALHOUN","GA","30701","34.511582","-84.917411"
"Waffle House #94","228 NORTH MAIN ST","CEDARTOWN","GA","30125","34.0177439","-85.2537133"
"Waffle House #105","4852 OLD NATIONAL HWY","COLLEGE PARK","GA","30337","33.6231943","-84.4738942"
"Waffle House #96","922 E FOWLER AVE","TAMPA","FL","33612","28.0549684","-82.4496944"
"Waffle House #123","6513 RINGGOLD ROAD","EAST RIDGE","TN","37412","34.9897509","-85.2081074"
"Waffle House #34","2642 WINDY HILL ROAD, SE","MARIETTA","GA","30067","33.9005659","-84.4772156"
"Waffle House #124","70 WARRENTON RD","VICKSBURG","MS","39180","32.3075867","-90.9022821"
"Waffle House #128","1668 E STONE DRIVE","KINGSPORT","TN","37660","36.5477654","-82.5179544"
"Waffle House #127","7505 TWO NOTCH RD","COLUMBIA","SC","29223","34.0411991","-80.9960604"
"Waffle House #134","2800 20TH AVE","VALLEY","AL","36854","32.8133247","-85.1711122"
"Waffle House #136","286 NORTH LEE STREET","FORSYTH","GA","31029","33.0412034","-83.940221"
"Waffle House #130","1007 ARC WAY AVE","CORDELE","GA","31015","31.919861","-83.777354"
"Waffle House #139","1416 S INTERSTATE 35 E SERVICE RD","LANCASTER","TX","75134","32.628826","-96.697065"
"Waffle House #147","4631 WEST MOBILE","PENSACOLA","FL","32506","30.436757","-87.278702"
"Waffle House #145","2345 BROAD RIVER RD","COLUMBIA","SC","29210","34.0602015","-81.113066"
"Waffle House #148","2505 RANDLEMAN RD","GREENSBORO","NC","27406","36.0323498","-79.8008391"
"Waffle House #153","1426 SAM NUNN BLVD","PERRY","GA","31069","32.4698602","-83.7423672"
"Waffle House #152","69 EXPRESSWAY DRIVE","MANCHESTER","TN","37355","35.4595469","-86.0545523"
"Waffle House #155","10389 AIRLINE HIGHWAY","BATON ROUGE","LA","70816","30.4153942","-91.0688147"
"Waffle House #158","831 GULF BREEZE PKWY","GULF BREEZE","FL","32561","30.3585912","-87.1657181"
"Waffle House #160","7102 MAYNARDSVILLE","KNOXVILLE","TN","37918","36.065908","-83.909603"
"Waffle House #162","1501 WATSON BLVD","WARNER ROBINS","GA","31093","32.618133","-83.625503"
"Waffle House #159","948 FORT DALE RD","GREENVILLE","AL","36037","31.8449971","-86.6392384"
"Waffle House #161","7673 BURLINGTON PIKE","FLORENCE","KY","41042","39.0008402","-84.6448325"
"Waffle House #150","1925 MCFARLAND BLVD","NORTHPORT","AL","35476","33.2393022","-87.5770872"
"Waffle House #169","2115 OAKHURST ST","IRVING","TX","75061","32.835936","-96.950066"
"Waffle House #167","2017 CENTRAL AVE","HOT SPRINGS","AR","71901","34.4930403","-93.0582502"
"Waffle House #173","1412 W. BRANDON BLVD","BRANDON","FL","33511","27.9378617","-82.3045167"
"Waffle House #175","11770 U.S. ROUTE 42","SHARONVILLE","OH","45241","39.292133","-84.393903"
"Waffle House #171","7611 W. NEWBERRY RD","GAINESVILLE","FL","32606","29.6595808","-82.4136805"
"Waffle House #180","1728 GAUSE BLVD E","SLIDELL","LA","70461","30.2882318","-89.7311222"
"Waffle House #174","2805 FERN VALLEY RD","LOUISVILLE","KY","40213","38.1574794","-85.7119901"
"Waffle House #177","6079 GOSHEN SPRINGS RD","NORCROSS","GA","30071","33.9155104","-84.2082139"
"Waffle House #183","755 WEST FILLMORE","COLORADO SPRINGS","CO","80907","38.8760347","-104.8367885"
"Waffle House #178","3651 AIRPORT BLVD","MOBILE","AL","36608","30.6759672","-88.1342838"
"Waffle House #179","4320 BISHOP LANE","LOUISVILLE","KY","40218","38.2024103","-85.6835604"
"Waffle House #192","1910 N COLLINS ST","ARLINGTON","TX","76011","32.7636653","-97.0969203"
"Waffle House #187","306 GREENVILLE BLVD SE","GREENVILLE","NC","27858","35.5943125","-77.3397583"
"Waffle House #185","819 S CUMBERLAND","LEBANON","TN","37087","36.185771","-86.297248"
"Waffle House #154","2758 COBB PARKWAY SE","ATLANTA","GA","30339","33.883766","-84.469318"
"Waffle House #197","706 SULLIVAN RD","STATESVILLE","NC","28677","35.8047823","-80.8759513"
"Waffle House #195","3244 US HIGHWAY 98 N","LAKELAND","FL","33805","28.100195","-81.9736507"
"Waffle House #201","4324 W BEACH BLVD","GULFPORT","MS","39501","30.3582893","-89.1125893"
"Waffle House #199","612 BEACH DR.","GULFPORT","MS","39507","30.3798984","-89.039427"
"Waffle House #204","2357 AVIATION ROAD","NORTH CHARLESTON","SC","29406","32.900147","-80.0307468"
"Waffle House #206","2221 S COOPER ST","ARLINGTON","TX","76013","32.7079423","-97.1161728"
"Waffle House #208","1833 CRESTWOOD BLVD","IRONDALE","AL","35210","33.5332903","-86.7027237"
"Waffle House #207","908 THORNTON RD","LITHIA SPRINGS","GA","30122","33.7967857","-84.6421315"
"Waffle House #211","204 HUFFMAN DRIVE","EULESS","TX","76040","32.8370474","-97.0850257"
"Waffle House #216","326 WEST BUTLER RD","MAULDIN","SC","29662","34.776067","-82.3179353"
"Waffle House #213","7661 BOULEVARD 26","N RICHLAND HILLS","TX","76180","32.8310576","-97.2182365"
"Waffle House #218","2644 RIVERSIDE DR","MACON","GA","31204","32.8755303","-83.6645495"
"Waffle House #221","4150 CANE RUN ROAD","LOUISVILLE","KY","40216","38.202369","-85.833871"
"Waffle House #224","2000 E IRVING BLVD","IRVING","TX","75060","32.803508","-96.916444"
"Waffle House #227","5141 DIXIE HWY","FAIRFIELD","OH","45014","39.339585","-84.5342817"
"Waffle House #226","3042 WASHINGTON RD","AUGUSTA","GA","30907","33.5126239","-82.0476428"
"Waffle House #231","1722 E SCYENE RD","MESQUITE","TX","75149","32.7661039","-96.5868137"
"Waffle House #232","1938 BEACH BLVD","BILOXI","MS","39531","30.3929163","-88.95276"
"Waffle House #229","116 MARSHALL RD","JACKSONVILLE","AR","72076","34.872893","-92.1273399"
"Waffle House #233","2229 SAVANNAH HWY","CHARLESTON","SC","29414","32.7913189","-80.0394314"
"Waffle House #236","1720 COLLEGE AVE","HOUSTON","TX","77017","29.652672","-95.25048"
"Waffle House #235","6512 U S HIGHWAY 49","HATTIESBURG","MS","39401","31.356523","-89.345878"
"Waffle House #237","3204 GATE CITY BLVD","GREENSBORO","NC","27407","36.047582","-79.770069"
"Waffle House #245","716 NC HIGHWAY 66 S","KERNERSVILLE","NC","27284","36.111526","-80.063524"
"Waffle House #240","2680 GEORGETOWN RD","CLEVELAND","TN","37311","35.191722","-84.884979"
"Waffle House #244","959 NASA RD","WEBSTER","TX","77598","29.51386","-95.142911"
"Waffle House #247","2923 FT CAMPBELL BLVD","HOPKINSVILLE","KY","42240","36.8367566","-87.4788406"
"Waffle House #246","5771 OLD HICKORY BLVD","HERMITAGE","TN","37076","36.1729595","-86.6020936"
"Waffle House #241","1754 DAUPHIN ISL PKY","MOBILE","AL","36605","30.635206","-88.089117"
"Waffle House #252","6 S NEW WARRINGTN RD","PENSACOLA","FL","32507","30.401136","-87.277242"
"Waffle House #261","990 HWY 65 N","CONWAY","AR","72032","35.111969","-92.435113"
"Waffle House #249","150 THREE SPRINGS RD","BOWLING GREEN","KY","42101","36.9370221","-86.4204505"
"Waffle House #263","102 SIGNAL MTN RD","CHATTANOOGA","TN","37405","35.0847148","-85.3227775"
"Waffle House #258","4840 POWERLINE RD","FT LAUDERDALE","FL","33309","26.2103559","-80.1559029"
"Waffle House #259","505 N BLUFF RD","COLLINSVILLE","IL","62234","38.677788","-90.0123683"
"Waffle House #270","2202 6TH AVE S E","DECATUR","AL","35601","34.569022","-86.973175"
"Waffle House #265","2516 W BELL RD","PHOENIX","AZ","85023","33.6406459","-112.1127684"
"Waffle House #264","2510 SUNSET BLVD","WEST COLUMBIA","SC","29169","34.003353","-81.107726"
"Waffle House #283","1380 W GRANT RD","TUCSON","AZ","85705","32.2504772","-110.9949578"
"Waffle House #284","7800 SENOIA RD","FAIRBURN","GA","30213","33.5447597","-84.5764821"
"Waffle House #282","1105 EGLIN PKWY","SHALIMAR","FL","32579","30.4396119","-86.5833026"
"Waffle House #281","4404 N. ANTIOCH ROAD","KANSAS CITY","MO","64117","39.1740273","-94.5489051"
"Waffle House #287","3995 UNIVERSITY DR NW","HUNTSVILLE","AL","35816","34.7349456","-86.6262254"
"Waffle House #288","1817 LUCAS ST","FLORENCE","SC","29501","34.227782","-79.796868"
"Waffle House #292","105 S MARTIN LUTHER KING AVENUE","OKLAHOMA CITY","OK","73117","35.4647684","-97.4771519"
"Waffle House #289","3671 GOVERNMENT BLVD","MOBILE","AL","36693","30.6474906","-88.1291782"
"Waffle House #293","6230 PAPERMILL RD ,","KNOXVILLE","TN","37919","35.937301","-84.009733"
"Waffle House #303","2314 N HIGHLAND","JACKSON","TN","38305","35.666947","-88.829094"
"Waffle House #304","2391 EAST SHARON RD","SHARONVILLE","OH","45241","39.2694116","-84.4357389"
"Waffle House #298","6544 HWY 85","RIVERDALE","GA","30274","33.581213","-84.411769"
"Waffle House #314","1617 JULIAN R ALLSBROOK HWY","WELDON","NC","27890","36.4297803","-77.6274327"
"Waffle House #309","7271 GARNERS FERRY RD","COLUMBIA","SC","29209","33.9716","-80.9507757"
"Waffle House #306","494 W INTERSTATE 30","GARLAND","TX","75043","32.8396885","-96.5945255"
"Waffle House #312","801 HWY 78 E","JASPER","AL","35501","33.84615","-87.258899"
"Waffle House #315","1801 W BASELINE RD","GUADALUPE","AZ","85283","33.3777113","-111.966452"
"Waffle House #344","213 N JOE B HALL AVE","SHEPHERDSVILLE","KY","40165","37.977934","-85.735363"
"Waffle House #308","4525 JS MCDONNELL BL","BERKELEY","MO","63134","38.731549","-90.348665"
"Waffle House #318","5350 S KIRKMAN RD","ORLANDO","FL","32819","28.48501","-81.459104"
"Waffle House #317","1550 SYCAMORE VIEW","MEMPHIS","TN","38134","35.1675817","-89.8630699"
"Waffle House #313","4300 COVINGTON HWY","DECATUR","GA","30035","33.750122","-84.227595"
"Waffle House #319","9525 HWY 49","GULFPORT","MS","39503","30.437582","-89.097228"
"Waffle House #323","151 PARK AVE","ORANGE PARK","FL","32073","30.1876707","-81.7027191"
"Waffle House #320","6930 CHARLOTTE PIKE","NASHVILLE","TN","37209","36.1286783","-86.9065769"
"Waffle House #325","2050 EATONTON HWY","MADISON","GA","30650","33.5604637","-83.4774071"
"Waffle House #326","491 PINEY GROVE RD","COLUMBIA","SC","29210","34.0677566","-81.1276132"
"Waffle House #336","56 SOMMERS BLVD","RICHMOND HILL","GA","31324","31.9238191","-81.3334492"
"Waffle House #330","123 VALLEY ST","ARKADELPHIA","AR","71923","34.1735192","-93.0715213"
"Waffle House #335","1925 E MAIN ST","DOTHAN","AL","36301","31.2172154","-85.3628844"
"Waffle House #337","103 STETSON DRIVE","CHARLOTTE","NC","28262","35.2875615","-80.7607541"
"Waffle House #338","710 SIXTH AVE NE","DECATUR","AL","35601","34.607773","-86.979463"
"Waffle House #348","1819 W HILL AVE","VALDOSTA","GA","31601","30.8206195","-83.3114572"
"Waffle House #339","1819 JOHN B WHITE SR BLVD","SPARTANBURG","SC","29301","34.9228428","-81.9828184"
"Waffle House #350","7109 W BROAD ST","RICHMOND","VA","23294","37.6112331","-77.5204892"
"Waffle House #349","325 WEST SPRING STREET","NEW ALBANY","IN","47150","38.2838551","-85.8287207"
"Waffle House #353","4706 PRESTON HWY","LOUISVILLE","KY","40213","38.1793372","-85.718178"
"Waffle House #341","1500 NW WOODS CHAPEL RD","BLUE SPRINGS","MO","64015","39.0326531","-94.305313"
"Waffle House #347","5579 HWY 90","THEODORE","AL","36582","30.548071","-88.174274"
"Waffle House #356","2553 CHERRY ROAD","ROCK HILL","SC","29730","34.9715559","-80.9902684"
"Waffle House #351","1724 WALNUT ST","CARY","NC","27511","35.763651","-78.7479715"
"Waffle House #363","44215 HWY 27","DAVENPORT","FL","33897","28.347023","-81.67378"
"Waffle House #362","700 GLYNN ST N","FAYETTEVILLE","GA","30214","33.4614386","-84.4514727"
"Waffle House #359","171 TUNNEL ROAD","ASHEVILLE","NC","28805","35.5900014","-82.5301839"
"Waffle House #365","29100 US HIGHWAY 98","DAPHNE","AL","36526","30.6504755","-87.9126975"
"Waffle House #364","551 N MCPHERSON CHURCH RD","FAYETTEVILLE","NC","28303","35.0766101","-78.9545106"
"Waffle House #352","6203 RAMADA DR","CLEMMONS","NC","27012","36.033513","-80.3829298"
"Waffle House #361","3417 WRIGHTSBORO RD","AUGUSTA","GA","30909","33.468091","-82.077116"
"Waffle House #360","1444 TUNNEL RD","ASHEVILLE","NC","28805","35.584334","-82.462381"
"Waffle House #372","6250 LAKE WORTH BLVD","LAKE WORTH","TX","76135","32.810165","-97.421283"
"Waffle House #370","3107 ESTES PARKWAY","LONGVIEW","TX","75602","32.44854","-94.7234941"
"Waffle House #378","3909 HILLSBOROUGH ST","RALEIGH","NC","27607","35.794718","-78.69093"
"Waffle House #373","2226 NEEDMORE RD","DAYTON","OH","45414","39.817472","-84.130876"
"Waffle House #377","6558 CAROLINE ST","MILTON","FL","32570","30.620432","-87.047904"
"Waffle House #380","1986 AIRLINE DR","BOSSIER CITY","LA","71112","32.5278284","-93.7007116"
"Waffle House #386","4912 SPRINGBORO PIKE","MORAINE","OH","45439","39.6890169","-84.2203982"
"Waffle House #387","2024 E 23RD STREET","CHATTANOOGA","TN","37405","35.0187","-85.2819821"
"Waffle House #392","2621 S LYNHURST DR","INDIANAPOLIS","IN","46241","39.7274491","-86.2497932"
"Waffle House #388","2963 W US HIGHWAY 90","LAKE CITY","FL","32055","30.180538","-82.6808613"
"Waffle House #389","112 LOBDELL HIGHWAY","PORT ALLEN","LA","70767","30.447476","-91.244411"
"Waffle House #390","3385 DUBLIN-GRANVILLE RD","WESTERVILLE","OH","43081","40.079844","-82.928739"
"Waffle House #393","6913 PENSACOLA BLVD","PENSACOLA","FL","32505","30.4928925","-87.262111"
"Waffle House #395","1931 EAST 60TH ST","ANDERSON","IN","46013","40.054887","-85.653679"
"Waffle House #394","7800 BRANDT PIKE","DAYTON","OH","45424","39.816032","-84.130595"
"Waffle House #401","4903 BRAINARD ROAD","CHATTANOOGA","TN","37411","35.012945","-85.228113"
"Waffle House #385","1216 OAKLAND BLVD","FORT WORTH","TX","76103","32.759683","-97.2619198"
"Waffle House #398","1570 N US HIGHWAY 1","ORMOND BEACH","FL","32174","29.334507","-81.130093"
"Waffle House #384","3244 W CHAIN OF ROCKS RD","GRANITE CITY","IL","62040","38.7620059","-90.1228104"
"Waffle House #391","106 WEST TERRA LANE","OFALLON","MO","63366","38.801452","-90.701849"
"Waffle House #396","188 SOUTH DIXIE BLVD","RADCLIFF","KY","40160","37.827767","-85.928417"
"Waffle House #399","1610 WHITE HORSE ROAD","GREENVILLE","SC","29605","34.7940707","-82.4192882"
"Waffle House #403","1784 N RILEY HWY","SHELBYVILLE","IN","46176","39.5485696","-85.775515"
"Waffle House #407","3951 ROSS CLARK CIR NW","DOTHAN","AL","36303","31.25337","-85.405276"
"Waffle House #414","278 DOUGLAS AVE,","ALTAMONTE SPRINGS","FL","32714","28.6659627","-81.3902649"
"Waffle House #402","900 WILSON ROAD","COLUMBUS","OH","43204","39.972107","-83.09813"
"Waffle House #408","1220 NEUBRECHT ROAD","LIMA","OH","45801","40.756448","-84.079856"
"Waffle House #412","2264 CHESHIRE BRIDGE RD NE","ATLANTA","GA","30324","33.817052","-84.352234"
"Waffle House #411","325 SAVANNAH HWY","CHARLESTON","SC","29407","32.779329","-79.9713827"
"Waffle House #410","5103 MONKHOUSE DR","SHREVEPORT","LA","71109","32.459857","-93.827059"
"Waffle House #415","2963 LAWRENCEVILLE HWY","TUCKER","GA","30084","33.8284889","-84.250299"
"Waffle House #409","317 FOLKERTH AVENUE","SIDNEY","OH","45365","40.2880986","-84.1850017"
"Waffle House #423","1069 E MAIN ST","GREENWOOD","IN","46142","39.613414","-86.134382"
"Waffle House #425","6375 JONESBORO RD","MORROW","GA","30260","33.5839379","-84.3393147"
"Waffle House #421","3340 FREY RD NW","KENNESAW","GA","30144","34.0341041","-84.5801549"
"Waffle House #424","4458 ATLANTA RD","SMYRNA","GA","30080","33.867772","-84.493849"
"Waffle House #426","4620 CLEMSON BLVD","ANDERSON","SC","29621","34.5783149","-82.714152"
"Waffle House #430","111 REYNOIR ST","BILOXI","MS","39530","30.3956231","-88.8906324"
"Waffle House #438","10516 E 11TH ST","TULSA","OK","74128","36.1476221","-95.8594532"
"Waffle House #436","2101 WILLIS RD","RICHMOND","VA","23237","37.40179","-77.422561"
"Waffle House #435","5991 W IRLO BRONSON HWY","KISSIMMEE","FL","34747","28.332719","-81.522791"
"Waffle House #431","709 W STARR PASS BLVD","TUCSON","AZ","85713","32.2064419","-110.9809988"
"Waffle House #437","1215 HOT SPRINGS RD","BENTON","AR","72019","34.504317","-92.628174"
"Waffle House #434","4031 E SOUTHPORT RD","INDIANAPOLIS","IN","46237","39.6649881","-86.0972414"
"Waffle House #442","2363 COLLEGE DR","BATON ROUGE","LA","70808","30.4266996","-91.1374106"
"Waffle House #440","4755 SAUL WHITE BLVD","NORTH CHARLESTON","SC","29418","32.8693335","-80.0113811"
"Waffle House #67","98 N LOVERS LANE","FRANKLIN","IN","46131","39.479849","-86.017249"
"Waffle House #443","7147 OKEECHOBEE RD","FORT PIERCE","FL","34945","27.4125705","-80.4005779"
"Waffle House #439","2311 W MLK BLVD","FAYETTEVILLE","AR","72701","36.495308","-94.367628"
"Waffle House #126","778 ST. ANDREWS RD","COLUMBIA","SC","29210","34.0505507","-81.1027688"
"Waffle House #444","507 LOVELL RD","KNOXVILLE","TN","37922","35.907674","-84.147259"
"Waffle House #447","5416 ASHEVILLE HWY","KNOXVILLE","TN","37914","36.0092161","-83.8450653"
"Waffle House #254","5630 HWY 20 SE","CARTERSVILLE","GA","30121","34.181471","-84.738305"
"Waffle House #445","1531 WEST WALNUT AVE","DALTON","GA","30720","34.7607724","-84.9996769"
"Waffle House #449","3309 QUEEN CITY DR","CHARLOTTE","NC","28208","35.2399063","-80.9201074"
"Waffle House #450","2701 ALAMANCE RD","BURLINGTON","NC","27215","36.063779","-79.469733"
"Waffle House #452","108 ENTERPRISE BLVD","LA VERGNE","TN","37086","35.9985731","-86.5966819"
"Waffle House #446","2846 CHARLESTON HWY","WEST COLUMBIA","SC","29169","33.9869229","-81.072496"
"Waffle House #453","726 YORK RD","KINGS MOUNTAIN","NC","28086","35.2285098","-81.3331906"
"Waffle House #24","210 SMOKEY PARK HWY","ASHEVILLE","NC","28806","35.5608515","-82.6323873"
"Waffle House #311","10220 N. US HIGHWAY 31","TAYLORSVILLE","IN","47280","39.030116","-85.834818"
"Waffle House #295","2812 BUFORD HWY NE","ATLANTA","GA","30329","33.876629","-84.293244"
"Waffle House #456","1707 COUNTY RD 437","GOOD HOPE","AL","35055","34.144843","-86.846851"
"Waffle House #455","6701 HWY 63","MOSS POINT","MS","39563","30.4378","-88.527239"
"Waffle House #458","438 BELAIR RD","AUGUSTA","GA","30907","33.4731601","-82.1283651"
"Waffle House #463","7540 TUCKER ROAD","OCEAN SPRINGS","MS","39564","30.450808","-88.841254"
"Waffle House #461","1201 AL HWY 21 SOUTH","OXFORD","AL","36203","33.6065","-85.829172"
"Waffle House #460","1970 WASHINGTON RD.","THOMSON","GA","30824","33.483341","-82.505282"
"Waffle House #464","241 GA HWY 49 S","BYRON","GA","31008","32.619421","-83.781688"
"Waffle House #473","4301 SIDCO DRIVE","NASHVILLE","TN","37204","36.084775","-86.761903"
"Waffle House #468","12528 HWY 56 NORTH","CLINTON","SC","29325","34.5049025","-81.8597367"
"Waffle House #475","3565 CHENEY HWY","TITUSVILLE","FL","32780","28.5541352","-80.8472942"
"Waffle House #478","1404 ROEBUCK DR","MERIDIAN","MS","39301","32.3505314","-88.6911286"
"Waffle House #472","941 CONFERENCE DR","GOODLETTSVILLE","TN","37072","36.3242671","-86.7010761"
"Waffle House #483","1312 MURFREESBORO RD","FRANKLIN","TN","37064","35.9143034","-86.826706"
"Waffle House #466","5551 EAST END BLVD S","MARSHALL","TX","75672","32.4942835","-94.3587931"
"Waffle House #469","1815 OUTLET CENTER DR","SELMA","NC","27576","35.5203765","-78.2937375"
"Waffle House #462","1004 W 4TH STREET","ADEL","GA","31620","31.1341603","-83.4358048"
"Waffle House #477","580 BUSCH DRIVE","JACKSONVILLE","FL","32218","30.4300109","-81.6444684"
"Waffle House #467","3113 BANDERA ST","DENTON","TX","76207","33.2310354","-97.1758648"
"Waffle House #479","550 N GREENBRIAR PKY","MARIETTA","GA","30062","33.962858","-84.493541"
"Waffle House #488","201 N SHACKLEFORD RD","LITTLE ROCK","AR","72211","34.7547871","-92.393503"
"Waffle House #496","24 CASEY JONES LANE","JACKSON","TN","38305","35.6604551","-88.8561338"
"Waffle House #481","820 NORTH DYSART RD","GOODYEAR","AZ","85338","33.4552509","-112.34148"
"Waffle House #498","7004 HWY 4","BATTLEBORO","NC","27809","36.061187","-77.815836"
"Waffle House #489","2886 CLAIRMONT RD","ATLANTA","GA","30329","33.840895","-84.313225"
"Waffle House #480","110 HOLIDAY BLVD","COVINGTON","LA","70433","30.437979","-90.087542"
"Waffle House #495","2621 BRICE ROAD","REYNOLDSBURG","OH","43068","39.948548","-82.8292845"
"Waffle House #490","2321 HWY 46 S","DICKSON","TN","37055","35.970531","-87.320657"
"Waffle House #499","501 WESTINGHOUSE BLVD","CHARLOTTE","NC","28210","35.113463","-80.921894"
"Waffle House #502","617 WEST THIRD ST","COVINGTON","KY","41011","39.087508","-84.520851"
"Waffle House #504","30481 CORTEZ BLVD","BROOKSVILLE","FL","34602","28.5236484","-82.234122"
"Waffle House #73","2506 AUGUSTA RD","WEST COLUMBIA","SC","29169","33.9822187","-81.1016779"
"Waffle House #494","920 COBB PKWY S","MARIETTA","GA","30060","33.9296527","-84.5096978"
"Waffle House #98","2128 W HWY 30","GONZALES","LA","70737","30.210687","-90.945714"
"Waffle House #131","12009 N I 35 SERVICE RD","OKLAHOMA CITY","OK","73131","35.5906808","-97.4360365"
"Waffle House #506","1116 HWY 321 NORTH","LENOIR CITY","TN","37771","35.829758","-84.281495"
"Waffle House #507","3506 S RANGE LINE RD","JOPLIN","MO","64804","37.0505286","-94.4786616"
"Waffle House #511","408 WHITE BRIDGE PL","NASHVILLE","TN","37209","36.1510287","-86.857562"
"Waffle House #82","3180 NORCROSS TKR RD","TUCKER","GA","30084","33.902214","-84.205249"
"Waffle House #510","816 EAST OAK ST","CONWAY","AR","72032","35.0913885","-92.4204194"
"Waffle House #508","2065 S.W. HWY 484","OCALA","FL","34473","29.025588","-82.164284"
"Waffle House #518","8939 HAMILTON RD","SOUTHAVEN","MS","38671","34.9913372","-89.9997433"
"Waffle House #512","1515 W MCCLAIN AVE","SCOTTSBURG","IN","47170","38.6846518","-85.7920173"
"Waffle House #522","9092 MAC DRIVE","PUNTA GORDA","FL","33950","26.898763","-82.058391"
"Waffle House #528","2210 ARMORY DR","MURFREESBORO","TN","37129","35.8480485","-86.4313488"
"Waffle House #516","12701 ST CHARLES ROCK","BRIDGETON","MO","63044","38.284489","-90.397449"
"Waffle House #527","5007 PELHAM RD","GREENVILLE","SC","29615","34.858396","-82.327881"
"Waffle House #535","15979 NW US HWY 441","ALACHUA","FL","32615","29.802161","-82.515681"
"Waffle House #536","1066 US HIGHWAY 301 S","BALDWIN","FL","32234","30.286872","-81.982784"
"Waffle House #523","4212 27TH STREET","ORANGE","TX","77632","30.1222448","-93.7617738"
"Waffle House #543","10439 REIGER RD","BATON ROUGE","LA","70809","30.3838069","-91.064461"
"Waffle House #509","5391 W IRLO BRONSON MEMORIAL HWY","KISSIMMEE","FL","34746","28.3038764","-81.4597816"
"Waffle House #521","3850 E. MULBERRY","FORT COLLINS","CO","80524","40.5819657","-105.004541"
"Waffle House #534","2210 S COULTER ST","AMARILLO","TX","79106","35.1860164","-101.9204377"
"Waffle House #544","2951 WASHINGTON RD","AUGUSTA","GA","30909","33.5119577","-82.0400656"
"Waffle House #547","7954 NE 8TH WAY","WILDWOOD","FL","34785","28.493013","-81.530512"
"Waffle House #533","6780 POTTERY RD","SPARTANBURG","SC","29303","34.9905825","-82.022515"
"Waffle House #551","6840 FRANKLIN-LEBANON RD","FRANKLIN","OH","45005","39.5421115","-84.2917875"
"Waffle House #554","5411 ALABAMA HWY","RINGGOLD","GA","30736","34.9125381","-85.1244959"
"Waffle House #549","5365 PTREE IND BLVD","NORCROSS","GA","30092","33.891757","-84.646738"
"Waffle House #542","1924 WEST ELM","LEBANON","MO","65536","37.6608037","-92.6674946"
"Waffle House #555","7047 AMIN DRIVE","CHATTANOOGA","TN","37421","35.0428234","-85.1588577"
"Waffle House #561","7676 HWY 70 S","NASHVILLE","TN","37221","36.0793157","-86.9528104"
"Waffle House #541","3919 SW 40TH BLVD","GAINESVILLE","FL","32608","29.6182796","-82.3831275"
"Waffle House #550","250 NORTHRIDGE RD","SANDY SPRINGS","GA","30350","33.9816638","-84.3494555"
"Waffle House #553","4995 OLD NATIONAL HWY","COLLEGE PARK","GA","30349","33.6190877","-84.473733"
"Waffle House #563","2615 ZELDA RD","MONTGOMERY","AL","36107","32.364155","-86.2708869"
"Waffle House #562","4833 BILL GARDNER PY","LOCUST GROVE","GA","30248","33.353105","-84.124671"
"Waffle House #564","10930 NEW HAVEN RD","HARRISON","OH","45030","39.2582185","-84.8028078"
"Waffle House #558","2587 W INT'L SPEEDWAY BLVD","DAYTONA BEACH","FL","32114","28.870385","-81.97802"
"Waffle House #569","2026 MULBERRY STREET","ELIZABETHTOWN","KY","42701","37.7160983","-85.8245556"
"Waffle House #572","4 CAROL ROAD","WINCHESTER","KY","40391","38.0067394","-84.209636"
"Waffle House #571","10106 ALCOVY RD","COVINGTON","GA","30014","33.6170271","-83.8424143"
"Waffle House #566","603 67 STREET CIRCLE E","BRADENTON","FL","34208","27.494683","-82.476353"
"Waffle House #565","28100 QUAILS NEST LN","BONITA SPRINGS","FL","34135","26.3308176","-81.7519213"
"Waffle House #568","105 CHAMBER OF COMMERCE DR SUITE A","ENNIS","TX","75119","32.269244","-96.69358"
"Waffle House #577","3521 BAKER RD","ACWORTH","GA","30101","34.0757565","-84.6511981"
"Waffle House #576","5180 CARMICHAEL RD","MONTGOMERY","AL","36106","32.3597174","-86.2177094"
"Waffle House #579","3695 ST MATTHEWS RD","ORANGEBURG","SC","29118","33.555476","-80.825841"
"Waffle House #567","6502 N US HIGHWAY 301","TAMPA","FL","33610","28.001211","-82.356762"
"Waffle House #574","3800 FLAT SHOALS RD","UNION CITY","GA","30291","33.5853378","-84.5153329"
"Waffle House #580","2918 WOODROW DR","LITHONIA","GA","30038","33.698757","-84.118006"
"Waffle House #586","401 E GREGORY ST","PENSACOLA","FL","32501","30.417134","-87.205592"
"Waffle House #584","2340 ELM HILL PIKE","NASHVILLE","TN","37214","36.1538233","-86.6860312"
"Waffle House #589","1675 E MARKET ST","HARRISONBURG","VA","22801","38.4337015","-78.8451595"
"Waffle House #592","11292 HWY 41","RINGGOLD","GA","30736","34.907447","-85.079381"
"Waffle House #597","2940 JIMMY JOHNSON","PORT ARTHUR","TX","77642","29.9382037","-93.9813059"
"Waffle House #594","8915 OLD NUMBER #6 HWY","SANTEE","SC","29142","33.49188","-80.492086"
"Waffle House #598","5801 49TH WEST AVE S","TULSA","OK","74107","36.078073","-96.047562"
"Waffle House #590","219 SANDY CREEK PARKWAY","SAINT AUGUSTINE","FL","32095","30.049223","-81.486976"
"Waffle House #595","170 ERNEST BARRETT","MARIETTA","GA","30066","34.0145245","-84.5567051"
"Waffle House #605","3487 MADISON HWY","VALDOSTA","GA","31601","30.7555959","-83.2713718"
"Waffle House #607","4465 HWY 520","COCOA","FL","32926","28.359838","-80.793203"
"Waffle House #601","1845 REMOUNT RD","GASTONIA","NC","28054","35.2693126","-81.146571"
"Waffle House #95","1912 CHATTANOOGA RD","DALTON","GA","30720","34.7931955","-84.9833479"
"Waffle House #606","8401 PEARL STREET","THORNTON","CO","80229","39.849212","-104.97942"
"Waffle House #603","9725 MASON MONTGOMERY RD.","MASON","OH","45040","39.3225542","-84.3125099"
"Waffle House #611","3804 S FERDON BLVD","CRESTVIEW","FL","32536","30.7229406","-86.5692353"
"Waffle House #608","4761 CENTRAL AVE","HOT SPRINGS","AR","71913","34.44468","-93.089855"
"Waffle House #596","43 EXECUTIVE DR","CROSSVILLE","TN","38555","35.9983205","-85.0445991"
"Waffle House #602","1244 RICHMOND AVE","STAUNTON","VA","24401","38.1343024","-79.0431693"
"Waffle House #617","4690 SEVEN DWARFS LANE","KISSIMMEE","FL","34746","28.325716","-81.469265"
"Waffle House #593","1825 BELTLINE RD","MESQUITE","TX","75149","32.788749","-96.595963"
"Waffle House #612","3202 BANKHEAD DR","LITTLE ROCK","AR","72206","34.7145456","-92.2242794"
"Waffle House #614","1811 WILLIAMS DR","MARIETTA","GA","30066","33.9984501","-84.5296692"
"Waffle House #613","1832 HOLIDAY DR","ATHENS","TN","37303","35.4667504","-84.6444763"
"Waffle House #619","19260 TIMBERCREST","CATOOSA","OK","74015","36.1641669","-95.7633813"
"Waffle House #618","1515 51ST AVE EAST","ELLENTON","FL","34222","27.527413","-82.512727"
"Waffle House #616","2676 COLUMBIA HWY N","AIKEN","SC","29805","33.6602707","-81.6742771"
"Waffle House #620","1114 HWY 76","CLARKSVILLE","TN","37043","36.506424","-87.364031"
"Waffle House #626","28 BIRMINGHAM HWY","CHATTANOOGA","TN","37419","35.0180404","-85.3808181"
"Waffle House #628","3410 E. SUNSHINE ST","SPRINGFIELD","MO","65804","37.1802321","-93.2255317"
"Waffle House #622","2164 COBB PKWY, NW","KENNESAW","GA","30152","34.010664","-84.609661"
"Waffle House #625","6137 HWY 278","COVINGTON","GA","30014","33.60188","-83.841552"
"Waffle House #610","3845 GRANDVIEW DR","SIMPSONVILLE","SC","29680","34.7166454","-82.2531992"
"Waffle House #624","3134 PEACH ORCHRD RD","AUGUSTA","GA","30906","33.411591","-82.02609"
"Waffle House #632","1036 SOUTH LAKE DR","LEXINGTON","SC","29073","33.9548698","-81.2328384"
"Waffle House #630","621 JOHNSON FERRY RD","MARIETTA","GA","30068","33.9640165","-84.4120965"
"Waffle House #633","5597 GREEN ST","BRASELTON","GA","30517","34.115279","-83.762813"
"Waffle House #636","1540 LAFAYETTE PKWY","LAGRANGE","GA","30241","33.04231","-84.979558"
"Waffle House #644","4937 KNIGHTS WAY","INDIANAPOLIS","IN","46217","39.6938409","-86.1878402"
"Waffle House #643","8208 TWO NOTCH RD","COLUMBIA","SC","29223","34.0411991","-80.9960604"
"Waffle House #641","7705 LEE HIGHWAY","CHATTANOOGA","TN","37421","35.0453272","-85.1617574"
"Waffle House #640","1470 GEORGE BUSBEE PKWY NW","KENNESAW","GA","30144","34.0474197","-84.5831362"
"Waffle House #635","5737 CLARK RD","SARASOTA","FL","34233","27.2689409","-82.4571016"
"Waffle House #652","1016 COSBY HWY.","NEWPORT","TN","37821","35.9665539","-83.1928984"
"Waffle House #634","12801 STATE ROAD 535","ORLANDO","FL","32836","28.380047","-81.505095"
"Waffle House #654","2203 NORTH BROADWAY","LEXINGTON","KY","40505","38.0782425","-84.4527599"
"Waffle House #650","5421 VILLAGE MARKET","WESLEY CHAPEL","FL","33544","28.2351308","-82.351737"
"Waffle House #651","103 ASSEMBLY RD","PIEDMONT","SC","29673","34.774069","-82.461813"
"Waffle House #656","1326 SNIDERS HWY","WALTERBORO","SC","29488","32.8800742","-80.7121532"
"Waffle House #661","8912 LEE HWY","OOLTEWAH","TN","37363","35.085785","-85.066681"
"Waffle House #645","1202 GEORGE C WILSON DR","AUGUSTA","GA","30909","33.4819248","-82.0877132"
"Waffle House #659","102 RED CEDAR CT","CHESAPEAKE","VA","23320","36.7673566","-76.2526896"
"Waffle House #663","1227 VIRGINIA AVE","EAST POINT","GA","30344","33.6588979","-84.4295481"
"Waffle House #662","1067 EAST HIGHWAY 98","DESTIN","FL","32541","30.386556","-86.469201"
"Waffle House #667","1240 E. GARNER BAGNAL BLVD","STATESVILLE","NC","28677","35.772046","-80.860918"
"Waffle House #672","486 SPRINGRIDGE RD","CLINTON","MS","39056","32.3306108","-90.3263121"
"Waffle House #668","2340 N. WASHINGTON ST","FORREST CITY","AR","72335","35.0324842","-90.789821"
"Waffle House #671","1245 Lakes Blvd","LAKE PARK","GA","31636","30.684691","-83.205542"
"Waffle House #670","219 GRAYSON HIGHWAY","LAWRENCEVILLE","GA","30046","33.9464666","-83.9857616"
"Waffle House #682","4406 W HARDY ST","HATTIESBURG","MS","39402","31.324691","-89.335164"
"Waffle House #674","209 EAST HWY 98","DESTIN","FL","32541","30.394754","-86.507633"
"Waffle House #660","127 MOTEL DRIVE","ST GEORGE","SC","29477","33.1947178","-80.6035612"
"Waffle House #664","3023 COLUMBIANA RD","VESTAVIA HILLS","AL","35216","33.4158064","-86.8057076"
"Waffle House #676","1012 NORTH HWY 47","WARRENTON","MO","63383","38.822832","-91.138346"
"Waffle House #677","105 RUSHING RD E","DENHAM SPRINGS","LA","70726","30.4573122","-90.9513377"
"Waffle House #683","220 EASTERN BY PASS","RICHMOND","KY","40475","37.736238","-84.314911"
"Waffle House #680","1302A ST. AUGUSTINE ROAD","VALDOSTA","GA","31601","30.8426408","-83.3267128"
"Waffle House #685","1407 NORTH MAIN ST","BRINKLEY","AR","72021","34.9053685","-91.1985829"
"Waffle House #689","167 MAXWELL RD","RAYVILLE","LA","71269","32.841304","-91.885351"
"Waffle House #681","41 YEMASSEE RD","YEMASSEE","SC","29945","32.691745","-80.85362"
"Waffle House #691","3305 E RACE AVE","SEARCY","AR","72143","35.2505135","-91.6954075"
"Waffle House #690","2805 DELK ROAD","MARIETTA","GA","30067","33.9244114","-84.4700098"
"Waffle House #694","1702 N EXPRESSWAY","GRIFFIN","GA","30223","33.2566578","-84.2880877"
"Waffle House #684","9539 HWY 92","WOODSTOCK","GA","30188","34.0865922","-84.5300875"
"Waffle House #696","3871 S.W. COLLEGE RD","OCALA","FL","34474","29.148159","-82.187302"
"Waffle House #699","6531 DUDLEY DR","NAPLES","FL","34105","26.21071","-81.74296"
"Waffle House #705","6308 BANNER ELK DR","CHARLOTTE","NC","28216","35.3062478","-80.8512694"
"Waffle House #698","2905 PHILLIPS DR","JONESBORO","AR","72401","35.8092506","-90.6719254"
"Waffle House #708","2225 N CHARLES G","CLINTON","TN","37716","36.163081","-84.086838"
"Waffle House #703","586 HUGH ADAMS RD","DEFUNIAK SPRINGS","FL","32435","30.6958662","-86.121688"
"Waffle House #697","3408 MIKE PADGETT HY","AUGUSTA","GA","30906","33.398813","-82.005538"
"Waffle House #704","1415 N MAIN ST","SUMMERVILLE","SC","29483","33.0371249","-80.1532133"
"Waffle House #712","801 FAIRVIEW ST","FOUNTAIN INN","SC","29644","34.6906581","-82.2146447"
"Waffle House #706","3304 DICKERSON RD","NASHVILLE","TN","37207","36.2977184","-86.7372954"
"Waffle House #713","6007 SHALLOWFORD RD","CHATTANOOGA","TN","37411","35.05406","-85.1885413"
"Waffle House #711","1227 13th AVENUE DR SE","HICKORY","NC","28602","35.7113326","-81.3148808"
"Waffle House #717","30789 HWY 441 S.","COMMERCE","GA","30529","34.213544","-83.461079"
"Waffle House #716","1245 US HWY 42 NE","LONDON","OH","43140","39.957642","-83.373212"
"Waffle House #719","3639 WEST US HWY 90","LAKE CITY","FL","32055","30.186453","-82.603858"
"Waffle House #720","936 JAKE ALEXANDER BLVD S","SALISBURY","NC","28147","35.647633","-80.4932355"
"Waffle House #715","354 COLLEGE PARK RD","LADSON","SC","29456","33.0024297","-80.0891459"
"Waffle House #718","1012 US HIGHWAY 80 E","POOLER","GA","31322","32.1088625","-81.2312258"
"Waffle House #722","105 COUNTRY CLUB DR","STOCKBRIDGE","GA","30281","33.5067673","-84.2275331"
"Waffle House #700","1825 PLEASANT HILL ROAD","DULUTH","GA","30096","33.9499094","-84.1289297"
"Waffle House #726","3090 WEST 5TH AVE","LUMBERTON","NC","28358","34.622196","-79.049871"
"Waffle House #728","2124 CEDAR CREEK RD","FAYETTEVILLE","NC","28312","35.005767","-78.8156199"
"Waffle House #725","2624 WESTINGHOUSE BLVD","RALEIGH","NC","27604","35.8147406","-78.5963716"
"Waffle House #727","1988 O'NEAL LANE","BATON ROUGE","LA","70816","30.4254621","-91.0075959"
"Waffle House #729","1115 S. LEWIS ST.","METTER","GA","30439","32.376019","-82.063772"
"Waffle House #730","3531 PEACHTREE","DULUTH","GA","30096","34.0029314","-84.1704024"
"Waffle House #734","1495 S 6TH STREET","MACCLENNY","FL","32063","30.262618","-82.122442"
"Waffle House #723","309 E. EMORY RD","POWELL","TN","37849","36.047466","-84.002819"
"Waffle House #732","2571 ASHLEY PHOSPHATE","NORTH CHARLESTON","SC","29418","32.9336016","-80.0523628"
"Waffle House #740","1507 US HIGHWAY 72 E","ATHENS","AL","35611","34.7834313","-86.9384589"
"Waffle House #738","1900 FIRST AVE SE","MOULTRIE","GA","31768","31.176831","-83.762528"
"Waffle House #736","363 WEST MILLS ST","COLUMBUS","NC","28722","35.249218","-82.2026053"
"Waffle House #739","2101 SW RAILROAD AVE","HAMMOND","LA","70403","30.4908391","-90.4573366"
"Waffle House #741","2230 7TH STREET S","CLANTON","AL","35046","32.8017789","-86.5789216"
"Waffle House #746","1310 OCONEE STREET","ATHENS","GA","30605","33.9476761","-83.3585269"
"Waffle House #751","3550 W PALMETTO ST","FLORENCE","SC","29501","34.1622081","-79.8560258"
"Waffle House #750","104 N KEENELAND DR","RICHMOND","KY","40475","37.7762981","-84.3192726"
"Waffle House #754","200 W. HANES MILL RD","WINSTON SALEM","NC","27105","36.188441","-80.279099"
"Waffle House #759","1602 JEFFERSON STREET","LAUREL","MS","39440","31.6859258","-89.1469868"
"Waffle House #756","1128 N CHALKVILLE RD","TRUSSVILLE","AL","35173","33.6392836","-86.612566"
"Waffle House #757","10435 HWY 49","GULFPORT","MS","39503","30.438724","-89.097597"
"Waffle House #762","4752 HWY 78","LOGANVILLE","GA","30052","33.83342","-83.884645"
"Waffle House #763","121 JOHN MCGHEE BLVD","CARYVILLE","TN","37714","36.2977973","-84.2135951"
"Waffle House #760","205 STONERIDGE DR","COLUMBIA","SC","29210","34.0151474","-81.0773456"
"Waffle House #765","3123 HWY 190 W","HAMMOND","LA","70401","30.50447","-90.501106"
"Waffle House #768","102 LECT DR","PERRY","GA","31069","32.4469649","-83.7523671"
"Waffle House #770","1646 BELLS HIGHWAY","WALTERBORO","SC","29488","32.9245578","-80.6830093"
"Waffle House #772","3455 MACON ROAD","COLUMBUS","GA","31907","32.4840006","-84.9380451"
"Waffle House #771","2034 S. MILLEDGE AVE","ATHENS","GA","30605","33.9230849","-83.3792538"
"Waffle House #764","37 INN RD","CARROLLTON","KY","41008","38.650537","-85.123483"
"Waffle House #774","2320 S. SHERWOOD FOREST B","BATON ROUGE","LA","70816","30.431532","-91.05693"
"Waffle House #773","1941 HWY 441","MADISON","GA","30650","33.559599","-83.476717"
"Waffle House #776","1795 ASHVILLE HWY","SPARTANBURG","SC","29303","34.982603","-81.969804"
"Waffle House #777","143 HWY 74 S","PEACHTREE CITY","GA","30269","33.368797","-84.575069"
"Waffle House #743","14860 US HIGHWAY 301 S","ROWLAND","NC","28383","34.544848","-79.285951"
"Waffle House #775","4896 UNIVERSITY DR","HUNTSVILLE","AL","35816","34.7387397","-86.6582055"
"Waffle House #791","3635 AUSTELL RD.","MARIETTA","GA","30008","33.832792","-84.61184"
"Waffle House #782","1281 S. 48TH ST.","SPRINGDALE","AR","72762","36.1745482","-94.1831673"
"Waffle House #778","1398 AUSTELL RD SE","MARIETTA","GA","30008","33.919042","-84.548649"
"Waffle House #784","2360 WESTBELT DRIVE","COLUMBUS","OH","43228","39.9984847","-83.1234007"
"Waffle House #785","807 EAST HARDEN ST","GRAHAM","NC","27253","36.0625076","-79.3828975"
"Waffle House #783","1702 E OGLETHORPE BLVD","ALBANY","GA","31705","31.5707072","-84.1074598"
"Waffle House #788","130 SCENIC GULF DR #9","MIRAMAR BEACH","FL","32550","30.3765124","-86.3509964"
"Waffle House #780","3707 SUMMERVILLE RD","PHENIX CITY","AL","36867","32.4966385","-85.0152676"
"Waffle House #786","5071 PEACHTREE IND BLVD","CHAMBLEE","GA","30341","33.9101271","-84.2900606"
"Waffle House #793","9420 DANIELS PKWY","FORT MYERS","FL","33912","26.547088","-81.79981"
"Waffle House #779","865 W GOODMAN ROAD","HORN LAKE","MS","38637","34.962654","-90.061381"
"Waffle House #792","8325 W. MCDOWELL RD","TOLLESON","AZ","85353","33.4649554","-112.2392967"
"Waffle House #769","6941 GA HWY 21","PORT WENTWORTH","GA","31407","32.236548","-81.192461"
"Waffle House #794","3069 WILMA RUDOLPH BLVD","CLARKSVILLE","TN","37040","36.5946195","-87.2873765"
"Waffle House #796","111 DAYS INN DR","MOORESVILLE","NC","28117","35.5943242","-80.8576532"
"Waffle House #798","1290 ARCHER DRIVE","TROY","OH","45373","40.0259598","-84.2251567"
"Waffle House #766","119A CEDAR LANE","KNOXVILLE","TN","37912","36.0119154","-83.9698423"
"Waffle House #799","2250 S. MAIN ST.","GREENSBORO","GA","30642","33.5476035","-83.204009"
"Waffle House #801","2597 COBBS FORD RD","PRATTVILLE","AL","36066","32.4600705","-86.3914944"
"Waffle House #802","707 STEWARTS FERRY PIKE","NASHVILLE","TN","37214","36.1547201","-86.6263855"
"Waffle House #797","3164 DEANS BRIDGE RD","AUGUSTA","GA","30906","33.4257428","-82.0541968"
"Waffle House #803","11213 FRONTAGE DRIVE","WALTON","KY","41094","38.917165","-84.631963"
"Waffle House #805","907 FOX RUN PKWY","OPELIKA","AL","36801","32.6564877","-85.3575563"
"Waffle House #804","714 SOUTH MAIN ST","KING","NC","27021","36.262634","-80.363229"
"Waffle House #810","1921 MLK BLVD","MALVERN","AR","72104","34.36975","-92.839331"
"Waffle House #707","525 HWY 601 S","LUGOFF","SC","29078","34.1925416","-80.6883001"
"Waffle House #806","1168 MALARBAR RD SE","PALM BAY","FL","32907","28.017577","-80.659539"
"Waffle House #814","4540 N HWY 81","ANDERSON","SC","29621","34.6364286","-82.5972634"
"Waffle House #818","9570 ASHEVILLE HWY","INMAN","SC","29349","35.026306","-82.0321143"
"Waffle House #809","444 TIFT COLLEGE DR","FORSYTH","GA","31029","33.0350685","-83.9237372"
"Waffle House #807","197 TOWNE LAKE PKWY","WOODSTOCK","GA","30188","34.1022261","-84.5277925"
"Waffle House #812","1203 MARTIN ST N","PELL CITY","AL","35125","33.625386","-86.282515"
"Waffle House #808","1551 S. EUFAULA AVE","EUFAULA","AL","36027","31.8726259","-85.1545135"
"Waffle House #822","1113 SUMTER HWY","BISHOPVILLE","SC","29010","34.210483","-80.259594"
"Waffle House #819","1090 WEST MAIN ST","HENDERSONVILLE","TN","37075","36.3070791","-86.655029"
"Waffle House #815","9450 WHITE SETTLEMENT RD","FORT WORTH","TX","76108","32.7611376","-97.4799159"
"Waffle House #826","2998 GRAND POINT HWY","BREAUX BRIDGE","LA","70517","30.286052","-91.8758484"
"Waffle House #823","907 E MAIN ST.","BENSON","NC","27504","35.3757281","-78.537825"
"Waffle House #820","8185 EAST MAIN ST","RIDGELAND","SC","29936","32.4787717","-80.9752916"
"Waffle House #824","2610 NORTH HWY 62","ORANGE","TX","77632","30.193451","-93.862467"
"Waffle House #825","2140 MOODY PKWY","MOODY","AL","35004","33.617974","-86.457382"
"Waffle House #833","4614 CLEBURNE BLVD","DUBLIN","VA","24084","37.091423","-80.68783"
"Waffle House #830","1133 W WADE HAMPTON BLVD","GREER","SC","29650","34.9425759","-82.2567216"
"Waffle House #831","4210 LAKELAND HILLS BLVD","LAKELAND","FL","33805","28.0951936","-81.9524695"
"Waffle House #834","2727 MCGAVOCK PIKE","NASHVILLE","TN","37214","36.2160402","-86.6887144"
"Waffle House #832","106 LARSON ST","JACKSON","MS","39202","32.3068494","-90.1675592"
"Waffle House #827","2130 MT ZION PKWY","MORROW","GA","30260","33.560832","-84.31501"
"Waffle House #843","556 DONELSON PIKE","NASHVILLE","TN","37214","36.1444474","-86.6673002"
"Waffle House #835","985 W. SOUTH BLVD","MONTGOMERY","AL","36105","32.326037","-86.319248"
"Waffle House #838","1800 N UNIVERSITY AVE","LAFAYETTE","LA","70507","30.2530436","-92.0369772"
"Waffle House #844","112 EAST NC HWY 54 I-40","DURHAM","NC","27713","35.910839","-78.934891"
"Waffle House #842","3021 PAXVILLE HWY","MANNING","SC","29102","33.703608","-80.242293"
"Waffle House #841","903 BUFORD RD","CUMMING","GA","30041","34.1891252","-84.1294461"
"Waffle House #847","1001 CLEMSON FRONTAGE RD","COLUMBIA","SC","29229","34.0971794","-80.8555408"
"Waffle House #836","2998 S HWY 360","GRAND PRAIRIE","TX","75051","32.681922","-97.061342"
"Waffle House #840","4140 MARLANE DRIVE","GROVE CITY","OH","43123","39.8979322","-83.0558038"
"Waffle House #846","5105 PLAZA DRIVE","HOPEWELL","VA","23860","37.2630154","-77.3250982"
"Waffle House #850","10931 AL HIGHWAY 168","BOAZ","AL","35957","34.237005","-86.119345"
"Waffle House #845","3335 STEVE REYNOLDS BLVD","DULUTH","GA","30096","33.9536193","-84.1414479"
"Waffle House #852","321 E HWY Z","ST ROBERT","MO","65584","37.822843","-92.140118"
"Waffle House #851","64 BROADWAY RD","DRY RIDGE","KY","41035","38.682125","-84.599038"
"Waffle House #848","326 S MT JULIET RD","MOUNT JULIET","TN","37122","36.17146","-86.5129401"
"Waffle House #829","105 FRONTAGE ROAD","AIKEN","SC","29801","33.6383726","-81.7388882"
"Waffle House #849","382 E BEACH BLVD","GULF SHORES","AL","36542","30.2496661","-87.6817421"
"Waffle House #855","1724 S HIGHLAND AVE","JACKSON","TN","38301","35.5638144","-88.8141766"
"Waffle House #859","1979 MEL BROWNING ST","BOWLING GREEN","KY","42104","36.9298856","-86.4187353"
"Waffle House #862","571 S MAIN ST","ALPHARETTA","GA","30009","34.066195","-84.306546"
"Waffle House #854","19 W MAY ST","WINDER","GA","30680","33.9931994","-83.7286872"
"Waffle House #860","8582 NAVARRE PKWY","NAVARRE","FL","32566","30.4019755","-86.8639761"
"Waffle House #858","875 JOHNSTON PKWY","KENLY","NC","27542","35.5819455","-78.1482061"
"Waffle House #870","4050 BOATWAYS RD","FORT MYERS","FL","33905","26.684726","-81.796056"
"Waffle House #861","405 E RENFRO ST","BURLESON","TX","76028","32.5443963","-97.3137105"
"Waffle House #867","500 FIELDSTOWN RD","GARDENDALE","AL","35071","33.6524687","-86.8194003"
"Waffle House #868","1410 AR-9 BUS","MORRILTON","AR","72110","35.169947","-92.717377"
"Waffle House #866","100 EGAN RD","CROWLEY","LA","70526","30.236257","-92.524985"
"Waffle House #874","310 BRANNON RD","CUMMING","GA","30041","34.155466","-84.173239"
"Waffle House #853","5602 MABLETON PKWY","MABLETON","GA","30126","33.8176073","-84.5762306"
"Waffle House #864","545 QUINTARD DRIVE","OXFORD","AL","36203","33.6058027","-85.8297882"
"Waffle House #871","3350 14TH AVE SE","CONOVER","NC","28613","35.704851","-81.264557"
"Waffle House #869","101 E.FLOWERWOOD RD","LOXLEY","AL","36551","30.61825","-87.75305"
"Waffle House #872","5146 MERCER UNIVERSITY DR","MACON","GA","31210","32.8321266","-83.7296898"
"Waffle House #873","2021 E BLUELICK ROAD","SHEPHERDSVILLE","KY","40165","38.060921","-85.701448"
"Waffle House #880","2308 SE WALTON BLVD","BENTONVILLE","AR","72712","36.3346997","-94.1858902"
"Waffle House #877","4370 JONESBORO RD","UNION CITY","GA","30291","33.5665155","-84.5323606"
"Waffle House #883","2900 WEST RADIO RD","FLORENCE","SC","29501","34.190403","-79.836202"
"Waffle House #886","629 WOODBURY HWY","MANCHESTER","TN","37355","35.4967422","-86.0873086"
"Waffle House #882","3998 METHODIST CIR","BESSEMER","AL","35022","33.336961","-86.917157"
"Waffle House #885","2507 PENTEE DRIVE","GAINESVILLE","GA","30507","34.2819367","-83.8002668"
"Waffle House #889","216 BLYTHEWOOD RD","BLYTHEWOOD","SC","29016","34.2143143","-80.977926"
"Waffle House #893","603 PARK STREET","BELMONT","NC","28012","35.2519072","-81.0285125"
"Waffle House #891","4800 HWY 18 W","JACKSON","MS","39209","32.291204","-90.268834"
"Waffle House #900","3915 LAWRENCEVILLE HWY","LILBURN","GA","30047","33.9061935","-84.1112463"
"Waffle House #881","2-A GATEWAY W BLVD","SAVANNAH","GA","31419","32.003993","-81.281011"
"Waffle House #884","2660 S MCKENZIE ST","FOLEY","AL","36535","30.370834","-87.683378"
"Waffle House #902","5656 INDIAN RIVER RD","VIRGINIA BEACH","VA","23464","36.8049313","-76.1891196"
"Waffle House #887","5701 MILGEN RD","COLUMBUS","GA","31907","32.5240097","-84.8883723"
"Waffle House #894","411 CEDAR BLUFF ROAD","KNOXVILLE","TN","37923","35.923262","-84.093487"
"Waffle House #901","11749 E COLONIAL DR","ORLANDO","FL","32817","28.5535468","-81.3222981"
"Waffle House #888","1363 HWY 29 S","NEWNAN","GA","30265","33.431439","-84.757371"
"Waffle House #892","3210 N MONROE ST","TALLAHASSEE","FL","32303","30.4857097","-84.3154106"
"Waffle House #899","2260 SIGMAN RD","CONYERS","GA","30012","33.686326","-84.039056"
"Waffle House #897","2408 N ARKANSAS AVE","RUSSELLVILLE","AR","72802","35.3045111","-93.13791"
"Waffle House #903","3939 SUNSET BLVD.","WEST COLUMBIA","SC","29169","33.99901","-81.091663"
"Waffle House #898","4375 TILLY MILL ROAD","DORAVILLE","GA","30360","33.923696","-84.281642"
"Waffle House #908","3305 POINT MALLARD PKWY I65 EXT 334","PRICEVILLE","AL","35603","34.489407","-87.182074"
"Waffle House #910","446 S MAIN ST","STATESBORO","GA","30458","32.4349426","-81.7847077"
"Waffle House #911","14106 STATESVILLE RD","HUNTERSVILLE","NC","28078","35.4084415","-80.8543385"
"Waffle House #896","8915 N HWY 146","MONT BELVIEU","TX","77523","29.821432","-94.899023"
"Waffle House #907","9295 N. MAIN STREET","DAYTON","OH","45415","39.826921","-84.245532"
"Waffle House #924","5685 BELLS FERRY RD","ACWORTH","GA","30102","34.090376","-84.578987"
"Waffle House #913","113 JAMES ASHBURY DR","CLEVELAND","TN","37312","35.222512","-84.814033"
"Waffle House #875","18 ROPER MOUNTAIN RD","GREENVILLE","SC","29607","34.8370703","-82.3154107"
"Waffle House #925","25101 PERDIDO BEACH","ORANGE BEACH","AL","36561","30.26967","-87.585504"
"Waffle House #919","2215 HWY 71","MARIANNA","FL","32448","30.725073","-85.1854"
"Waffle House #914","1729 BESSEMER CITY RD","GASTONIA","NC","28052","35.2782535","-81.2326817"
"Waffle House #931","1079 S WILLOW AVE","COOKEVILLE","TN","38501","36.1387459","-85.5278083"
"Waffle House #916","705 W MAIN ST","MONTEAGLE","TN","37356","35.2407385","-85.8414135"
"Waffle House #935","476 NORTHSIDE DR E","STATESBORO","GA","30458","32.4555118","-81.7797409"
"Waffle House #922","4065 PEACHTREE RD","ATLANTA","GA","30319","33.8568719","-84.3493634"
"Waffle House #927","4615 I 55 NORTH","JACKSON","MS","39206","32.370044","-90.169987"
"Waffle House #934","32 BARBER BLVD","WAYNESVILLE","NC","28786","35.5031825","-82.989733"
"Waffle House #930","10357 PATRIOT HWY","FREDERICKSBURG","VA","22408","38.2436014","-77.4982373"
"Waffle House #933","5377 BEACH BLVD","MASON","OH","45040","39.35891","-84.267143"
"Waffle House #920","7203 GARTH RD","BAYTOWN","TX","77521","29.805922","-94.9822766"
"Waffle House #936","56 TRAVELERS REST RD","JASPER","GA","30143","34.465922","-84.4600969"
"Waffle House #918","100 JACKSON COURT","LUMBERTON","NC","28358","34.6665939","-79.0055152"
"Waffle House #929","2580 DAVIE RD","FORT LAUDERDALE","FL","33317","26.086009","-80.228924"
"Waffle House #939","8600 FARROW RD","COLUMBIA","SC","29203","34.092361","-80.9714898"
"Waffle House #915","6350 TARA BLVD","JONESBORO","GA","30236","33.497894","-84.345589"
"Waffle House #932","1620 KENTUCKY MILLS","JEFFERSONTOWN","KY","40299","38.2188185","-85.5395625"
"Waffle House #944","410 FIRST AVE","E. ELLIJAY","GA","30539","34.679346","-84.474944"
"Waffle House #940","14991 OLD HICKORY BLVD","NASHVILLE","TN","37211","36.045132","-86.7027336"
"Waffle House #938","308 THOMAS ROAD","WEST MONROE","LA","71291","32.510263","-92.157527"
"Waffle House #945","1635 ELTON RD","JENNINGS","LA","70546","30.2402128","-92.6640056"
"Waffle House #946","2505 MCCAIN BLVD","NORTH LITTLE ROCK","AR","72116","34.7970575","-92.2378195"
"Waffle House #942","15 SON IN LAW RD","BONIFAY","FL","32425","30.766266","-85.683476"
"Waffle House #943","2915 LAWRENCEVILLE SUWANEE RD","SUWANEE","GA","30024","34.0277617","-84.0452614"
"Waffle House #955","4223 APPALACHIAN HWY","BLUE RIDGE","GA","30513","34.872326","-84.324751"
"Waffle House #958","821 South Park St","CARROLLTON","GA","30117","33.5681786","-85.0779748"
"Waffle House #947","140 BROWNSWITCH RD","SLIDELL","LA","70458","30.3113047","-89.7684665"
"Waffle House #949","4302 BIG TREE WAY","GREENSBORO","NC","27409","36.0576936","-79.8890162"
"Waffle House #959","4285 PIO NONO","MACON","GA","31206","32.788532","-83.668394"
"Waffle House #956","243 SPUR 5","WINNIE","TX","77665","29.8306506","-94.3845492"
"Waffle House #960","2661 POWDER SPRINGS RD","MARIETTA","GA","30064","33.932111","-84.559381"
"Waffle House #952","2250 YALE BLVD. S.E.","ALBUQUERQUE","NM","87106","35.056908","-106.621938"
"Waffle House #950","816 MURFREESBORO RD","NASHVILLE","TN","37217","36.0940915","-86.6529587"
"Waffle House #957","105 MCMEANS AVE","BAY MINETTE","AL","36507","30.886592","-87.788915"
"Waffle House #961","150 E LOOP 820","FORT WORTH","TX","76112","32.777463","-97.2134806"
"Waffle House #964","980 J CLYDE MORRIS BLVD","NEWPORT NEWS","VA","23601","37.0956179","-76.4578061"
"Waffle House #962","500 E BOWMAN RD.","LITTLE ROCK","AR","72211","34.749604","-92.407113"
"Waffle House #953","3467 MUNDY MILL ROAD","GAINESVILLE","GA","30507","34.24395","-83.8820867"
"Waffle House #970","2903 MARTHA BERRY","ROME","GA","30161","34.250872","-85.139619"
"Waffle House #963","811 S JAMES CAMPBELL BLVD","COLUMBIA","TN","38401","35.596152","-87.056847"
"Waffle House #967","7391 NORTHWOODS BLVD","NORTH CHARLESTON","SC","29406","32.9360066","-80.0453183"
"Waffle House #971","300 HENSLEE DRIVE","DICKSON","TN","37055","36.079438","-87.378168"
"Waffle House #968","1000 MEMORIAL BLVD","PICAYUNE","MS","39466","30.5178457","-89.6661954"
"Waffle House #976","1803 W MAIN STREET","LEAGUE CITY","TX","77573","29.5024842","-95.116139"
"Waffle House #973","2519 WHISKEY RD","AIKEN","SC","29803","33.5071438","-81.7103375"
"Waffle House #979","11546 ALLEN RD","JEFFERSONVILLE","OH","43128","39.617288","-83.606301"
"Waffle House #966","1050 E DUBLIN GRANVILLE RD","COLUMBUS","OH","43229","40.0882293","-82.9891739"
"Waffle House #974","1201 BANKHEAD HWY","CARROLLTON","GA","30117","33.5967143","-85.0359876"
"Waffle House #969","2455 N FRONTAGE RD","VICKSBURG","MS","39180","32.3279014","-90.8629777"
"Waffle House #978","3824 TOLLHOUSE DR","NAPLES","FL","34114","26.155585","-81.685608"
"Waffle House #977","1670 CAPITAL CIR NW","TALLAHASSEE","FL","32303","30.4660632","-84.3611254"
"Waffle House #980","7022 SOUTH MINGO RD","TULSA","OK","74133","36.0620932","-95.8685946"
"Waffle House #917","760 DEKALB INDUSTRIAL WAY","DECATUR","GA","30033","33.7886282","-84.2764675"
"Waffle House #951","609 LONG POINT RD","MOUNT PLEASANT","SC","29464","32.8411382","-79.8576902"
"Waffle House #975","3970 S BELT LINE RD","GRAND PRAIRIE","TX","75052","32.6740303","-96.9847047"
"Waffle House #988","1901 N COVE BLVD","PANAMA CITY","FL","32405","30.183152","-85.650117"
"Waffle House #926","25 THOMAS GRFFIN RD","NEWBERRY","SC","29108","34.310011","-81.576598"
"Waffle House #981","4284 BELLS FERRY RD","KENNESAW","GA","30144","34.0548122","-84.5556826"
"Waffle House #986","1171 W MARTINTOWN RD","NORTH AUGUSTA","SC","29841","33.53628","-81.9881833"
"Waffle House #983","105 OCTAVIA DR","BRANDON","MS","39042","32.2811592","-90.0342378"
"Waffle House #991","503 APOLLO DRIVE","WAPAKONETA","OH","45895","40.5639345","-84.1738532"
"Waffle House #989","1104 NASHVILLE HWY","COLUMBIA","TN","38401","35.6390823","-87.0157505"
"Waffle House #985","2210 DEMERE RD","ST SIMONS ISLAND","GA","31522","31.159945","-81.38938"
"Waffle House #984","8765 TARA BLVD","JONESBORO","GA","30236","33.5164644","-84.3634903"
"Waffle House #994","4915 HWY 129 N","JEFFERSON","GA","30549","34.152111","-83.643095"
"Waffle House #992","1204 INDUSTRIAL PKWY","SARALAND","AL","36571","30.8022519","-88.10366"
"Waffle House #998","1410 GLENN BLVD SW","FORT PAYNE","AL","35968","34.4373524","-85.7507765"
"Waffle House #996","1909 NORTH HWY 157","MANSFIELD","TX","76063","32.60204","-97.14479"
"Waffle House #995","820 S MEMORIAL DR","GREENVILLE","NC","27858","35.612392","-77.3931167"
"Waffle House #997","1615 BASS CROSS RD","HOGANSVILLE","GA","30230","33.1601446","-84.8722218"
"Waffle House #993","8239 HWY. 278","COVINGTON","GA","30014","33.59996","-83.835587"
"Waffle House #1000","2850 E COLLEGE AVE","DECATUR","GA","30030","33.77157","-84.2910193"
"Waffle House #1002","1161 RAMBLING OAKS DR","NORMAN","OK","73072","35.2319996","-97.4893789"
"Waffle House #1007","3735 ROSWELL RD","ATLANTA","GA","30342","33.8570275","-84.3816785"
"Waffle House #999","2900 FM 1764 RD","LA MARQUE","TX","77568","29.399827","-95.036561"
"Waffle House #1001","12923 SHELBYVILLE RD","LOUISVILLE","KY","40243","38.244355","-85.5456766"
"Waffle House #1011","580 WARRENTON ROAD","FREDERICKSBURG","VA","22406","38.345517","-77.498709"
"Waffle House #1005","15228 US HIGHWAY 19 S","THOMASVILLE","GA","31757","30.858358","-83.947183"
"Waffle House #1016","3163 HWY 1 S","PORT ALLEN","LA","70767","30.4448784","-91.2101685"
"Waffle House #1012","2761 E. ANDREW","GREENEVILLE","TN","37745","36.1804094","-82.7756574"
"Waffle House #1006","6840 EAST FRONT ST","KANSAS CITY","MO","64120","39.130578","-94.5021818"
"Waffle House #1003","1002 HWY 90","BAY SAINT LOUIS","MS","39520","30.313765","-89.355552"
"Waffle House #1004","1900 COMMERCE ST","CULLMAN","AL","35055","34.207076","-86.875992"
"Waffle House #1008","8994 UNIVERSITY BLVD","NORTH CHARLESTON","SC","29406","32.9748303","-80.0610094"
"Waffle House #1010","7301 ABERCORN ST","SAVANNAH","GA","31406","32.0096345","-81.1147835"
"Waffle House #1013","183 HIGHWAY 43 SOUTH","TUSCUMBIA","AL","35674","34.612713","-87.658934"
"Waffle House #1020","513 JONESTOWN RD","WINSTON SALEM","NC","27103","36.0721991","-80.3386445"
"Waffle House #1009","2208 AIRPORT BLVD","WEST COLUMBIA","SC","29170","33.9541986","-81.0961501"
"Waffle House #1025","4701 LITTLE RD","ARLINGTON","TX","76017","32.6713223","-97.2020634"
"Waffle House #1015","6133 FAIRBURN RD","DOUGLASVILLE","GA","30134","33.7484892","-84.7052402"
"Waffle House #1014","13625 JONES STREET","LAVONIA","GA","30553","34.4436592","-83.1143216"
"Waffle House #1018","125 INTERSTATE DR","NORMAN","OK","73069","35.2367013","-97.4849635"
"Waffle House #1026","4077 JIMMIE DYESS PY","AUGUSTA","GA","30909","33.472827","-82.12844"
"Waffle House #1032","5631 BOYDTON PLANK RD","PETERSBURG","VA","23803","37.1947647","-77.4683194"
"Waffle House #1028","165 MAIN STREET","KIMBALL","TN","37347","35.0435564","-85.686038"
"Waffle House #1022","4595 WEST BROAD ST","COLUMBUS","OH","43228","39.9512527","-83.1499508"
"Waffle House #1033","1440 GADSDEN HWY","BIRMINGHAM","AL","35235","33.6163469","-86.619354"
"Waffle House #1042","4532 CHAMBLEE-DUNWOODY RD","ATLANTA","GA","30338","33.92347","-84.314654"
"Waffle House #1036","1914 N JACKSON ST","TULLAHOMA","TN","37388","35.3846255","-86.2319289"
"Waffle House #1041","17137 DUMFRIES RD","DUMFRIES","VA","22025","38.5820421","-77.3258043"
"Waffle House #1037","101 ROWE DR","ROCKY MOUNT","NC","27804","35.966359","-77.816612"
"Waffle House #1031","20804 IH 10","VIDOR","TX","77662","30.130045","-93.94452"
"Waffle House #1029","3907 ARKWRIGHT ROAD","MACON","GA","31210","32.9056459","-83.6870321"
"Waffle House #1045","11126 FRONT BEACH RD","PANAMA CITY BEACH","FL","32407","30.1825525","-85.816701"
"Waffle House #1030","125 PALISADE DR","BRUNSWICK","GA","31523","31.1403003","-81.5846774"
"Waffle House #1038","1470 HOLCOMB BR RD","ROSWELL","GA","30076","34.0204208","-84.3179495"
"Waffle House #1050","5067 J TURNER BUTLER BLVD","JACKSONVILLE","FL","32216","30.2456433","-81.5990071"
"Waffle House #1043","2442 SOUTH OATES ST","DOTHAN","AL","36301","31.1925136","-85.4009451"
"Waffle House #1040","102 N.E. INTERCHANGE","DIAMONDHEAD","MS","39525","30.372821","-89.377942"
"Waffle House #1046","7329 N. DAVIS HWY","PENSACOLA","FL","32504","30.5023008","-87.2222531"
"Waffle House #1044","2610 WEST I 20 ,","GRAND PRAIRIE","TX","75052","32.67641","-97.04561"
"Waffle House #1021","371 LONG SHOALS RD","ARDEN","NC","28704","35.482095","-82.553968"
"Waffle House #1047","250 OUTLET DRIVE","GEORGETOWN","KY","40324","38.2196719","-84.5394944"
"Waffle House #1035","2167 S COLLEGE ST","AUBURN","AL","36830","32.5635026","-85.5034668"
"Waffle House #1054","484 INDIAN TRAIL RD","LILBURN","GA","30047","33.848614","-84.078876"
"Waffle House #1053","909 BATTLEFIELD PKY","FT. OGLETHORPE","GA","30742","34.9538478","-85.2494339"
"Waffle House #1049","5600 EXECUTIVE BLVD","HUBER HEIGHTS","OH","45424","39.8728077","-84.1356593"
"Waffle House #1048","101 BASIC DRIVE","WEST MONROE","LA","71291","32.502861","-92.157174"
"Waffle House #1056","111 VILLAGE DR","LELAND","NC","28451","34.255159","-78.042583"
"Waffle House #1057","611 HWY 138","STOCKBRIDGE","GA","30281","33.545962","-84.186428"
"Waffle House #1034","1300 HWY 9 BY PASS","LANCASTER","SC","29720","34.712524","-80.801195"
"Waffle House #1052","2024 LANDMARK DR","CORYDON","IN","47112","38.235157","-86.127337"
"Waffle House #1058","3016 PIEDMONT RD","ATLANTA","GA","30305","33.8373608","-84.3686523"
"Waffle House #1051","2427 OLD FORT PKWY","MURFREESBORO","TN","37128","35.8449234","-86.4481207"
"Waffle House #1059","13505 GA HIGHWAY 251","DARIEN","GA","31305","31.473499","-81.487215"
"Waffle House #1055","3040 LAKECREST CIR.","LEXINGTON","KY","40513","38.0153355","-84.5533778"
"Waffle House #1066","3682 W. ANDREW","MORRISTOWN","TN","37814","35.778641","-84.019686"
"Waffle House #1027","4304 MAIN ST","LAPLACE","LA","70068","30.0813542","-90.4558273"
"Waffle House #1061","6220 ZEBULON RD","MACON","GA","31210","32.8798608","-83.7650507"
"Waffle House #285","3428 SPRINGHILL AVE","MOBILE","AL","36608","30.7005685","-88.1132815"
"Waffle House #1065","705 N MAIN ST","GREER","SC","29651","34.9489916","-82.2247847"
"Waffle House #1062","2160 BRICE ROAD","REYNOLDSBURG","OH","43068","39.938012","-82.8301638"
"Waffle House #1071","62 N 400 CENTER LANE","DAWSONVILLE","GA","30534","34.364726","-84.0361343"
"Waffle House #1074","1030 HWY 34 E","NEWNAN","GA","30265","33.399553","-84.728675"
"Waffle House #1064","10792 JONES BRIDGE RD","JOHNS CREEK","GA","30022","34.0455856","-84.2246209"
"Waffle House #1083","1121 S JEFFERSON AVE","COOKEVILLE","TN","38506","36.1327367","-85.5040899"
"Waffle House #1076","2816 WATSON BLVD","CENTERVILLE","GA","31028","32.6183082","-83.6693726"
"Waffle House #1073","8010 LAVELLE WAY","PENSACOLA","FL","32526","30.520127","-87.31472"
"Waffle House #1068","203 AMBASSADOR CAFFERY PKWY","SCOTT","LA","70583","30.241716","-92.066277"
"Waffle House #1072","3811 STATE HWY 119","LONGMONT","CO","80504","40.160729","-104.982055"
"Waffle House #1067","5309 S COLLEGE RD","WILMINGTON","NC","28412","34.171422","-77.891266"
"Waffle House #1079","1350 BROAD ST","SUMTER","SC","29150","33.956466","-80.3901821"
"Waffle House #1080","959 W MEMORIAL RD","OKLAHOMA CITY","OK","73114","35.6091227","-97.529487"
"Waffle House #1069","3739 PAMELA RAE DR","LOUISVILLE","KY","40241","38.3009895","-85.5424106"
"Waffle House #1078","6501 WARDEN RD.","SHERWOOD","AR","72120","34.814726","-92.203458"
"Waffle House #1084","1759 BEACH BLVD","BILOXI","MS","39531","30.393568","-88.9408801"
"Waffle House #1077","1000 HWY 155 S","MCDONOUGH","GA","30253","33.409799","-84.163691"
"Waffle House #1075","780 ARLINGTON RD","BROOKVILLE","OH","45309","39.8448524","-84.4244123"
"Waffle House #1089","2006 OLD SPANISH TRAIL","SLIDELL","LA","70458","30.2509925","-89.7664198"
"Waffle House #965","5045 AUGUSTA RD","LEXINGTON","SC","29072","33.9788827","-81.2007642"
"Waffle House #1090","1006 AIRPORT BLVD","MORRISVILLE","NC","27560","35.857759","-78.822311"
"Waffle House #1091","1886 HWY 20 SOUTH","CONYERS","GA","30094","33.609035","-83.882437"
"Waffle House #1082","11 ROE RD","TRAVELERS REST","SC","29690","34.9598901","-82.436356"
"Waffle House #1085","1432 N CENTRAL EXPY","MCKINNEY","TX","75070","33.2103325","-96.6373159"
"Waffle House #1095","318 HARDING PLACE","NASHVILLE","TN","37211","36.0866844","-86.6945103"
"Waffle House #1092","17110 BACK BEACH RD","PANAMA CITY BEACH","FL","32413","30.234351","-85.900259"
"Waffle House #1093","1850 ASHVILLE RD","LEEDS","AL","35094","33.5599503","-86.5227973"
"Waffle House #1023","2688 W NC 24 HWY","WARSAW","NC","28398","34.99676","-78.067973"
"Waffle House #1101","7855 ADAIRSVILLE HWY","ADAIRSVILLE","GA","30103","34.3769249","-84.9325504"
"Waffle House #1099","1012 GEORGETOWN RD","LEXINGTON","KY","40511","38.0768164","-84.5063815"
"Waffle House #1096","17352 PERDIDO KEY DR","PENSACOLA","FL","32507","30.282365","-87.515201"
"Waffle House #1103","1015 N. HWY 6","HOUSTON","TX","77079","29.7856252","-95.6453946"
"Waffle House #1098","810 KINGS HWY","PORT CHARLOTTE","FL","33980","26.9861834","-82.0615468"
"Waffle House #1105","7414 STRAWBERRY","KNOXVILLE","TN","37924","36.0069297","-83.7706438"
"Waffle House #1104","2992 BIENVILLE BLVD","OCEAN SPRINGS","MS","39564","30.4130208","-88.7879762"
"Waffle House #1102","910 S PENDLETON ST","EASLEY","SC","29642","34.8122586","-82.6023873"
"Waffle House #1109","1064 BEAR CREEK BLVD","HAMPTON","GA","30228","33.3810304","-84.3010738"
"Waffle House #1108","120 W SPRING VALLEY RD","RICHARDSON","TX","75081","32.9400225","-96.7389061"
"Waffle House #1106","74 HIRAM ACWORTH HWY","HIRAM","GA","30141","33.8921369","-84.754599"
"Waffle House #1113","7031 THEODORE DAWES RD","THEODORE","AL","36582","30.554959","-88.179256"
"Waffle House #1115","1811 W MERCURY BLVD","HAMPTON","VA","23666","37.0366895","-76.4095637"
"Waffle House #1114","2812 CHAPEL HILL RD","DOUGLASVILLE","GA","30135","33.728934","-84.737154"
"Waffle House #1100","3335 S COBB DR SE","SMYRNA","GA","30080","33.822651","-84.48646"
"Waffle House #1112","172 Weaver Blvd","WEAVERVILLE","NC","28787","35.704162","-82.570746"
"Waffle House #1117","7035 ENTERPRISE DR","OLIVE BRANCH","MS","38654","34.962406","-89.8565317"
"Waffle House #1116","5041 MARKET ST","WILMINGTON","NC","28405","34.2442743","-77.8815041"
"Waffle House #1119","10137 N MAIN ST","ARCHDALE","NC","27263","35.9049621","-79.9575172"
"Waffle House #1120","1049 S ANDERSON","ROCK HILL","SC","29730","34.913797","-80.984196"
"Waffle House #1121","510 NORTH STATE OF","JOHNSON CITY","TN","37604","36.3133631","-82.3877855"
"Waffle House #1107","201 E COUNTY LINE RD","LITTLETON","CO","80122","39.5661998","-104.9866942"
"Waffle House #1094","20514 HWY 365 N","MAUMELLE","AR","72113","34.883898","-92.392828"
"Waffle House #1118","16401 SQUARE DRIVE ROUTE 33","MARYSVILLE","OH","43040","40.135899","-83.208022"
"Waffle House #1110","2837 KEITH BRIDGE RD","CUMMING","GA","30041","34.253072","-84.088268"
"Waffle House #1132","3441 ERNEST W","MARIETTA","GA","30064","33.902742","-84.62952"
"Waffle House #1086","301 GA HWY 49 N","BYRON","GA","31008","32.619201","-83.780635"
"Waffle House #1128","2505 EAST WALNUT AVE","DALTON","GA","30720","34.7615501","-84.9655298"
"Waffle House #1147","839 VIRGINIA AVE","HAPEVILLE","GA","30354","33.6590283","-84.4166811"
"Waffle House #1111","9800 BLAIRWOOD RD.","LOUISVILLE","KY","40222","38.225895","-85.580016"
"Waffle House #1131","11152 TARA BLVD","HAMPTON","GA","30228","33.450276","-84.32558"
"Waffle House #1139","2210 ROCKFORD ST","MT AIRY","NC","27030","36.475122","-80.6198137"
"Waffle House #1133","5515 RAEFORD RD","FAYETTEVILLE","NC","28304","35.044425","-78.9759778"
"Waffle House #1129","7163 E STATE RTE 37","SUNBURY","OH","43074","40.266728","-82.931663"
"Waffle House #1136","2621 RUTH ST","SULPHUR","LA","70665","30.2141225","-93.37613"
"Waffle House #1124","4689 SW 148TH AVE","SOUTHWEST RANCHES","FL","33330","26.0611925","-80.3461835"
"Waffle House #1135","7995 EAST TEXAS ST","BOSSIER CITY","LA","71111","32.5477077","-93.6323737"
"Waffle House #1140","3994 N GLOSTER ST","TUPELO","MS","38804","34.3152135","-88.7066148"
"Waffle House #1138","1200 S 5TH ST","SAINT CHARLES","MO","63301","38.772161","-90.492241"
"Waffle House #1144","8050 US ROUTE 42","FLORENCE","KY","41042","38.983165","-84.644471"
"Waffle House #1137","722 N WESTOVER BLVD","ALBANY","GA","31707","31.6145709","-84.2228406"
"Waffle House #1127","13727 INDEPENDENCE BLVD","INDIAN TRAIL","NC","28079","35.065343","-80.639206"
"Waffle House #1142","1034 MAIN ST N","NICHOLASVILLE","KY","40356","37.900084","-84.564531"
"Waffle House #1152","1901 WELBON RD","ROANOKE RAPIDS","NC","27870","35.566671","-77.340769"
"Waffle House #1156","1856 MOUNTAIN INDUSTRIAL BLVD","TUCKER","GA","30084","33.8378175","-84.201418"
"Waffle House #1149","3275 COBB PKWY","ACWORTH","GA","30101","34.03367","-84.6730968"
"Waffle House #1134","4135 SUGARLOAF PKWY","LAWRENCEVILLE","GA","30044","33.9394841","-84.0343466"
"Waffle House #1153","798 BREVARD RD","ASHEVILLE","NC","28801","35.5328828","-82.6042298"
"Waffle House #1159","2428 BEACH BLVD","BILOXI BEACH","MS","39531","30.390926","-88.97581"
"Waffle House #1155","5329 N STATE LINE AVE","TEXARKANA","TX","75503","33.4736575","-94.0436714"
"Waffle House #1157","8220 PINEVILLE MATTHEWS RD","CHARLOTTE","NC","28134","35.0876679","-80.858521"
"Waffle House #1160","1119 SMITHVILLE HWY","MC MINNVILLE","TN","37110","35.66786","-85.819649"
"Waffle House #1154","2488 S CITIES SERVICE HWY","SULPHUR","LA","70665","30.2118294","-93.3261957"
"Waffle House #1148","24148 WELCOME WAY DRIVE","RUTHER GLEN","VA","22546","37.934323","-77.474988"
"Waffle House #1162","4575 E HWY 20","NICEVILLE","FL","32578","30.484586","-86.417895"
"Waffle House #1164","1683 A FORT CAMPBELL BOUL","CLARKSVILLE","TN","37042","36.542346","-87.37777"
"Waffle House #1163","1304 VETERANS BLVD","FESTUS","MO","63028","38.2131401","-90.4071107"
"Waffle House #1151","5419 HWY 280","BIRMINGHAM","AL","35244","33.480249","-86.774568"
"Waffle House #1169","6310 HOLLYWOOD RD","AMARILLO","TX","79110","35.1171634","-101.9057076"
"Waffle House #1161","3703 NEW BERN AVE","RALEIGH","NC","27610","35.7982726","-78.5768313"
"Waffle House #1125","12370 A ARNOLD MILL RD","ALPHARETTA","GA","30004","34.083377","-84.358055"
"Waffle House #1167","3998 COL GLENN HWY","FAIRBORN","OH","45324","39.781814","-84.011371"
"Waffle House #1166","1738 OPELIKA RD","AUBURN","AL","36830","32.6241613","-85.4476487"
"Waffle House #1170","101 BROOK LANE","SPRING LAKE","NC","28390","35.1786781","-78.9813358"
"Waffle House #1165","5448 HWY 90 W","MOBILE","AL","36619","30.600045","-88.166465"
"Waffle House #1168","536 HAYWOOD RD","GREENVILLE","SC","29607","34.8467694","-82.3396837"
"Waffle House #1182","1629 NC HWY 67","JONESVILLE","NC","28642","36.243684","-80.797191"
"Waffle House #1158","5117 SUMMERHILL RD","TEXARKANA","TX","75503","33.4674687","-94.0678523"
"Waffle House #1150","9650 MEDLOCK BRDG RD","JOHNS CREEK","GA","30097","34.0165216","-84.1911257"
"Waffle House #1146","3309 CENTERVILLE HWY","SNELLVILLE","GA","30039","33.773077","-84.046419"
"Waffle House #1180","3500 HILLSBOROUGH RD","DURHAM","NC","27705","36.021476","-78.9502535"
"Waffle House #1179","80 ALABAMA HWY 75 N","ALBERTVILLE","AL","35951","34.256398","-86.207982"
"Waffle House #1177","965 LANIER AVE","FAYETTEVILLE","GA","30214","33.4485836","-84.4829624"
"Waffle House #1130","2610 RIDGE RD","ROCKWALL","TX","75087","32.9207347","-96.4603422"
"Waffle House #1176","351 AIRPORT RD","PEARL","MS","39208","30.5261668","-89.7032244"
"Waffle House #1184","5037 OSCAR BAXTER DR","TUSCALOOSA","AL","35405","33.1655665","-87.5519403"
"Waffle House #1188","5466 HWY 153","HIXSON","TN","37343","35.14165","-85.248591"
"Waffle House #1178","1240 CANDLER RD","GAINESVILLE","GA","30501","34.309139","-83.820695"
"Waffle House #1183","790 OLD HICKORY BLVD","BRENTWOOD","TN","37027","36.037498","-86.785839"
"Waffle House #1181","380 E NATIONAL RD","VANDALIA","OH","45377","39.8911861","-84.1931073"
"Waffle House #1191","1507 N BECKLEY AVE","DESOTO","TX","75115","32.621876","-96.823491"
"Waffle House #1185","3099 HWY 90","GAUTIER","MS","39553","30.393066","-88.660459"
"Waffle House #1187","2344 BOUNDRY ST","BEAUFORT","SC","29902","32.440864","-80.702619"
"Waffle House #1174","310 RUSSELL PKWY","WARNER ROBINS","GA","31088","32.5939574","-83.6276308"
"Waffle House #1171","7401 NE PARVIN RD","KANSAS CITY","MO","64117","39.1679015","-94.495302"
"Waffle House #1189","1710 EPPS BRIDGE RD","ATHENS","GA","30606","33.946287","-83.4276787"
"Waffle House #1193","2057 GORDON HWY","AUGUSTA","GA","30909","33.452637","-82.0535596"
"Waffle House #1192","1939 W TENNESSEE ST","TALLAHASSEE","FL","32304","30.4489029","-84.3157686"
"Waffle House #1198","7813 BROAD RIVER RD","IRMO","SC","29063","34.1022958","-81.1822501"
"Waffle House #1197","2635 CONG. W. L. DICKINSON DR","MONTGOMERY","AL","36109","32.414353","-86.236033"
"Waffle House #1199","1805 S PLEASANT VALLEY RD","WINCHESTER","VA","22601","39.1645474","-78.1656915"
"Waffle House #1202","804 N LAKESHORE DR","LAKE CHARLES","LA","70601","30.2375025","-93.228009"
"Waffle House #1200","3319 OLD MILTON PKWY","ALPHARETTA","GA","30005","34.0683896","-84.2680699"
"Waffle House #1195","1035 HWY 123 BYPASS","SENECA","SC","29678","34.693181","-82.979699"
"Waffle House #1203","2330 E. MORRIS BLVD","MORRISTOWN","TN","37813","36.2166871","-83.2794274"
"Waffle House #1206","735 E OGLETHORPE HWY","HINESVILLE","GA","31313","31.8530164","-81.5790693"
"Waffle House #1194","1205 LAKES PKWY","LAWRENCEVILLE","GA","30043","33.9639821","-84.0375828"
"Waffle House #1204","10327 FRONT BEACH RD","PANAMA CITY BEACH","FL","32407","30.1776931","-85.8062083"
"Waffle House #1207","1501 W FAIRMOUNT PKWY","LAPORTE","TX","77571","29.687416","-95.033373"
"Waffle House #1190","5102 WILLAMSBURG RD","RICHMOND","VA","23231","37.517686","-77.344534"
"Waffle House #1196","3871 HIGHWAY 78 W","SNELLVILLE","GA","30039","33.840043","-84.064541"
"Waffle House #1216","2477 S CHURCH ST","MURFREESBORO","TN","37127","35.8054159","-86.3976103"
"Waffle House #1210","8107 GEYER SPRNGS RD","LITTLE ROCK","AR","72209","34.677062","-92.3438"
"Waffle House #1201","4930 RALEIGH ROAD PKWY W","WILSON","NC","27896","35.7631316","-77.9989839"
"Waffle House #1217","1612 HWY 34 S","TERRELL","TX","75160","32.710016","-96.280237"
"Waffle House #1215","545 PEACHTREE INDUSTRIAL BLVD","SUWANEE","GA","30024","34.0621727","-84.0765656"
"Waffle House #1208","1831 SOUTH COUNTRY CLUB DR","MESA","AZ","85210","33.3817265","-111.839722"
"Waffle House #1212","1021 GA HWY 100 SO","TALLAPOOSA","GA","30176","33.716569","-85.2937"
"Waffle House #1220","3865 I 10 SOUTH","BEAUMONT","TX","77705","29.963166","-94.040323"
"Waffle House #1219","1410 DURA DR","MARIETTA","GA","30008","33.918895","-84.581762"
"Waffle House #1186","2521 S MAIN ST","WEATHERFORD","TX","76087","32.7282544","-97.7882799"
"Waffle House #1213","1530 EAST MAIN ST","DUNCAN","SC","29334","34.9096998","-82.1034728"
"Waffle House #1205","1249 S GERMANTOWN RD","GERMANTOWN","TN","38138","35.1127063","-89.8022668"
"Waffle House #1211","4395 CORNELIA HWY","LULA","GA","30554","34.388365","-83.703246"
"Waffle House #1231","4128 S NATIONAL RD","SPRINGFIELD","MO","65807","37.138856","-93.278058"
"Waffle House #1209","8400 BROOK RD","GLEN ALLEN","VA","23060","37.6383305","-77.4600363"
"Waffle House #1224","1032 RANDOLPH ST","THOMASVILLE","NC","27360","35.8649669","-80.0726389"
"Waffle House #1221","9190 GRAND BAY-WILMER RD","GRAND BAY","AL","36541","30.486993","-88.34123"
"Waffle House #1214","6635 US HIGHWAY 129","LIVE OAK","FL","32060","30.304998","-82.979469"
"Waffle House #1229","10081 THIRD AVE I-110","DIBERVILLE","MS","39540","30.434611","-88.891396"
"Waffle House #1239","2108 S WESTERN ST","AMARILLO","TX","79109","35.1896382","-101.8843594"
"Waffle House #1225","3833 NASHVILLE RD","FRANKLIN","KY","42134","36.669831","-86.558131"
"Waffle House #1218","794 NISSAN DR","SMYRNA","TN","37167","35.9780743","-86.4927429"
"Waffle House #1236","1848 DECHERD BLVD","DECHERD","TN","37324","35.2035182","-86.0937441"
"Waffle House #1235","1625 BALL GROUND HWY","CANTON","GA","30114","34.2594702","-84.463223"
"Waffle House #1223","9700 NE BARRY RD","KANSAS CITY","MO","64157","39.2495401","-94.5390715"
"Waffle House #1232","3640 CANADA RD","LAKELAND","TN","38002","35.2247697","-89.7374296"
"Waffle House #1233","14384 VERA MCGOWAN DR","WALKER","LA","70785","30.473889","-90.86117"
"Waffle House #1238","2693 BOONES CREEK RD","JOHNSON CITY","TN","37615","36.3754157","-82.4276243"
"Waffle House #1226","3085 BROADWAY","GROVE CITY","OH","43123","39.9004136","-83.0784597"
"Waffle House #1175","1627 WOODRUFF RD","GREENVILLE","SC","29607","34.8197076","-82.2749207"
"Waffle House #1234","5607 NC HIGHWAY 42 W","GARNER","NC","27529","35.604314","-78.568849"
"Waffle House #1240","1225 HAMILTON-LEBANON RD","MONROE","OH","45050","39.4457661","-84.4187167"
"Waffle House #1228","7070 GULF BLVD","ST PETERSBURG BCH","FL","33706","27.739328","-82.74973"
"Waffle House #1241","808 ENGLAND ST","ASHLAND","VA","23005","37.7586894","-77.4658639"
"Waffle House #1247","306 N TYNDALL PKWY","CALLAWAY","FL","32404","30.154074","-85.5907623"
"Waffle House #1254","4215 WEST STONE DR","KINGSPORT","TN","37660","36.5533848","-82.6191451"
"Waffle House #1243","1736 MCCOY RD","ORLANDO","FL","32809","28.4514713","-81.3359146"
"Waffle House #1255","4390 JEFFERSON DAVIS HWY","BEECH ISLAND","SC","29842","33.504101","-81.90023"
"Waffle House #1252","1201 TOWNSGATE CT","PLANT CITY","FL","33563","28.025551","-82.14994"
"Waffle House #1248","580 FOB JAMES PKWY","VALLEY","AL","36854","32.81764","-85.204549"
"Waffle House #1245","5825 NORTHAMPTON BLVD","VIRGINIA BEACH","VA","23455","36.8801566","-76.1887336"
"Waffle House #1256","1232 E ASH ST","PIQUA","OH","45356","40.1509963","-84.2140199"
"Waffle House #1253","1820 HWY 138 NE","CONYERS","GA","30013","33.703305","-83.941315"
"Waffle House #1246","3500 SPEEKS DR","MIDLOTHIAN","VA","23112","37.440638","-77.594394"
"Waffle House #1258","2123 OLD MINDEN RD","BOSSIER CITY","LA","71112","32.5187646","-93.7071457"
"Waffle House #1257","8239 CINCINNATI DAYTON RD","WEST CHESTER","OH","45069","39.3497855","-84.3952714"
"Waffle House #1251","2291 W NORTHWEST HWY","DALLAS","TX","75220","32.8625891","-96.8947004"
"Waffle House #1263","1921 BOILING SPRINGS","BOILING SPRINGS","SC","29316","35.017348","-81.9619079"
"Waffle House #1172","1700 HOWELL MILL RD","ATLANTA","GA","30318","33.800606","-84.415999"
"Waffle House #1265","1000 RAINBOW DR","GADSDEN","AL","35901","33.9972314","-86.0043583"
"Waffle House #1264","828 HWY 76","WHITE HOUSE","TN","37188","36.469306","-86.676374"
"Waffle House #1269","1849 MARIETTA HWY","CANTON","GA","30114","34.2208562","-84.5067112"
"Waffle House #1274","13612 CRAYTON BLVD","HAGERSTOWN","MD","21742","39.69276","-77.729175"
"Waffle House #1262","3340 GULF BREEZE PKWY","GULF BREEZE","FL","32563","30.364185","-87.134883"
"Waffle House #1272","7-E NINE MILE ROAD","PENSACOLA","FL","32534","30.533218","-87.273449"
"Waffle House #1268","1041 BROAD ST","SUMTER","SC","29150","33.948654","-80.3752538"
"Waffle House #1283","2501 FLORENCE BLVD","FLORENCE","AL","35630","34.828286","-87.636978"
"Waffle House #1259","1305 PLATTE FALLS RD","PLATTE CITY","MO","64079","39.3529476","-94.7658926"
"Waffle House #1266","3665 N ATLANTIC AVE","COCOA BEACH","FL","32931","28.3523318","-80.6088327"
"Waffle House #1277","2931 GERMANTOWN RD","BARTLETT","TN","38134","35.2082696","-89.7919216"
"Waffle House #1276","5475 SUNSET BLVD","LEXINGTON","SC","29072","33.9982573","-81.2186258"
"Waffle House #1281","105 W COMMERCE DR","BRYANT","AR","72022","34.620813","-92.498251"
"Waffle House #1267","599 HISTORIC 441 HWY","CORNELIA","GA","30531","34.5185","-83.529704"
"Waffle House #1273","1509 HWY 101 SOUTH","GREER","SC","29651","34.9004298","-82.1683599"
"Waffle House #1275","1423 DENNY AVE","PASCAGOULA","MS","39567","30.3712194","-88.5493735"
"Waffle House #1260","2825 1/2 61ST ST","GALVESTON","TX","77551","29.268284","-94.8276876"
"Waffle House #1278","114 FAIRFAX PIKE","STEPHENS CITY","VA","22655","39.080842","-78.213675"
"Waffle House #1279","7605 US HIGHWAY 64 E","KNIGHTDALE","NC","27545","35.806753","-78.423052"
"Waffle House #1242","2210 NORTH ASPEN AVE","BROKEN ARROW","OK","74012","36.0730634","-95.8154308"
"Waffle House #1293","1207 S MARTIN LUTHER KING JR BLVD","AMERICUS","GA","31719","31.98967","-84.249884"
"Waffle House #1286","4500 KANSAS AVE","KANSAS CITY","KS","66106","39.089468","-94.693171"
"Waffle House #1291","1220 REBSAMEN PARK RD","LITTLE ROCK","AR","72202","34.7621564","-92.3104652"
"Waffle House #1295","1985 HWY 31 S","BIRMINGHAM","AL","35244","33.346501","-86.795558"
"Waffle House #1280","11185 GULF BLVD","TREASURE ISLAND","FL","33706","27.7720607","-82.7719759"
"Waffle House #1301","6781 US HWY 90","DAPHNE","AL","36526","30.6552014","-87.904893"
"Waffle House #1284","65 JIMMY HINTON DR","OXFORD","AL","36203","33.61345","-85.7890354"
"Waffle House #1300","2850 HOLCOMB BRIDGE RD","ALPHARETTA","GA","30022","33.9912449","-84.2785336"
"Waffle House #1303","560 SCHILLINGER RD","MOBILE","AL","36695","30.749997","-88.225805"
"Waffle House #1294","250 S INDIANA AVE","SELLERSBURG","IN","47172","38.3972387","-85.7576304"
"Waffle House #1298","110 VENTURE DR","BRUNSWICK","GA","31525","31.2445812","-81.5063629"
"Waffle House #1292","326 S ILLINOIS ST","OAK RIDGE","TN","37830","36.006225","-84.254374"
"Waffle House #1288","405 CHERRY BLOSSOM WAY","GEORGETOWN","KY","40324","38.2235399","-84.5394052"
"Waffle House #1299","2045 W SPRING ST","MONROE","GA","30655","33.796166","-83.7443173"
"Waffle House #1307","680 CHAMPION DR","CANTON","NC","28716","35.5520124","-82.850373"
"Waffle House #1290","1902 W LUMSDEN RD","BRANDON","FL","33511","27.9238802","-82.3149308"
"Waffle House #1296","1710 ZEBULON RD","GRIFFIN","GA","30224","33.199933","-84.281644"
"Waffle House #1308","4505 TWIN CITY HWY","PORT ARTHUR","TX","77642","29.9365271","-93.9341766"
"Waffle House #1297","1035 WESTERN BLVD","JACKSONVILLE","NC","28546","34.7781746","-77.3937356"
"Waffle House #1306","2868 LANE ST","KANNAPOLIS","NC","28083","35.497993","-80.554137"
"Waffle House #1305","4141 RAMSEY ST","FAYETTEVILLE","NC","28311","35.1161473","-78.8800918"
"Waffle House #1312","2200 WEST CENTER ST","BEEBE","AR","72012","35.068586","-91.906796"
"Waffle House #1313","8135 VARNAVAS RD","CORDOVA","TN","38016","35.157573","-89.79128"
"Waffle House #1304","502 DEGETYER RD","BREAUX BRIDGE","LA","70517","30.27353","-91.89928"
"Waffle House #1314","406 CHURCH RD WEST","SOUTHAVEN","MS","38671","34.9336448","-89.998304"
"Waffle House #1317","2325 REEVES ST","DOTHAN","AL","36303","31.2554766","-85.3880273"
"Waffle House #1320","3224 BILL FOSTER MEMORIAL HWY","CABOT","AR","72023","34.940858","-92.04245"
"Waffle House #1315","1515 CLEVELAND HWY","DALTON","GA","30721","34.800544","-84.9619167"
"Waffle House #1311","1980 ALABAMA AVE","BREMEN","GA","30110","33.7100789","-85.1413997"
"Waffle House #1316","5001 SKYLAND BLVD E","TUSCALOOSA","AL","35405","33.181232","-87.466015"
"Waffle House #1318","655 COLUMBIA AVE","CHAPIN","SC","29036","34.1764436","-81.325627"
"Waffle House #1324","3960 VOGUL ROAD","ARNOLD","MO","63010","38.43283","-90.37762"
"Waffle House #1331","261 BELLE HILL RD","ELKTON","MD","21921","39.6355154","-75.8053756"
"Waffle House #1334","1912 PLAUDITT PLACE","LEXINGTON","KY","40509","38.018578","-84.415901"
"Waffle House #1332","1054 MEBANE OAKS RD","MEBANE","NC","27302","36.0737873","-79.2737978"
"Waffle House #1330","605 MARINE BLVD","JACKSONVILLE","NC","28540","34.7528173","-77.4356617"
"Waffle House #1319","8635 HANKINS RD","CHARLOTTE","NC","28269","35.341125","-80.8354412"
"Waffle House #1333","4520 YADKIN RD","FAYETTEVILLE","NC","28303","35.0795822","-78.9578726"
"Waffle House #1323","451 SOUTH BROADWAY","OAK GROVE","MO","64075","39.0120752","-94.1282922"
"Waffle House #1329","1510 HALIFAX DR","COLUMBIA","TN","38401","35.623997","-87.00404"
"Waffle House #1338","1680 MAIN ST","CHIPLEY","FL","32428","30.7536647","-85.5502235"
"Waffle House #1321","1512 N JOHN YOUNG PKWY","KISSIMMEE","FL","34741","28.305854","-81.41592"
"Waffle House #1327","1455 E SANTA FE ST","OLATHE","KS","66061","38.883535","-94.818251"
"Waffle House #1322","8 MAURY RIVER RD","LEXINGTON","VA","24450","37.8033356","-79.4117692"
"Waffle House #1326","11240 WESTHEIMER RD","HOUSTON","TX","77042","29.7365548","-95.5747498"
"Waffle House #1335","21360 HWY 221 N","LAURENS","SC","29360","34.557396","-82.007975"
"Waffle House #1337","2320 SATELLITE BLVD","DULUTH","GA","30096","33.9769451","-84.0928957"
"Waffle House #1325","495 PREMIER CIRCLE","CHARLOTTESVILLE","VA","22901","38.0745226","-78.4810267"
"Waffle House #1302","1417 E WILLIAMS ST","APEX","NC","27539","35.7112727","-78.8381084"
"Waffle House #1339","5045 NORTH BEACH ST","FORT WORTH","TX","76137","32.8359914","-97.2909527"
"Waffle House #1341","1201 E KING AVE","KINGSLAND","GA","31548","30.790165","-81.657078"
"Waffle House #1340","5010 ACADEMY LN","BESSEMER","AL","35022","33.3647715","-87.0000834"
"Waffle House #1344","760 GLYNN ST S","FAYETTEVILLE","GA","30214","33.4336152","-84.4567371"
"Waffle House #1349","1275 FRY RD","KATY","TX","77449","29.7883869","-95.7193107"
"Waffle House #1346","154 REGIONS WAY","DESTIN","FL","32541","30.3880068","-86.419981"
"Waffle House #1354","2804 W 45TH AVE","AMARILLO","TX","79106","35.163876","-101.861093"
"Waffle House #1342","10422 SHARPSBURG PIKE","HAGERSTOWN","MD","21740","39.598971","-77.729995"
"Waffle House #1348","650 WHITLOCK AVE","MARIETTA","GA","30064","33.9521652","-84.571186"
"Waffle House #1350","251 AA HWY","WILDER","KY","41076","39.0683508","-84.4884111"
"Waffle House #1353","643 S HWY 92","DANDRIDGE","TN","37725","36.028957","-83.429704"
"Waffle House #1345","2627 W DEER VALLEY","PHOENIX","AZ","85027","33.683716","-112.116357"
"Waffle House #1261","1103 TRENTON AVENUE","FINDLAY","OH","45840","41.0581848","-83.6718318"
"Waffle House #1351","2230 CHESNEE HWY","SPARTANBURG","SC","29303","35.0220949","-81.8951418"
"Waffle House #1358","145 SE BANDIT ST","MADISON","FL","32340","30.3981878","-83.3576769"
"Waffle House #1347","1020 HWY 287 BYPASS WEST","WAXAHACHIE","TX","75165","32.420638","-96.840548"
"Waffle House #1356","148 WELL RD","WEST MONROE","LA","71291","32.5144584","-92.1923196"
"Waffle House #1343","67 LONG BRANCH RD","DAHLONEGA","GA","30533","34.534322","-83.900959"
"Waffle House #1355","3090 HWY 49 S","FLORENCE","MS","39073","32.1497791","-90.1158392"
"Waffle House #1310","100270 OVERSEAS HWY","KEY LARGO","FL","33037","25.1006865","-80.4345035"
"Waffle House #1270","6936 MARKET ST","WILMINGTON","NC","28411","34.263458","-77.827828"
"Waffle House #1360","11967 BOBBY ELEUTERIUS BLVD","DIBERVILLE","MS","39540","30.448252","-88.901603"
"Waffle House #1365","2965 PELHAM PKWY","PELHAM","AL","35124","33.2979398","-86.8105256"
"Waffle House #1359","4291 WASHINGTON RD","EVANS","GA","30809","33.5233493","-82.1188589"
"Waffle House #1361","4219 WOODBINE RD","PACE","FL","32571","30.5920196","-87.1764701"
"Waffle House #1352","7100 CONCOURSE PKWY","DOUGLASVILLE","GA","30134","33.7300684","-84.7602457"
"Waffle House #1367","8007 TUCKER RD","BILOXI","MS","39532","30.459082","-88.843908"
"Waffle House #1376","1238- D ROGERS ST","CLARKSVILLE","AR","72830","35.452134","-93.465367"
"Waffle House #1289","334 BEACH BLVD","JACKSONVILLE BEACH","FL","32250","30.2879609","-81.3926399"
"Waffle House #1375","3601 A WALDEN DR","LEXINGTON","KY","40517","37.981024","-84.497662"
"Waffle House #1362","2002 BOULEVARD","COLONIAL HEIGHTS","VA","23834","37.258237","-77.4118161"
"Waffle House #1370","18159 HIGHLAND RD","BATON ROUGE","LA","70810","30.3509552","-91.0246295"
"Waffle House #1379","7200 TANNER LN","MOSS POINT","MS","39563","30.446385","-88.5315226"
"Waffle House #1363","3251 WESTERN BRANCH BLVD","CHESAPEAKE","VA","23321","36.864658","-76.4092778"
"Waffle House #1372","2053 GUNTER AVE","GUNTERSVILLE","AL","35976","34.3376189","-86.3131469"
"Waffle House #1382","34 CONTRACTOR'S WAY","RIDGEWAY","SC","29130","33.907435","-80.412859"
"Waffle House #1384","36 SHIELDS RD","HUNTSVILLE","AL","35811","34.7796652","-86.521559"
"Waffle House #1357","6371 HIGHWAY 182 E","MORGAN CITY","LA","70380","29.696261","-91.193693"
"Waffle House #1388","4 NORTH 130TH STREET","BONNER SPRINGS","KS","66012","39.0936341","-94.8815562"
"Waffle House #1369","3303 MARTIN LUTHER KING JR BLVD","NEW BERN","NC","28560","35.111881","-77.038538"
"Waffle House #1394","1249 HARRISBURG PIKE","CARLISLE","PA","17013","40.2123578","-77.178903"
"Waffle House #1380","3565 E IRVINGTON RD","TUCSON","AZ","85714","32.1636227","-110.9162113"
"Waffle House #1385","8555 KESHAV TAYLOR DR","MILTON","FL","32583","30.62146","-86.965064"
"Waffle House #1271","2940 MANSELL RD","ALPHARETTA","GA","30022","34.0379204","-84.2978834"
"Waffle House #1389","2000 WAYNE MEMORIAL DR","GOLDSBORO","NC","27534","35.396892","-77.966332"
"Waffle House #1393","380 HWY 109 N","LEBANON","TN","37090","36.18962","-86.40967"
"Waffle House #1396","4045 CLAY STREET","VICKSBURG","MS","39183","32.3438804","-90.8382053"
"Waffle House #1397","709 RADFORD BLVD","DILLON","SC","29536","34.4386309","-79.371209"
"Waffle House #1368","1131 W PEARCE BLVD","WENTZVILLE","MO","63385","38.8111467","-90.871867"
"Waffle House #1395","301 LITTLE HILLS EXPY","SAINT CHARLES","MO","63301","38.807303","-90.475413"
"Waffle House #1399","306 E POTOMAC ST","WILLIAMSPORT","MD","21795","39.6033016","-77.8099733"
"Waffle House #1373","644 NASHVILLE PIKE","GALLATIN","TN","37066","36.3818708","-86.4616068"
"Waffle House #1392","4410 HWY 154","NEWNAN","GA","30265","33.447991","-84.69687"
"Waffle House #1405","7106 BAILEY CREEK CIRCLE SE","HUNTSVILLE","AL","35802","34.6729386","-86.5380761"
"Waffle House #1401","251 W RENDON CROWLEY RD","BURLESON","TX","76028","32.577956","-97.328276"
"Waffle House #1398","12020 STANDIFORD PLZ DR I265 EXIT12","LOUISVILLE","KY","40229","38.071896","-85.690218"
"Waffle House #1387","352 WHITEVILLE RD","SHALLOTTE","NC","28470","33.973093","-78.3998018"
"Waffle House #1404","185 MARY GRUBBS HWY","WALTON","KY","41094","38.8589869","-84.6234855"
"Waffle House #1406","1683 N COLUMBIA ST","MILLEDGEVILLE","GA","31061","33.0977046","-83.2443013"
"Waffle House #1403","2502 S HWY 77","LYNN HAVEN","FL","32444","30.220752","-85.649552"
"Waffle House #1410","3085 E PARKWAY DR","RUSSELLVILLE","AR","72802","35.281698","-93.095509"
"Waffle House #1407","2727 PETERS CREEK PKWY","WINSTON SALEM","NC","27127","36.0542808","-80.2591921"
"Waffle House #1408","2740 RICHMOND RD","LEXINGTON","KY","40517","38.0084788","-84.4534257"
"Waffle House #1386","1548 EAST WOOSTER AVE.","BOWLING GREEN","OH","43402","41.374459","-83.626884"
"Waffle House #1309","1133 HWY 92","ACWORTH","GA","30102","34.083061","-84.654695"
"Waffle House #1391","414 DELTONA BLVD","DELTONA","FL","32725","28.8728056","-81.2805715"
"Waffle House #1402","4082 CHARLES HARDY PKWY","DALLAS","GA","30157","33.923065","-84.755195"
"Waffle House #1416","27935 S W FWY","ROSENBERG","TX","77471","29.217592","-96.288405"
"Waffle House #1411","17201 OUTER RD","BELTON","MO","64012","38.826215","-94.5185591"
"Waffle House #1412","2122 VETERANS BLVD","DUBLIN","GA","31021","32.5433666","-82.960373"
"Waffle House #1414","924 HYATT ST","GAFFNEY","SC","29341","35.079485","-81.7034442"
"Waffle House #1328","2103 HWY 72 W","CORINTH","MS","38834","34.930892","-88.549408"
"Waffle House #1418","3470 THOMASVILLE RD","TALLAHASSEE","FL","32309","30.5101363","-84.2475665"
"Waffle House #1426","6127 FINANCIAL PLAZA","SHREVEPORT","LA","71129","32.4482816","-93.8653156"
"Waffle House #1415","465 GORDONSVILLE HWY","GORDONSVILLE","TN","38563","36.1842394","-85.9493334"
"Waffle House #1419","1002 KING GEORGE BLVD","SAVANNAH","GA","31419","31.9715717","-81.2273587"
"Waffle House #1432","9009 HWY 71 SOUTH","FORT SMITH","AR","72908","35.325662","-94.407752"
"Waffle House #1424","9201 W HWY 98","PENSACOLA","FL","32506","30.403457","-87.343813"
"Waffle House #1428","998 CEDAR LAKE RD","BILOXI","MS","39532","30.4478577","-88.9335934"
"Waffle House #1421","3020 WESTERN CENTER BLVD","FORT WORTH","TX","76131","32.8606028","-97.3164945"
"Waffle House #1427","4229 HARD SCRABBLE RD","COLUMBIA","SC","29223","34.138017","-80.915097"
"Waffle House #1430","90 FOLMAR PKWY","MONTGOMERY","AL","36105","32.2687925","-86.3575054"
"Waffle House #1433","157 ASHEVILLE HWY","SYLVA","NC","28779","35.3764345","-83.2129494"
"Waffle House #1420","2080 LITTON LANE","HEBRON","KY","41048","39.0763755","-84.7111578"
"Waffle House #1366","1355 JOE FRANK HARRIS PKWY SE","CARTERSVILLE","GA","30120","34.20651","-84.818221"
"Waffle House #1431","436 N WEST BY PASS","SPRINGFIELD","MO","65802","37.212849","-93.422629"
"Waffle House #1434","2319 GILLESPIE ST","FAYETTEVILLE","NC","28306","35.018333","-78.8964645"
"Waffle House #1435","723 WEST PINE ST","PONCHATOULA","LA","70454","30.4373645","-90.4521873"
"Waffle House #1400","3270 BUFORD DR","BUFORD","GA","30519","34.0801395","-83.9862627"
"Waffle House #1440","6751 VETERANS PKY","COLUMBUS","GA","31909","32.5423844","-84.954698"
"Waffle House #1423","12215 DORSETT RD","MARYLAND HGTS","MO","63043","38.7154839","-90.4439631"
"Waffle House #1441","604 HWY 17 SOUTH","NORTH MYRTLE BEACH","SC","29582","33.842784","-78.662073"
"Waffle House #1437","406 FM 1960","HOUSTON","TX","77073","29.7775804","-95.6447422"
"Waffle House #1436","5875 HWY 105","BEAUMONT","TX","77708","30.133478","-94.169391"
"Waffle House #1445","104 EAST CHURCH ST","SANDERSVILLE","GA","31082","32.9813577","-82.8108007"
"Waffle House #1417","537 HWY 441 SOUTH","CLAYTON","GA","30525","34.871132","-83.403004"
"Waffle House #1442","791 BUSINESS PARK DR","PRATTVILLE","AL","36066","32.4866001","-86.4113307"
"Waffle House #1443","1334 WALKER CHAPEL RD I65 EXIT 267","FULTONDALE","AL","35068","33.607706","-86.810944"
"Waffle House #1429","6097 HWY 43 N","SATSUMA","AL","36572","30.865845","-88.049662"
"Waffle House #1446","3090 WALDEN RD","TALLAHASSEE","FL","32317","30.4833347","-84.1600927"
"Waffle House #1451","1323 RIVERSIDE PKY","BELCAMP","MD","21017","39.4701696","-76.2319598"
"Waffle House #1447","491 LEWISTON RD","GROVETOWN","GA","30813","33.483632","-82.199201"
"Waffle House #1449","468 KENNEDY LANE","CALVERT CITY","KY","42029","36.966065","-88.006414"
"Waffle House #1450","2499 LINCOLN HWY E","LANCASTER","PA","17602","40.0228559","-76.1933862"
"Waffle House #1444","7715 BARDSTOWN RD","LOUISVILLE","KY","40291","38.1349944","-85.5794048"
"Waffle House #1452","3890 UNION DEPOSIT RD","HARRISBURG","PA","17109","40.278656","-76.8247486"
"Waffle House #1458","76 AUSTIN LN","LONDON","KY","40741","37.1493069","-84.1163148"
"Waffle House #1413","6636 HWY 53 EAST","DAWSONVILLE","GA","30534","34.412925","-84.280442"
"Waffle House #1457","1736 MARTIN LUTHER KING JR BLVD","HOUMA","LA","70360","29.61265","-90.755611"
"Waffle House #1462","373 S GREENO RD","FAIRHOPE","AL","36532","30.498738","-87.8861828"
"Waffle House #1453","10009 DORCHESTER RD","SUMMERVILLE","SC","29485","32.952708","-80.1644819"
"Waffle House #1448","800 W HWY 114 BYPASS","ROANOKE","TX","76262","33.00188","-97.219254"
"Waffle House #1461","1710 RICHLAND AVE W","AIKEN","SC","29801","33.5648098","-81.7442211"
"Waffle House #1466","6026 BETHELVIEW RD","CUMMING","GA","30040","34.163879","-84.176293"
"Waffle House #1468","970 HWY 231 SOUTH","OZARK","AL","36360","31.440391","-85.645738"
"Waffle House #1464","5872 OKEECHOBEE RD","FORT PIERCE","FL","34947","27.4172517","-80.3849175"
"Waffle House #1465","8 STEPHEN S GREEN DR","SAVANNAH","GA","31408","32.1390372","-81.2347557"
"Waffle House #1455","1640 MT ZION RD","MORROW","GA","30260","33.5715741","-84.3370082"
"Waffle House #1459","7431 SIWELL RD","BYRAM","MS","39272","32.1858615","-90.2601939"
"Waffle House #1467","26046 N. DIXIE HWY","PERRYSBURG","OH","43551","41.492703","-83.643776"
"Waffle House #1471","2662 AVALON BLVD","MILTON","FL","32583","30.531963","-87.0865637"
"Waffle House #1472","1699 NE DOUGLAS ST","LEE'S SUMMIT","MO","64086","38.936963","-94.378454"
"Waffle House #1474","1208 S MADISON ST","WEBB CITY","MO","64870","37.1335221","-94.4750814"
"Waffle House #1473","3059 N COLUMBIA ST","MILLEDGEVILLE","GA","31061","33.0955019","-83.2402147"
"Waffle House #1460","10134 ALMEDA-GENOA RD","HOUSTON","TX","77075","29.6275365","-95.2359484"
"Waffle House #1454","502 N BERKELEY BLVD","GOLDSBORO","NC","27534","35.3745766","-77.9446153"
"Waffle House #1476","1807 EDWIN MILLER BLVD","MARTINSBURG","WV","25404","39.4812034","-77.9582979"
"Waffle House #1479","4411 DENNY AVE","PASCAGOULA","MS","39581","30.3781556","-88.5271152"
"Waffle House #1480","2423 SCHILLINGER RD S","MOBILE","AL","36695","30.6404755","-88.224186"
"Waffle House #1456","112 CHEROKEE XING","WHITTIER","NC","28789","35.575938","-82.439257"
"Waffle House #1469","6484 EAST BROAD STREET","COLUMBUS","OH","43213","39.981162","-82.828757"
"Waffle House #1475","961 GILBERT FERRY RD","ATTALLA","AL","35954","33.9968683","-86.0973485"
"Waffle House #1477","1834 E MAIN ST","SPARTANBURG","SC","29307","34.96675","-81.894533"
"Waffle House #1484","1208 A HWY 231 SOUTH","TROY","AL","36081","31.785769","-85.956273"
"Waffle House #1463","7400 SANDY LN","MECHANICSVILLE","VA","23111","37.6108684","-77.355487"
"Waffle House #1485","1586 INDIAN TRAIL RD","NORCROSS","GA","30093","33.870981","-84.196287"
"Waffle House #1487","2725 LOGANVILLE HIGHWAY","LOGANVILLE","GA","30052","33.880662","-83.937608"
"Waffle House #1422","3764 CHEEK SPARGER","BEDFORD","TX","76021","32.866213","-97.099879"
"Waffle House #1490","1009 W 2ND ST","TIFTON","GA","31794","31.4580227","-83.527624"
"Waffle House #1493","1594 VERSAILLES RD","FRANKFORT","KY","40601","38.1799602","-84.8150322"
"Waffle House #1377","908 W GOVERNMENT ST","BRANDON","MS","39042","32.2766078","-89.9977331"
"Waffle House #1481","11208 W AIRPORT RD","STAFFORD","TX","77477","29.642044","-95.572867"
"Waffle House #1494","1121 COOKTOWN RD","RUSTON","LA","71270","32.5371553","-92.6529602"
"Waffle House #1491","7000 THOMAS DR","PANAMA CITY BEACH","FL","32408","30.1569883","-85.7722033"
"Waffle House #1495","2100 LONE OAK RD","PADUCAH","KY","42003","37.0467657","-88.655084"
"Waffle House #1496","3255 FLORENCE RD","POWDER SPRINGS","GA","30127","33.8752101","-84.7026499"
"Waffle House #1497","9282 CANAL RD","GULFPORT","MS","39503","30.4144425","-89.1365843"
"Waffle House #1502","8411 HWY 6 SOUTH","HOUSTON","TX","77083","29.688475","-95.643725"
"Waffle House #1506","309 S PEARSON RD","PEARL","MS","39208","32.2693927","-90.1350883"
"Waffle House #1499","3019 N MAIN ST","HOPE MILLS","NC","28348","34.9847147","-78.9647214"
"Waffle House #1492","613 JUPITER RD","PLANO","TX","75074","33.0216121","-96.6828495"
"Waffle House #1505","110 SEABORN DR","MYRTLE BEACH","SC","29579","33.94337","-79.003648"
"Waffle House #1503","3401 SCHILLINGER RD","SEMMES","AL","36575","30.749997","-88.225805"
"Waffle House #1501","638 DONALDSON RD","ERLANGER","KY","41018","39.02326","-84.624891"
"Waffle House #1509","296 WEST CLINTON ST","GRAY","GA","31032","33.0046028","-83.5473009"
"Waffle House #1510","1021 DILLERVILLE RD","LANCASTER","PA","17603","40.0533343","-76.3228457"
"Waffle House #1504","1183 POLARIS PKWY","COLUMBUS","OH","43240","40.141373","-82.9885132"
"Waffle House #1498","7050 ORCHARD CENTRE","HOLLAND","OH","43528","41.6096014","-83.7102897"
"Waffle House #1512","598 W MAIN ST","MIDDLETOWN","DE","19709","39.449512","-75.7220612"
"Waffle House #1507","1515 MCFARLAND PKWY","ALPHARETTA","GA","30005","34.1109749","-84.2196005"
"Waffle House #1508","5565 NORTHSIDE DR","ATLANTA","GA","30327","33.9058673","-84.4309503"
"Waffle House #1514","592 HWY 61","VILLA RICA","GA","30180","33.744159","-84.918933"
"Waffle House #1513","7106 WILL CLAYTON PKWY","HUMBLE","TX","77338","29.9826073","-95.2771745"
"Waffle House #1517","699 HWY 6 EAST","BATESVILLE","MS","38606","34.309928","-89.930101"
"Waffle House #1516","19312 E PLAZA DR","PARKER","CO","80138","39.5268168","-104.7792693"
"Waffle House #1511","628 JOHN SIMS PKWY W","NICEVILLE","FL","32578","30.519735","-86.482363"
"Waffle House #1521","750 SOUTH MAIN","LUMBERTON","TX","77657","30.2413532","-94.1959409"
"Waffle House #1519","1063 HWY 19 N","THOMASTON","GA","30286","32.870787","-84.322751"
"Waffle House #1520","1522 W FLOYD BAKER BLVD","GAFFNEY","SC","29341","35.0903474","-81.6620739"
"Waffle House #1515","E. 1655 MARKET ST","SMITHFIELD","NC","27577","35.40254","-77.895595"
"Waffle House #1522","1837 AIRPORT BLVD","CAYCE","SC","29033","33.9647233","-81.0839052"
"Waffle House #1526","2641 CUMBERLAND FLS HWY I75 EXIT 25","CORBIN","KY","40701","36.990479","-84.080333"
"Waffle House #1524","1064 TIGER BLVD","CLEMSON","SC","29631","34.6909422","-82.8366599"
"Waffle House #1527","5022 CAPITAL CIR SW","TALLAHASSEE","FL","32305","30.3742157","-84.2927201"
"Waffle House #1528","7172 HWY 22","SORRENTO","LA","70778","30.182105","-90.86829"
"Waffle House #1529","4851 GERRARDSTOWN RD","INWOOD","WV","25428","39.3623284","-78.0433346"
"Waffle House #1530","1600 MT EDEN RD","SHELBYVILLE","KY","40065","38.1890152","-85.2123562"
"Waffle House #1532","397 ASH ST","BENTON","KY","42025","36.8676953","-88.3603914"
"Waffle House #1523","1039 SPACE CENTER DR","COLORADO SPRINGS","CO","80915","38.8467213","-104.721895"
"Waffle House #1518","6797 COMMONWEALTH AVE","JACKSONVILLE","FL","32254","30.3360737","-81.7595475"
"Waffle House #1531","904 VANDIVER DR","COLUMBIA","MO","65202","38.9710049","-92.3268494"
"Waffle House #1535","2849 ROSS CLARK CIR","DOTHAN","AL","36301","31.2170842","-85.4309921"
"Waffle House #1536","1808 EAST DIXON BLVD","SHELBY","NC","28152","35.2756711","-81.5330059"
"Waffle House #1534","105 US HWY 231 N","TROY","AL","36081","31.85421","-85.996788"
"Waffle House #1470","7428 GARNERS FERRY","COLUMBIA","SC","29209","33.9682583","-80.9456425"
"Waffle House #1489","3363 E UNIVERSITY DR","PHOENIX","AZ","85040","33.4156001","-112.0080255"
"Waffle House #1546","1530 QUINTARD AVE","ANNISTON","AL","36201","33.664183","-85.8269589"
"Waffle House #1542","4382 INDIAN RIPPLE","BEAVERCREEK","OH","45440","39.696269","-84.101177"
"Waffle House #1540","3031 S ARLINGTON RD","AKRON","OH","44312","40.9891141","-81.4918838"
"Waffle House #1541","4900 HWY 90","PACE","FL","32571","30.603342","-87.120295"
"Waffle House #1547","1608 US 19","LEESBURG","GA","31763","31.7185893","-84.1723844"
"Waffle House #1539","5330 S LINDBERGH BLVD","SAINT LOUIS","MO","63126","38.5259179","-90.3644126"
"Waffle House #1545","5004 FAIRMONT PKWY","PASADENA","TX","77505","29.6494747","-95.1672382"
"Waffle House #1544","6725 W. CENTRAL AVE","TOLEDO","OH","43617","41.6772269","-83.6304447"
"Waffle House #1550","37 CORY LANE","SMYRNA","DE","19977","38.780634","-75.152771"
"Waffle House #1549","2270 US HIGHWAY 74A BYP","FOREST CITY","NC","28043","35.337835","-81.896759"
"Waffle House #1553","7641 S RAEFORD RD","FAYETTEVILLE","NC","28304","35.0332583","-79.0237971"
"Waffle House #1551","2701 E VALENCIA RD","TUCSON","AZ","85706","32.1345202","-110.9319682"
"Waffle House #1557","318 E LOOP 281","LONGVIEW","TX","75605","32.5424007","-94.7387044"
"Waffle House #1548","1862 MARS HILL RD","ACWORTH","GA","30101","34.0396176","-84.6923488"
"Waffle House #1559","1099 N FIRST ST","JESUP","GA","31545","31.615704","-81.875722"
"Waffle House #1560","670 MAGNOLIA STREET","LINCOLN","AL","35096","33.6129083","-86.1191131"
"Waffle House #1554","4770 FRIENDSHIP RD","BUFORD","GA","30518","34.1391147","-83.9485087"
"Waffle House #1561","2380 E BRICKYARD RD","MIDWAY","FL","32343","30.48935","-84.44122"
"Waffle House #1563","1395 HIGHLANDS RIDGE RD","SMYRNA","GA","30082","33.838721","-84.518773"
"Waffle House #1565","859 SOUTH BROADWAY","LEXINGTON","KY","40504","38.039914","-84.513677"
"Waffle House #1564","637 BOLL WEEVIL CIR","ENTERPRISE","AL","36330","31.3335957","-85.8645591"
"Waffle House #1552","14173 HWY 90","BOUTTE","LA","70039","29.89732","-90.393166"
"Waffle House #1569","3693 HWY 17 BYPASS","MURRELLS INLET","SC","29576","33.606965","-79.015065"
"Waffle House #1566","12880 MISSISSIPPI AVE","AURORA","CO","80012","39.6961985","-104.838945"
"Waffle House #1571","2903 STERLINGTON RD","MONROE","LA","71203","32.5509934","-92.0771077"
"Waffle House #1568","4029 TAYLORSVILLE RD","LOUISVILLE","KY","40220","38.2201014","-85.6233479"
"Waffle House #1576","106 E BEACH BLVD","LONG BEACH","MS","39560","30.3452046","-89.1477807"
"Waffle House #1572","728 N SAM HOUSTON PKWY","HOUSTON","TX","77060","29.93832","-95.386371"
"Waffle House #1578","1646 A BRADLEY PARK DR","COLUMBUS","GA","31904","32.5306899","-84.9801372"
"Waffle House #1580","10401 US HIGHWAY 84 E","THOMASVILLE","GA","31757","30.832342","-83.931219"
"Waffle House #1574","6105 WHITE HORSE RD","GREENVILLE","SC","29611","34.8528967","-82.4535924"
"Waffle House #1577","2454 S. REYNOLDS AVE","TOLEDO","OH","43614","41.604802","-83.664615"
"Waffle House #1570","15 GLENDA TRACE","NEWNAN","GA","30265","33.408642","-84.686345"
"Waffle House #1573","5452 HWY 25","BRANDON","MS","39047","32.349826","-90.035635"
"Waffle House #1579","1740 E SPRING CREEK PKWY","PLANO","TX","75074","33.0569349","-96.6892788"
"Waffle House #1533","1500 CONOWINGO RD","BEL AIR","MD","21014","39.5675727","-76.3542084"
"Waffle House #1555","5646 BUCKYSTOWN PIKE","FREDERICK","MD","21704","39.389713","-77.409407"
"Waffle House #1584","1405 N CASSADY AVE","COLUMBUS","OH","43219","39.9976814","-82.9303329"
"Waffle House #1582","9225 BOYD COOPER PKWY","MONTGOMERY","AL","36117","32.3661296","-86.1389634"
"Waffle House #1562","5414 WILLIAMSBURG RD","SANDSTON","VA","23150","37.518598","-77.337121"
"Waffle House #1588","101 E 29TH AVE","APACHE JUNCTION","AZ","85119","33.388644","-111.5454487"
"Waffle House #1591","12880 FT CAMPBELL BLVD","OAK GROVE","KY","42262","36.6933607","-87.4533204"
"Waffle House #1567","926 PLEASANT HILL RD","LAWRENCEVILLE","GA","30044","33.92513","-84.113887"
"Waffle House #1589","1116 LEAGUE LINE RD","CONROE","TX","77303","30.3652055","-95.477697"
"Waffle House #1587","1305 HWY 20 W","MCDONOUGH","GA","30253","33.425295","-84.18336"
"Waffle House #1590","460 RACETRACK RD NW","FT WALTON BEACH","FL","32547","30.4491522","-86.6227"
"Waffle House #1593","3262 DAUPHIN ST","MOBILE","AL","36606","30.6890641","-88.122987"
"Waffle House #1592","1350 CANADIAN COURT","YUKON","OK","73099","35.4889763","-97.7592134"
"Waffle House #1597","503 EAST 2ND STREET","OWASSO","OK","74055","36.2681578","-95.8538447"
"Waffle House #1583","5252 N HENRY BLVD","STOCKBRIDGE","GA","30281","33.5454938","-84.2475042"
"Waffle House #1585","1613 W HEBRON PKWY","CARROLLTON","TX","75010","33.0231949","-96.9371138"
"Waffle House #1586","612 HWY 90 W","NEW IBERIA","LA","70560","29.98818","-91.863283"
"Waffle House #1594","1783 AIRPORT RD","ALLENTOWN","PA","18109","40.632458","-75.44107"
"Waffle House #1595","3190 MEDINA RD","MEDINA","OH","44256","41.1361337","-81.8025413"
"Waffle House #1604","4824 E CHANDLER BLVD","PHOENIX","AZ","85048","33.3058183","-111.9791474"
"Waffle House #1602","3399 MICHIGAN AVE","PENSACOLA","FL","32526","30.461111","-87.300932"
"Waffle House #1600","2255 PANOLA RD","LITHONIA","GA","30058","33.723493","-84.167258"
"Waffle House #1598","222 WOLFENSBERGER RD","CASTLE ROCK","CO","80109","39.3767693","-104.8837799"
"Waffle House #1610","9217 MANSFIELD RD","SHREVEPORT","LA","71118","32.4014676","-93.8051677"
"Waffle House #1537","829 HIGH ST","HAMILTON","OH","45011","39.3907247","-84.5341315"
"Waffle House #1596","8121 WARREN H ABERNATHY HWY","SPARTANBURG","SC","29301","34.934953","-82.0048324"
"Waffle House #1605","8018 CUMMING HWY","CANTON","GA","30115","34.236203","-84.4519411"
"Waffle House #1611","3154 TELEGRAPH RD","SAINT LOUIS","MO","63125","38.4986971","-90.2997623"
"Waffle House #1601","278 CONCORD PKWY S","CONCORD","NC","28025","35.396107","-80.611402"
"Waffle House #1607","599 HWY 17","LITTLE RIVER","SC","29566","33.865279","-78.643362"
"Waffle House #1609","3120 N PATTERSON ST","VALDOSTA","GA","31602","30.8744178","-83.2918036"
"Waffle House #1613","4091 WEST MAIN ST","DOTHAN","AL","36305","31.2337336","-85.4533443"
"Waffle House #1606","500 PELHAM RD NORTH","JACKSONVILLE","AL","36265","33.8188658","-85.7617505"
"Waffle House #1615","3025-A NORTH MAIN STREET","ANDERSON","SC","29621","34.5190518","-82.6552788"
"Waffle House #1621","1629 GORDON HWY","AUGUSTA","GA","30906","33.4393131","-82.0177651"
"Waffle House #1619","111 OAK COURT","SLIDELL","LA","70458","30.224339","-89.786473"
"Waffle House #1617","2959 MIAMISBURG","MIAMISBURG","OH","45342","39.6383969","-84.2270485"
"Waffle House #1616","4875 ALABAMA RD NE","ROSWELL","GA","30075","34.067463","-84.425086"
"Waffle House #1623","7809 BEN WHITE BLVD","AUSTIN","TX","78744","30.2184762","-97.6880847"
"Waffle House #1625","3211 FIVE CHOP RD","ORANGEBURG","SC","29115","33.4572953","-80.7345784"
"Waffle House #1626","105 NORTH STRAND PKWY","MYRTLE BEACH","SC","29588","33.678689","-78.998654"
"Waffle House #1624","695 CARL ELLER RD","MARS HILL","NC","28754","35.8204184","-82.5387105"
"Waffle House #1612","531 CANTON HWY","CUMMING","GA","30040","34.2218212","-84.1538252"
"Waffle House #1608","9750 N CONGRESS AVE","KANSAS CITY","MO","64153","39.2695812","-94.6680919"
"Waffle House #1629","1907 E NINE MILE RD","PENSACOLA","FL","32514","30.532137","-87.221107"
"Waffle House #1630","7505 CRILE RD","PAINESVILLE","OH","44077","41.6662218","-81.2434947"
"Waffle House #1628","8505 BENBROOK BLVD","BENBROOK","TX","76126","32.659742","-97.48939"
"Waffle House #1614","430 RACE TRACK RD","WASHINGTON","PA","15301","40.217248","-80.201555"
"Waffle House #1654","4343 HIGHWAY 58","CHATTANOOGA","TN","37416","35.0838616","-85.2031683"
"Waffle House #1631","1170 WEST AVE","CONYERS","GA","30012","33.669155","-84.022531"
"Waffle House #1622","2310 HWY 411 NE","CARTERSVILLE","GA","30120","34.218795","-84.843218"
"Waffle House #1635","933 SOUTH STATE ST","CLARKS SUMMIT","PA","18411","41.4882465","-75.696242"
"Waffle House #1632","1100 DALLAS CHERRYVILLE HWY","DALLAS","NC","28034","35.315485","-81.193212"
"Waffle House #1500","1100 OLD PEACHTREE RD","DULUTH","GA","30097","34.008475","-84.1297247"
"Waffle House #1633","1096 CLAUSSEN RD","AUGUSTA","GA","30907","33.5219453","-82.033366"
"Waffle House #1634","4375 W. NORTHGATE DR","IRVING","TX","75062","32.8571604","-97.0160453"
"Waffle House #1620","2525 54TH AVE NORTH","ST PETERSBURG","FL","33714","27.8214354","-82.6671922"
"Waffle House #1543","509 DAWSONVILLE HWY","GAINESVILLE","GA","30501","34.2964316","-83.8463425"
"Waffle House #1640","613 THORNTON RD","LITHIA SPRINGS","GA","30122","33.7967857","-84.6421315"
"Waffle House #1618","808 PULASKI HWY","HAVRE DE GRACE","MD","21078","39.552993","-76.101017"
"Waffle House #1639","747 UPWARD RD","FLAT ROCK","NC","28731","35.298075","-82.4044886"
"Waffle House #1637","3109 JUPITER RD","GARLAND","TX","75041","32.87669","-96.683247"
"Waffle House #1644","70 HOWARD DR","SHELBYVILLE","KY","40065","38.198699","-85.266874"
"Waffle House #1643","109 FOREST PKWY","FOREST PARK","GA","30297","33.6183997","-84.3911258"
"Waffle House #1642","2725 SALT SPRINGS RD","GIRARD","OH","44420","41.136081","-80.712782"
"Waffle House #1646","2346 BENT CREEK RD","AUBURN","AL","36830","32.607763","-85.4301962"
"Waffle House #1651","100 SUGARLOAF RD","HENDERSONVILLE","NC","28792","35.340192","-82.435979"
"Waffle House #1638","2512 CLEVELAND AVE","CANTON","OH","44707","40.7707526","-81.3861502"
"Waffle House #1650","10337 OCEAN HWY","PAWLEYS ISL","SC","29585","33.423183","-79.13871"
"Waffle House #1649","13048 HWY 70 WEST","CLAYTON","NC","27520","35.665973","-78.498294"
"Waffle House #1652","1401 PIEDMONT AVE","ROCKMART","GA","30153","33.996853","-85.0414376"
"Waffle House #1657","10606 US ROUTE 23","CATLETTSBURG","KY","41129","38.394045","-82.601348"
"Waffle House #1647","6931 OLD CANTON RD","RIDGELAND","MS","39157","32.4152259","-90.1064337"
"Waffle House #1525","316 SW 19TH ST","MOORE","OK","73160","35.3196719","-97.4959652"
"Waffle House #1645","1412 NORTH MAIN ST","FUQUAY VARINA","NC","27526","35.5925801","-78.7719542"
"Waffle House #1653","1106 S. COCKRELL HILL RD","DUNCANVILLE","TX","75137","32.6401602","-96.891554"
"Waffle House #1641","7044 JIMMY CARTER BLVD","NORCROSS","GA","30092","33.9436306","-84.2401939"
"Waffle House #1660","3522 CLARKS RIVER RD","PADUCAH","KY","42003","37.0480984","-88.5632505"
"Waffle House #1656","2701 N ROBERTS AVE","LUMBERTON","NC","28358","34.6433787","-79.0111022"
"Waffle House #1659","4097 MARIETTA ST","POWDER SPRINGS","GA","30127","33.8587022","-84.6751279"
"Waffle House #1665","112 RAILROAD AVE","RUTHERFORDTON","NC","28139","35.3635737","-81.9418064"
"Waffle House #1663","1287 S HOUSTON LAKE RD","WARNER ROBINS","GA","31088","32.5871314","-83.66367"
"Waffle House #1667","1 MELVIN DR","GREENVILLE","SC","29605","34.790784","-82.37534"
"Waffle House #1655","1229 W ROOSEVELT","MONROE","NC","28110","34.994029","-80.540495"
"Waffle House #1664","255 MURTLAND AVE","WASHINGTON","PA","15301","40.1824087","-80.2317134"
"Waffle House #1668","708 HWY 49 SOUTH","RICHLAND","MS","39218","32.2324252","-90.1621795"
"Waffle House #1671","8060 ROCKBRIDGE RD","LITHONIA","GA","30058","33.775105","-84.0736"
"Waffle House #1669","68071 HIGHWAY 59","MANDEVILLE","LA","70471","30.416592","-90.040861"
"Waffle House #1672","2111 FAIRBURN RD","DOUGLASVILLE","GA","30135","33.7472242","-84.7014353"
"Waffle House #1681","1405 MARTIN SPRINGS DR","ROLLA","MO","65401","37.942341","-91.7915427"
"Waffle House #1627","11244 E MLK BLVD","SEFFNER","FL","33584","28.085048","-82.42205"
"Waffle House #1675","6637 E. INDEPENDENCE BLVD","CHARLOTTE","NC","28212","35.1708597","-80.7448991"
"Waffle House #1676","10295 HWY 165 NORTH","STERLINGTON","LA","71280","32.522379","-92.080509"
"Waffle House #1674","1003 LAKE OCONEE PKWY","EATONTON","GA","31024","33.325883","-83.377031"
"Waffle House #1662","8000 MACON HWY","ATHENS","GA","30606","33.9221605","-83.3785964"
"Waffle House #1677","3565 SAVANNAH HWY","JOHNS ISLAND","SC","29455","32.80232","-80.107047"
"Waffle House #1683","8800 E HWY 290","AUSTIN","TX","78724","30.328893","-97.656964"
"Waffle House #1682","1908 OATES DR","MESQUITE","TX","75150","32.8365736","-96.6301024"
"Waffle House #1678","3323 FT CAMPBELL BLVD","CLARKSVILLE","TN","37042","36.6361279","-87.4365216"
"Waffle House #1679","5505 TINKER DIAGONAL","DEL CITY","OK","73115","35.4464313","-97.4240858"
"Waffle House #1685","6207 HIGHWAY 221","ROEBUCK","SC","29376","34.8391077","-81.9691537"
"Waffle House #1687","240 S LOOP 336 WEST","CONROE","TX","77304","30.2793869","-95.4616984"
"Waffle House #1658","475 NORTH ELMS ST","HAUGHTON","LA","71037","32.53265","-93.50406"
"Waffle House #1690","1114 NORTH PARK ST","CARROLLTON","GA","30117","33.5974569","-85.0792643"
"Waffle House #1684","1255 SCENIC HIGHWAY","LAWRENCEVILLE","GA","30045","33.9457053","-83.9877662"
"Waffle House #1666","8906 FINGERBOARD RD","FREDERICK","MD","21704","39.3258252","-77.3479239"
"Waffle House #1680","3960 S HIGH ST","COLUMBUS","OH","43207","39.882065","-83.0007734"
"Waffle House #1688","2880 BROWNS BRIDGE ROAD","GAINESVILLE","GA","30504","34.2792144","-83.8746306"
"Waffle House #1692","425 SUMTER HWY","CAMDEN","SC","29020","34.2198354","-80.5957048"
"Waffle House #1691","2101 CHERRY LANE","BETHLEHEM","PA","18015","40.5938781","-75.3393746"
"Waffle House #1697","375 N HWY 67 ST","FLORISSANT","MO","63031","38.800055","-90.333779"
"Waffle House #1693","394 VIRGINIA AVE","DALEVILLE","AL","36322","31.3004953","-85.7263156"
"Waffle House #1689","461 CALHOUN DR","ATHENS","GA","30601","33.9863821","-83.3450806"
"Waffle House #1699","10 HWY 515 BLDG B","BLAIRSVILLE","GA","30512","34.904394","-83.953009"
"Waffle House #1696","5565 BUFORD HWY","NORCROSS","GA","30071","33.943416","-84.2059059"
"Waffle House #1701","650 SOUTH REILLY RD","FAYETTEVILLE","NC","28314","35.0640079","-79.0140143"
"Waffle House #1670","2735 FOREST PARKWAY","ELLENWOOD","GA","30294","33.6120113","-84.2991977"
"Waffle House #1694","6035 BAKERS FERRY RD","ATLANTA","GA","30336","33.750133","-84.551246"
"Waffle House #1703","75 MEIGHAN BLVD","GADSDEN","AL","35903","33.9704473","-85.948322"
"Waffle House #1698","6305 N 9TH AVE","PENSACOLA","FL","32504","30.4888389","-87.1967128"
"Waffle House #1706","2905 CHURCH ST","CONWAY","SC","29526","33.8615289","-79.09305"
"Waffle House #1705","239 INTERSTATE SOUTH","JASPER","GA","30143","34.3982156","-84.4146855"
"Waffle House #1704","1960 EAST MAIN ST SUITE B","SNELLVILLE","GA","30078","33.8563628","-83.9977323"
"Waffle House #1708","4180 AUSTIN BLUFFS PKWY","COLORADO SPRINGS","CO","80918","38.8926225","-104.7532263"
"Waffle House #1700","5970 MEMORIAL DR","STONE MOUNTAIN","GA","30083","33.800677","-84.201286"
"Waffle House #1702","452 HWY 90","WAVELAND","MS","39576","30.304248","-89.38413"
"Waffle House #1710","1494 NILES CORTLAND RD NE","WARREN","OH","44484","41.256782","-80.740737"
"Waffle House #1711","715 THOMAS LANGSTON ROAD","WINTERVILLE","NC","28590","35.560833","-77.405538"
"Waffle House #1714","5610 OLD SHELL RD","MOBILE","AL","36608","30.6898335","-88.1725729"
"Waffle House #1719","2701 S PROVIDENCE RD","COLUMBIA","MO","65203","38.9209468","-92.3355188"
"Waffle House #1718","805 W AVENUE","CARTERSVILLE","GA","30120","34.153698","-84.8216463"
"Waffle House #1715","8682 ASHEVILLE HWY","BOILING SPRINGS","SC","29316","35.0018113","-82.0057844"
"Waffle House #1717","138 CONNERS RD","VILLA RICA","GA","30180","33.7321917","-84.9010914"
"Waffle House #1721","669 HWY 138","RIVERDALE","GA","30274","33.549128","-84.413411"
"Waffle House #1720","1935 GA HWY 211","HOSCHTON","GA","30548","34.092415","-83.808335"
"Waffle House #1709","745 E WASHINGTON AVE","ASHBURN","GA","31714","31.7109721","-83.6405774"
"Waffle House #1713","734 N RIVERSIDE DR","CLARKSVILLE","TN","37040","36.5411311","-87.3680488"
"Waffle House #1712","2922 WADE HAMPTON BLVD","TAYLORS","SC","29687","34.9278296","-82.2992197"
"Waffle House #1724","6390 FLAT ROCK RD","COLUMBUS","GA","31904","32.5318264","-84.8719423"
"Waffle House #1722","6122 HICKORY FLAT HWY","CANTON","GA","30115","34.1757941","-84.4194851"
"Waffle House #1716","36333 VINE ST","WILLOUGHBY","OH","44094","41.6425592","-81.410623"
"Waffle House #1723","14951 MARSH LANE","FARMERS BRANCH","TX","75234","32.9519686","-96.8560711"
"Waffle House #1725","8006 WHITE HORSE RD","GREENVILLE","SC","29617","34.8938064","-82.4675038"
"Waffle House #1726","2581 PIEDMONT RD NE","ATLANTA","GA","30324","33.8254798","-84.3667238"
"Waffle House #1728","8305 DESIARD ST","MONROE","LA","71201","32.5286308","-92.0356049"
"Waffle House #1695","4384 US ROUTE 60","HUNTINGTON","WV","25705","38.41207","-82.363761"
"Waffle House #1731","229 TEMPLE AVE","NEWNAN","GA","30263","33.385283","-84.816801"
"Waffle House #1729","20 HOSIERY MILL RD","DALLAS","GA","30157","33.956666","-84.787095"
"Waffle House #1732","225 US HIGHWAY 70 W","HAVELOCK","NC","28532","34.925201","-76.946503"
"Waffle House #1735","1220 BLUE MOUND RD","SAGINAW","TX","76131","32.838699","-97.342983"
"Waffle House #1730","340 E CORNELIUS HARNETT BLVD","LILLINGTON","NC","27546","35.4150146","-78.7985117"
"Waffle House #1737","2284 GALA AVE","HUBBARD","OH","44425","41.161685","-80.61213"
"Waffle House #1733","1107 E DAYTON YELLOW","FAIRBORN","OH","45324","39.828512","-84.007554"
"Waffle House #1738","2993 MAIN ST","NEWBERRY","SC","29108","34.2803527","-81.6063804"
"Waffle House #1739","21852 HIGHWAY 59","ROBERTSDALE","AL","36567","30.543","-87.708251"
"Waffle House #1736","120 WESTERN BLVD","TARBORO","NC","27886","35.888983","-77.5480839"
"Waffle House #1740","13091 BROWN BRIDGE RD","COVINGTON","GA","30016","33.5941816","-83.8866548"
"Waffle House #1741","10910 WEST 75TH ST","SHAWNEE","KS","66214","38.9930039","-94.7116144"
"Waffle House #1742","5055 EAST MCKELLIPS ROAD","MESA","AZ","85215","33.4515095","-111.7212374"
"Waffle House #1707","1444 E MAIN ST","LINCOLNTON","NC","28092","35.4769716","-81.2340557"
"Waffle House #1743","1868 RUSSELLVILLE RD","BOWLING GREEN","KY","42101","36.9804172","-86.4671945"
"Waffle House #1744","119 BIG VALLEY DR","ALEXANDRIA","AL","36250","33.754987","-85.866291"
"Waffle House #1727","447 HWY 72 BY PASS NW","GREENWOOD","SC","29649","34.193497","-82.209215"
"Waffle House #1750","543 CARROLLTON ST","TEMPLE","GA","30179","33.7226897","-85.0288765"
"Waffle House #1747","5424 WHIPPLE AVE","NORTH CANTON","OH","44720","40.8718531","-81.4221167"
"Waffle House #1745","708 DAVIS ST","SCRANTON","PA","18505","41.3763107","-75.6907966"
"Waffle House #1748","1705 DELAWARE AVE","MCCOMB","MS","39648","31.2474309","-90.4743508"
"Waffle House #1751","1727 HUDSON BRIDGE RD","STOCKBRIDGE","GA","30281","33.5041074","-84.237391"
"Waffle House #1758","596 EAST JACKSON BLVD","ERWIN","NC","28339","35.3232125","-78.6459891"
"Waffle House #1752","1108 BY PASS 25 NE","GREENWOOD","SC","29649","34.206364","-82.139065"
"Waffle House #1734","901 LEW DEWITT BLVD","WAYNESBORO","VA","22980","38.0644231","-78.9382397"
"Waffle House #1759","3949 PLATT SPRINGS","WEST COLUMBIA","SC","29170","33.9699857","-81.0918458"
"Waffle House #1761","9800 WEDDINGTON ROAD EXT","CONCORD","NC","28027","35.3805","-80.696046"
"Waffle House #1754","3898 HWY 80 W","PHENIX CITY","AL","36867","32.471469","-85.052318"
"Waffle House #1764","7415 SPOUT SPRINGS RD","FLOWERY BRANCH","GA","30542","34.1496224","-83.8903805"
"Waffle House #1755","115 ST STEPHENS CT","TYRONE","GA","30290","33.562256","-84.301364"
"Waffle House #1760","2106 NE EVANGELINE","LAFAYETTE","LA","70501","30.23352","-92.031138"
"Waffle House #1757","1105 WEST OAK ST","AMITE","LA","70422","30.7260392","-90.5258022"
"Waffle House #1762","1100 NOR TEC DR","CONYERS","GA","30013","33.602595","-84.010791"
"Waffle House #1756","3500 APALACHEE PKWY","TALLAHASSEE","FL","32311","30.428329","-84.214507"
"Waffle House #1753","4003 S DUPONT HWY","DOVER","DE","19901","39.1047315","-75.5405718"
"Waffle House #1765","1120 HIGHWAY 67 WEST","ALVARADO","TX","76009","32.416208","-97.196876"
"Waffle House #1774","3249 HWY 226 SOUTH","MARION","NC","28752","35.835769","-82.045046"
"Waffle House #1766","932 BUFORD DR","LAWRENCEVILLE","GA","30043","33.9887483","-83.9841886"
"Waffle House #1771","4569 HOMER OHIO LANE","GROVEPORT","OH","43125","39.8750654","-82.8831138"
"Waffle House #1772","1408 HWY 16 W","GRIFFIN","GA","30223","33.247424","-84.290627"
"Waffle House #1775","298 JAMES LEE BLVD W","CRESTVIEW","FL","32536","30.762587","-86.577113"
"Waffle House #1778","1269 HILLCREST RD","MOBILE","AL","36695","30.663307","-88.190447"
"Waffle House #1769","1400 HWY 78 NW","MONROE","GA","30655","33.802901","-83.697919"
"Waffle House #1773","5500 MAIN ST","ZACHARY","LA","70791","30.647323","-91.1464216"
"Waffle House #1777","3071 HWY 90 WEST","AVONDALE","LA","70094","29.910279","-90.20644"
"Waffle House #1783","2621 S HORNER BLVD","SANFORD","NC","27332","35.457673","-79.1423902"
"Waffle House #1776","9159 ROOSEVELT HWY","PALMETTO","GA","30268","33.5283545","-84.661418"
"Waffle House #1780","5755 GENDER RD","CANAL WINCHESTER","OH","43110","39.8611716","-82.8275772"
"Waffle House #1770","4600 N VALDOSTA RD","VALDOSTA","GA","31602","30.8802758","-83.306791"
"Waffle House #1779","7290 PENDLETON PIKE","LAWRENCE","IN","46226","39.8333671","-86.0331712"
"Waffle House #1788","1407 NORTH HERVEY ST","HOPE","AR","71801","33.6799944","-93.604168"
"Waffle House #1784","265 JONESBOROR RD","MCDONOUGH","GA","30253","33.453541","-84.167313"
"Waffle House #1782","5011 COTTAGE HILL RD","MOBILE","AL","36609","30.6490576","-88.1587596"
"Waffle House #1786","20 AUBURN PARK DR","AUBURN","GA","30011","34.01066","-83.841845"
"Waffle House #1790","2070 WEST MAIN ST","CENTRE","AL","35960","34.1523495","-85.6802679"
"Waffle House #1781","4346 FULTON","ATLANTA","GA","30336","33.7642782","-84.5309165"
"Waffle House #1791","4223 COMMONWEALTH COURT","SAINT JOSEPH","MO","64503","39.7232477","-94.792835"
"Waffle House #1795","968 WEST US HWY 64","MURPHY","NC","28906","35.057181","-84.065799"
"Waffle House #1787","1302 SCOTLAND CROSSING DR","LAURINBURG","NC","28352","34.7562722","-79.4823091"
"Waffle House #1785","208 EXCHANGE VILLAGE DRIVE EAST","SPARTANBURG","SC","29301","34.941232","-81.96435"
"Waffle House #1793","719 E PARKER RD","JONESBORO","AR","72404","35.8064459","-90.7018206"
"Waffle House #1792","10457 SORRENTO RD","PENSACOLA","FL","32507","30.358389","-87.36379"
"Waffle House #1746","1806 EDGEWOOD RD","EDGEWOOD","MD","21040","39.453875","-76.306439"
"Waffle House #1798","1285 EIGHTEEN MILE RD","CENTRAL","SC","29630","34.708697","-82.7611555"
"Waffle House #1797","2189 E UNIVERSITY DR","TEMPE","AZ","85281","33.4216192","-111.8921686"
"Waffle House #1789","1917 ATLANTA HWY","STATHAM","GA","30666","33.965711","-83.599475"
"Waffle House #1796","3429 PARIS RD","CHALMETTE","LA","70043","29.9505461","-89.9596594"
"Waffle House #1802","13132 HWY 61 NORTH","ROBINSONVILLE","MS","38664","34.84641","-90.264382"
"Waffle House #1805","1024 HWY 59 SOUTH","SUMMERDALE","AL","36580","30.478836","-87.707625"
"Waffle House #1794","7810 S STATE ROAD 13","PENDLETON","IN","46064","39.990405","-85.843089"
"Waffle House #1806","101 SPRINGVILLE STATION BLVD","SPRINGVILLE","AL","35146","33.7777962","-86.4303565"
"Waffle House #1800","5598 BUFORD HWY","DORAVILLE","GA","30340","33.9044694","-84.2729571"
"Waffle House #1803","462 EAST PINE LOG RD","AIKEN","SC","29803","33.5284202","-81.7073989"
"Waffle House #1804","106 LAURINBURG RD","RAEFORD","NC","28376","34.978634","-79.2370575"
"Waffle House #1801","2045 HWY 155 N","MCDONOUGH","GA","30252","33.4750786","-84.1384802"
"Waffle House #1799","1640 WALNUT AVE","LOGANVILLE","GA","30052","33.745849","-83.844973"
"Waffle House #1813","916 WEST FRONTAGE RD","WIGGINS","MS","39577","30.850369","-89.155799"
"Waffle House #1811","4320 HARTLEY BRIDGE ROAD","MACON","GA","31216","32.7422545","-83.7136858"
"Waffle House #1810","2451 S STERLING ST","MORGANTON","NC","28655","35.7202515","-81.6514167"
"Waffle House #1807","451 EAST COMMERCE ST","HERNANDO","MS","38632","34.8238771","-89.9796857"
"Waffle House #1812","2920 HIGHWAY 501","AYNOR","SC","29511","33.98888","-79.199171"
"Waffle House #1808","12679 US ROUTE 60","ASHLAND","KY","41102","38.3886974","-82.716338"
"Waffle House #1816","12118 OLD 63 SOUTH","LUCEDALE","MS","39452","30.907288","-88.597915"
"Waffle House #1809","3080 NORTH MARKET ST","SHREVEPORT","LA","71107","32.558803","-93.7831895"
"Waffle House #1815","474 US HIGHWAY 1 SOUTH","ROCKINGHAM","NC","28379","34.906759","-79.795987"
"Waffle House #1823","2 JUSTICE LANE","ANDERSON","SC","29621","34.576311","-82.690374"
"Waffle House #1820","309 NORTH HWY 52","MONCKS CORNER","SC","29461","33.198399","-79.992206"
"Waffle House #1824","1106 WEST MAIN ST","CABOT","AR","72023","34.9763207","-92.0264625"
"Waffle House #1818","343 S BICKETT BLVD","LOUISBURG","NC","27549","36.0874668","-78.3021502"
"Waffle House #1817","110 LOVES CREEK CHURCH RD","SILER CITY","NC","27344","35.7348127","-79.4335329"
"Waffle House #1827","954 BROOKWAY BLVD","BROOKHAVEN","MS","39601","31.5788954","-90.4644176"
"Waffle House #1828","2195 SC HWY 773","PROSPERITY","SC","29127","34.239266","-81.459689"
"Waffle House #1822","2085 SUNSET DR","GRENADA","MS","38901","33.7690739","-89.8070171"
"Waffle House #1834","8354 I-10 SERVICE RD","IRVINGTON","AL","36544","30.636339","-87.902088"
"Waffle House #1830","2850 G. H. DRIVE","AUSTINBURG","OH","44010","41.7839105","-80.8553501"
"Waffle House #1835","5005 HIGHWAY 155 N","STOCKBRIDGE","GA","30281","33.584032","-84.149521"
"Waffle House #1814","2305 VINTAGE COURT","EXCELSIOR SPRINGS","MO","64024","39.3319706","-94.2687445"
"Waffle House #1829","3901 GOLDSBORO RD","WADE","NC","28395","35.1234988","-78.7499102"
"Waffle House #1832","201 FAIRVIEW RD","ELLENWOOD","GA","30294","33.618778","-84.243877"
"Waffle House #1837","5801 READ BLVD","NEW ORLEANS","LA","70127","30.035452","-89.9733839"
"Waffle House #1821","611 LILLINGTON HWY","SPRING LAKE","NC","28390","35.1730156","-78.9702594"
"Waffle House #1838","811 US HWY 43 SOUTH","SARALAND","AL","36571","30.803997","-88.07192"
"Waffle House #1825","5087 HIGHWAY 31","CALERA","AL","35040","33.14772","-86.749144"
"Waffle House #1845","1700 SOUTH HWY 29","CANTONMENT","FL","32533","30.5778166","-87.2939662"
"Waffle House #1842","20660 HWY 63","MOSS POINT","MS","39563","30.444647","-88.529701"
"Waffle House #1836","1718 US HWY 52 NORTH","ALBEMARLE","NC","28001","35.3842254","-80.1927968"
"Waffle House #1844","809 HIGH POINT ST","RANDLEMAN","NC","27317","35.8233869","-79.8103817"
"Waffle House #1851","12615 FOLEY BEACH EXPRESS","FOLEY","AL","36535","30.381767","-87.651617"
"Waffle House #1849","1245 NORTH BROAD ST","MONROE","GA","30656","33.8178436","-83.731023"
"Waffle House #1839","1133 NORTH MAIN ST","BELLEFONTAINE","OH","43311","40.3773381","-83.7560628"
"Waffle House #1840","2880 NORTH WILLISTON ROAD","FLORENCE","SC","29506","34.2598499","-79.7000439"
"Waffle House #1843","4688 CENTER POINT RD","PINSON","AL","35126","33.696249","-86.6814719"
"Waffle House #1846","10690 COVINGTON BY-PASS","COVINGTON","GA","30014","33.574488","-83.840387"
"Waffle House #1848","3310 HAMILTON MILL ROAD","BUFORD","GA","30519","34.1002525","-83.9630812"
"Waffle House #1856","4201 LAFAYETTE ST","MARIANNA","FL","32446","30.781517","-85.2456991"
"Waffle House #1847","925 HWY 82 WEST","GREENWOOD","MS","38930","33.52401","-90.20462"
"Waffle House #1850","1165 US 1 HWY","YOUNGSVILLE","NC","27596","36.0412361","-78.4984817"
"Waffle House #1852","8800 S DALE HARKER DR","DALEVILLE","IN","47334","40.176396","-85.415298"
"Waffle House #1858","73111 HWY 25","COVINGTON","LA","70433","30.500377","-90.107566"
"Waffle House #1863","804 S BROAD ST","CLINTON","SC","29325","34.4596359","-81.8787121"
"Waffle House #1861","2840 FORT WORTH HWY","HUDSON OAKS","TX","76087","32.75716","-97.7140869"
"Waffle House #1866","2064 INTERSTATE DR","OPELIKA","AL","36801","32.617769","-85.4033185"
"Waffle House #1857","1304 SOUTH COX ST","ASHEBORO","NC","27203","35.6896313","-79.8108571"
"Waffle House #1855","451 WAL MART COURT","EASTANOLLEE","GA","30538","34.538867","-83.974392"
"Waffle House #1867","130 WEST CHURCH ST","BATESBURG","SC","29006","33.9122872","-81.5348384"
"Waffle House #1862","1325 US-74","WADESBORO","NC","28170","34.9779408","-80.0927784"
"Waffle House #1871","102 SWEETLAND AVE","BROUSSARD","LA","70518","30.1606","-91.963869"
"Waffle House #1870","63900 HIGHWAY 1090","PEARL RIVER","LA","70452","30.339869","-89.735275"
"Waffle House #1864","317 U.S. 82","WINONA","MS","38967","33.486788","-89.76222"
"Waffle House #1859","1385 ELECTION HOUSE RD","LANCASTER","OH","43130","39.747278","-82.647913"
"Waffle House #1869","13035 N. WINTZELL AVE","BAYOU LA BATRE","AL","36509","30.405308","-88.247794"
"Waffle House #1865","5536 MCEVER RD","FLOWERY BRANCH","GA","30542","34.1987516","-83.9249691"
"Waffle House #1872","1135 RUIN CREEK RD","HENDERSON","NC","27537","36.32173","-78.4504479"
"Waffle House #1875","1010 EAST THOMAS ST","HAMMOND","LA","70401","30.5064313","-90.4503336"
"Waffle House #1873","550 EAST MAIN ST","BISCOE","NC","27209","35.3610515","-79.7693372"
"Waffle House #1874","1417 WEST PEACE ST","CANTON","MS","39046","32.6071928","-90.0646376"
"Waffle House #1880","28055 HWY 28","HAZLEHURST","MS","39083","31.874536","-90.372167"
"Waffle House #1877","2193 SOUTHPORT RD","SPARTANBURG","SC","29306","34.921545","-81.8881848"
"Waffle House #1881","102 GARNER RD","SPARTANBURG","SC","29303","34.9662101","-81.9298131"
"Waffle House #1878","7425 AUGUSTA RD","PIEDMONT","SC","29673","34.73003","-82.388889"
"Waffle House #1883","3036 ANVIL BLOCK RD","ELLENWOOD","GA","30294","33.633807","-84.291843"
"Waffle House #1886","3201 HWY 36 WEST","JACKSON","GA","30233","33.215958","-84.050493"
"Waffle House #1885","66 5TH ST NW","ATLANTA","GA","30308","33.776777","-84.389318"
"Waffle House #1882","110 WEST GLENN AVE","AUBURN","AL","36830","32.6081134","-85.5017236"
"Waffle House #1887","10563 DIXIE HWY","LOUISVILLE","KY","40272","38.101543","-85.8703584"
"Waffle House #1884","314 W WASHINGTON ST","NASHVILLE","NC","27856","35.9760242","-77.9698416"
"Waffle House #1879","11 E STONE AVE","GREENVILLE","SC","29609","34.8614835","-82.3931238"
"Waffle House #1888","1201 GRETA LANE","STARKVILLE","MS","39759","33.4421539","-88.850433"
"Waffle House #1889","10638 CHAPMAN HWY","SEYMOUR","TN","37865","35.8799075","-83.7778254"
"Waffle House #1890","100 PIEDMONT AVE SE","ATLANTA","GA","30303","33.7511907","-84.3854161"
"Waffle House #1892","2811 SOUTH KINGS HWY","MYRTLE BEACH","SC","29577","33.6662199","-78.916924"
"Waffle House #1894","608 N MAYSVILLE ST","MT STERLING","KY","40353","38.064714","-83.944993"
"Waffle House #1895","1803 POINSETT HWY","GREENVILLE","SC","29609","34.8913298","-82.4066156"
"Waffle House #1896","96 OLD TROLLEY RD","SUMMERVILLE","SC","29485","32.9981759","-80.1824564"
"Waffle House #1893","4865 RIDGE RD","DOUGLASVILLE","GA","30134","33.818867","-84.809529"
"Waffle House #1898","101 MARS HILL CHURCH RD","DALLAS","GA","30157","33.907361","-84.82468"
"Waffle House #1897","2203 US HWY 41 NORTH","TIFTON","GA","31794","31.441857","-83.505652"
"Waffle House #1900","2914 MEMORIAL DR","ATLANTA","GA","30317","33.746981","-84.29174"
"Waffle House #1891","102 ELMSLEY MEADOW LANE","GREENSBORO","NC","27406","36.004179","-79.794534"
"Waffle House #1902","10384 AIRLINE HWY","ST ROSE","LA","70087","29.9724199","-90.3051253"
"Waffle House #1903","5532 ATLANTA HWY","MONTGOMERY","AL","36117","32.3818757","-86.2073893"
"Waffle House #1905","4881 ATLANTA HWY","ATHENS","GA","30606","33.9412155","-83.4993419"
"Waffle House #1904","1804 MCCORMICK DR","TIFTON","GA","31793","31.4480092","-83.5367957"
"Waffle House #1906","8505 DORCHESTER RD","NORTH CHARLESTON","SC","29420","32.9183666","-80.1149824"
"Waffle House #1908","636 BESSEMER SUPER HWY","FAIRFIELD","AL","35064","33.4646927","-86.9109526"
"Waffle House #1901","991 DURHAM RD","WAKE FOREST","NC","27587","35.9764119","-78.5465112"
"Waffle House #1910","4100 PEMBERTON SQ BLVD","VICKSBURG","MS","39180","32.3125547","-90.8828904"
"Waffle House #1909","2723 HWY 412 E","SILOAM SPRINGS","AR","72761","36.180946","-94.517935"
"Waffle House #1911","4601 OLD GENTILLY RD","NEW ORLEANS","LA","70126","30.004183","-90.035665"
"Waffle House #1913","315 WOLVERINE TRL","SMYRNA","TN","37167","35.9831156","-86.5547882"
"Waffle House #1915","4115 BUFORD DR","BUFORD","GA","30518","34.0925548","-84.0004478"
"Waffle House #1914","6184 HWY 21 S","RINCON","GA","31326","32.250554","-81.212586"
"Waffle House #1917","1210 BLUFF RD","COLUMBIA","SC","29201","33.9704816","-81.0176224"
"Waffle House #1916","3006 NORTHSIDE PKWY","CANTON","GA","30115","34.2378353","-84.4620694"
"Waffle House #1912","1851 GOVERNMENT ST","MOBILE","AL","36606","30.6772008","-88.0832503"
"Waffle House #1919","601 EAST NEW BERN RD","KINSTON","NC","28504","35.2389687","-77.5763017"
"Waffle House #1918","730 NORTH MAIN ST","SHELBYVILLE","TN","37160","35.4911584","-86.4589367"
"Waffle House #1907","173 HWY 411 EAST","ROME","GA","30161","34.222915","-85.151551"
"Waffle House #1921","2060 WEST HWY 98","MARY ESTHER","FL","32569","30.411787","-86.743675"
"Waffle House #1920","3411 WALKERTOWN LANDING DR","WALKERTOWN","NC","27051","36.1669347","-80.134401"
"Waffle House #1922","11201 IRONBRIDGE RD","CHESTER","VA","23831","37.361518","-77.49808"
"Waffle House #1923","8075 VAUGHN RD","MONTGOMERY","AL","36116","32.3388144","-86.174033"
"Waffle House #1926","1686 OLD YORK ROAD","YORK","SC","29745","34.985154","-81.2033928"
"Waffle House #1925","2054 HIGHWAY 40 E","KINGSLAND","GA","31548","30.779349","-81.623375"
"Waffle House #1928","1310 HWY 35 S","FOREST","MS","39074","32.344277","-89.482592"
"Waffle House #1929","2217 THOMAS DRIVE","PANAMA CITY","FL","32408","30.1600025","-85.777451"
"Waffle House #1931","2100 MEMORIAL DRIVE","SPRINGFIELD","TN","37172","36.493895","-86.877355"
"Waffle House #1934","1326 VETERANS PKWY","COLUMBUS","GA","31901","32.4710401","-84.9874613"
"Waffle House #1930","43 VENTURE DRIVE","ROCKY MOUNT","NC","27804","35.990635","-77.84235"
"Waffle House #1936","140 WEST CLAYTON ST","ATHENS","GA","30601","33.9582501","-83.3776627"
"Waffle House #1932","5480 RIVERDALE RD","COLLEGE PARK","GA","30349","33.6145978","-84.4382568"
"Waffle House #1937","1307B UNIVERSITY BLVD","TUSCALOOSA","AL","35401","33.2108887","-87.5549828"
"Waffle House #1933","7205 CHAPMAN HIGHWAY","KNOXVILLE","TN","37920","35.9096861","-83.8514751"
"Waffle House #1935","559 BEHRMAN HIGHWAY","TERRYTOWN","LA","70056","29.9032176","-90.0180933"
"Waffle House #1927","1315 HWY 45 S","WEST POINT","MS","39773","33.590461","-88.659064"
"Waffle House #1939","1801 4TH AVE S","BIRMINGHAM","AL","35233","33.507705","-86.804708"
"Waffle House #1938","4800 PORTSMOUTH BLVD","CHESAPEAKE","VA","23321","36.8230518","-76.4149018"
"Waffle House #1944","8711 HWY 69 S","TUSCALOOSA","AL","35405","33.131489","-87.547445"
"Waffle House #1940","551 PAMPLICO HIGHWAY","FLORENCE","SC","29505","34.1628781","-79.7580714"
"Waffle House #1946","1712 NORTH HIGH ST","COLUMBUS","OH","43201","39.9974232","-83.0074416"
"Waffle House #1942","115 WESTCHESTER DR","HIGH POINT","NC","27262","35.9826356","-80.0237646"
"Waffle House #1945","236 E MAIN STREET","APOPKA","FL","32703","28.672847","-81.5065796"
"Waffle House #1943","2020 FLAT SHOALS RD SE","CONYERS","GA","30013","33.639225","-84.00347"
"Waffle House #1924","313 BERT KOUNS","SHREVEPORT","LA","71106","32.3978541","-93.7591268"
"Waffle House #1949","5060 HIGHWAY 70","MOREHEAD CITY","NC","28557","34.736742","-76.800674"
"Waffle House #1951","1010 HWY 28 BYPASS","ANDERSON","SC","29624","34.5577003","-82.6910967"
"Waffle House #1950","1520 SOUTH MAIN ST","DARLINGTON","SC","29532","34.280085","-79.8563934"
"Waffle House #1941","8624 DALLAS ACWORTH HIGHWAY","DALLAS","GA","30132","33.946001","-84.809866"
"Waffle House #1947","17609 FM 529","HOUSTON","TX","77095","29.8750524","-95.7905309"
"Waffle House #1952","606 COULTER DRIVE","NEW ALBANY","MS","38652","34.4967986","-89.0297308"
"Waffle House #1953","22913 PANAMA CITY BEACH PKWY","PANAMA CITY BEACH","FL","32413","30.2638556","-85.9727681"
"Waffle House #1957","5013 Charlotte Hwy","CLOVER","SC","29710","35.117213","-81.078558"
"Waffle House #1956","1635 HUGHES ROAD","MADISON","AL","35758","34.7515727","-86.7408951"
"Waffle House #1959","610 N MAIN STREET","BLACKSBURG","VA","24060","37.2340487","-80.4187357"
"Waffle House #1958","916 HARDEN STREET","COLUMBIA","SC","29205","34.0023425","-81.0173389"
"Waffle House #1954","9221 E US HWY 36","AVON","IN","46123","39.763724","-86.350599"
"Waffle House #1961","2208 CENTER POINT PKWY","CENTER POINT","AL","35215","33.6430232","-86.6841452"
"Waffle House #1964","675 WILSON ST","WETUMPKA","AL","36092","32.5280934","-86.2055842"
"Waffle House #1955","2290 ASHEVILLE HWY","BREVARD","NC","28712","35.2716393","-82.7062143"
"Waffle House #1966","10265 GA HIGHWAY 142","COVINGTON","GA","30014","33.597596","-83.827447"
"Waffle House #1968","9464 HWY 5","DOUGLASVILLE","GA","30135","33.682691","-84.802977"
"Waffle House #1967","10380 SPRINGFIELD PIKE","CINCINNATI","OH","45215","39.25706","-84.469802"
"Waffle House #1969","78 WIND RIVER RD","ATMORE","AL","36502","30.34113","-87.704354"
"Waffle House #1962","10401 ATLANTIC BLVD","JACKSONVILLE","FL","32225","30.323859","-81.529977"
"Waffle House #1963","90 OAK TREE BLVD","CHRISTIANSBURG","VA","24073","37.148865","-80.415684"
"Waffle House #1970","931 9TH AVE NORTH","BESSEMER","AL","35020","33.3962066","-86.9695557"
"Waffle House #1971","103 TALBOT DRIVE","HEPHZIBAH","GA","30815","33.32229","-82.058032"
"Waffle House #1973","7300 INNERPLAN DR","NORTH LITTLE ROCK","AR","72113","34.82235","-92.377012"
"Waffle House #1972","100 GETTY LANE","WINCHESTER","VA","22603","39.186871","-78.1308"
"Waffle House #1975","116 HIGH TIDE DR","BEAUFORT","SC","29906","32.3804688","-80.7288926"
"Waffle House #1976","220 BLOWING ROCK RD","LENOIR","NC","28645","35.91648","-81.524494"
"Waffle House #1977","455 S PLEASANTBURG DRIVE","GREENVILLE","SC","29607","34.8320737","-82.3688125"
"Waffle House #1538","476 OHIO PIKE","CINCINNATI","OH","45255","39.0830363","-84.3744243"
"Waffle House #1960","710 HWY 19 N","MERIDIAN","MS","39307","32.362446","-88.728743"
"Waffle House #1984","3509 RETAIL DRIVE","PHENIX CITY","AL","36867","32.495317","-85.024588"
"Waffle House #1979","1074 EAST EADS PKWY","GREENDALE","IN","47025","39.120879","-84.842963"
"Waffle House #1981","30935 MILL LANE","DAPHNE","AL","36526","30.6752791","-87.8525457"
"Waffle House #1980","963 BROADWAY DRIVE","HATTIESBURG","MS","39401","31.310943","-89.312626"
"Waffle House #1983","3054 RICHLANDS HIGHWAY","JACKSONVILLE","NC","28540","34.7561229","-77.4734884"
"Waffle House #1987","706 WEST 7TH STREET","TIFTON","GA","31794","31.4506781","-83.5244852"
"Waffle House #1996","135 ANDREW YOUNG INT'L BLVD","ATLANTA","GA","30303","33.721225","-84.334938"
"Waffle House #1990","10002 ABERCORN ST","SAVANNAH","GA","31406","31.9914991","-81.130198"
"Waffle House #1982","18744 US HIGHWAY 441","MOUNT DORA","FL","32757","28.823869","-81.646197"
"Waffle House #1974","1245 US HIGHWAY 321 NW","HICKORY","NC","28601","35.749452","-81.368397"
"Waffle House #1992","5751 E VIRGINIA BEACH BLVD","NORFOLK","VA","23502","36.8553154","-76.2074644"
"Waffle House #1997","1207 BAYTREE RD","VALDOSTA","GA","31602","30.8467323","-83.3064158"
"Waffle House #2002","7305 BROADWAY ST","PEARLAND","TX","77581","29.5474134","-95.2320113"
"Waffle House #2004","1585 SIMPSON HIGHWAY 49","MAGEE","MS","39111","31.888835","-89.77212"
"Waffle House #1965","722 SOUTH GLOSTER ROAD","TUPELO","MS","38801","34.245258","-88.717272"
"Waffle House #2003","3300 WEST PARK PLACE","PENSACOLA","FL","32505","30.445355","-87.2328639"
"Waffle House #1995","772 DACULA RD","DACULA","GA","30019","34.0016018","-83.9111157"
"Waffle House #1991","5018 CAMBRIDGE WAY","PLAINFIELD","IN","46168","39.6791865","-86.3698699"
"Waffle House #2001","2103 S. TARBORO ST.","WILSON","NC","27893","35.719563","-77.950383"
"Waffle House #2007","301 MADISON AVENUE","MONTGOMERY","AL","36104","32.379993","-86.304951"
"Waffle House #1998","5310 CAMPBELLTON","FAIRBURN","GA","30213","33.5840307","-84.5820473"
"Waffle House #2010","1706 NORTH 18TH ST","MONROE","LA","71201","32.5260309","-92.1143831"
"Waffle House #2006","7894 103rd STREET","JACKSONVILLE","FL","32210","30.2481091","-81.7780795"
"Waffle House #2005","1607 T.W. ALEXANDER DRIVE","DURHAM","NC","27703","35.9241958","-78.8452572"
"Waffle House #2011","1010 VINEHAVEN DR,NE","CONCORD","NC","28025","35.4609236","-80.5858262"
"Waffle House #2009","496 SOUTH HERLONG DR","ROCK HILL","SC","29732","34.953844","-81.059455"
"Waffle House #1993","6576 HWY 11 EAST","PINEY FLATS","TN","37686","36.4246273","-82.3189564"
"Waffle House #1988","1528 HIGHWAY 544","CONWAY","SC","29526","33.772414","-79.020755"
"Waffle House #2014","206 STATE ROAD 436","CASSELBERRY","FL","32707","28.636144","-81.3208345"
"Waffle House #2012","4021 NOLENSVILLE PIKE","NASHVILLE","TN","37211","36.08368","-86.7279535"
"Waffle House #2013","4152 BEMISS ROAD","VALDOSTA","GA","31605","30.9080545","-83.2639099"
"Waffle House #2022","2118 W. GAUSE BLVD","SLIDELL","LA","70460","30.302293","-89.823475"
"Waffle House #2020","8303 NORTH HIGH ST","COLUMBUS","OH","43235","40.1343996","-83.0175418"
"Waffle House #2018","256 WINFIELD DUNN","SEVIERVILLE","TN","37876","35.8731891","-83.5689114"
"Waffle House #2021","103 LOGAN COURT","ALBANY","GA","31707","31.5839169","-84.2172711"
"Waffle House #2023","3277 GOODMAN ROAD","SOUTHAVEN","MS","38672","34.9623077","-89.9270997"
"Waffle House #2025","5130 NW 13TH ST","GAINESVILLE","FL","32609","29.7015541","-82.3419727"
"Waffle House #2026","3610 MADISON PIKE","FORT WRIGHT","KY","41017","39.0265769","-84.5346167"
"Waffle House #2019","10 BRAEBURN DR","ANDERSON","SC","29621","34.5317308","-82.6345676"
"Waffle House #2017","471 INDEPENDENCE BLVD","HARDEEVILLE","SC","29927","32.302718","-81.035292"
"Waffle House #2032","9520 US HIGHWAY 441","LEESBURG","FL","34788","28.826313","-81.7992429"
"Waffle House #2015","1055 GEORGIA HWY 96","WARNER ROBINS","GA","31088","32.599188","-83.620874"
"Waffle House #2027","1150 S MERIDIAN AVE","OKLAHOMA CITY","OK","73108","35.4545683","-97.6009998"
"Waffle House #1994","1498 WEST ELK AVE","ELIZABETHTON","TN","37643","36.3458118","-82.2454597"
"Waffle House #2024","4301 OLD LANE","CHESTER","VA","23831","37.3847668","-77.4530554"
"Waffle House #2033","501 EAST INNES ST.","SALISBURY","NC","28144","35.663625","-80.465692"
"Waffle House #2028","1690 E HWY 501","CONWAY","SC","29526","33.847201","-79.065643"
"Waffle House #2031","881 BLOWING ROCK RD","BOONE","NC","28607","36.2069018","-81.6709057"
"Waffle House #2036","1330 GRAY HIGHWAY","MACON","GA","31211","32.8603662","-83.6145727"
"Waffle House #2035","2106 WALL STREET","SPRING HILL","TN","37174","35.767621","-86.917529"
"Waffle House #2037","1736 NORTH STATE ST.","GREENFIELD","IN","46140","39.8079553","-85.7699281"
"Waffle House #2044","7652 MERRILL RD","JACKSONVILLE","FL","32277","30.352069","-81.5697918"
"Waffle House #2040","11140 PANAMA CITY BEACH PKWY","PANAMA CITY BEACH","FL","32407","30.1940973","-85.8058729"
"Waffle House #2038","4301 VICTORY DRIVE","COLUMBUS","GA","31903","32.406239","-84.936891"
"Waffle House #2030","2916 BUFORD DR","BUFORD","GA","30519","34.0773245","-83.9838619"
"Waffle House #2039","3101 DAVID DRIVE","METAIRIE","LA","70003","30.0038872","-90.2200146"
"Waffle House #2034","519 N DUNCAN BY-PASS","UNION","SC","29379","34.7261","-81.638902"
"Waffle House #2041","1634 RED BANK ROAD","GOOSE CREEK","SC","29445","32.9680145","-80.0008366"
"Waffle House #2000","1194 COLUMBIA DRIVE","DECATUR","GA","30032","33.7609918","-84.2771997"
"Waffle House #2047","608 HIGHWAY 17 NORTH","SURFSIDE BEACH","SC","29575","33.616476","-78.97739"
"Waffle House #2048","11951 I-10 SERVICE ROAD","NEW ORLEANS","LA","70128","30.046241","-89.9625958"
"Waffle House #2043","2125 ARROWOOD ROAD","CHARLOTTE","NC","28217","35.145398","-80.923299"
"Waffle House #2050","6445 ROSWELL RD","SANDY SPRINGS","GA","30328","33.930857","-84.379238"
"Waffle House #2055","4510 ALTAMA AVENUE","BRUNSWICK","GA","31520","31.1834702","-81.4884905"
"Waffle House #2042","7423 SPENCER HWY","PASADENA","TX","77505","29.6637993","-95.1243477"
"Waffle House #2046","1122 MAPLE STREET","CARROLLTON","GA","30117","33.5720873","-85.0915775"
"Waffle House #2066","3810 25TH AVENUE","GULFPORT","MS","39501","30.3957919","-89.092897"
"Waffle House #2059","2480 EAST HWY 50","CLERMONT","FL","34711","28.5472776","-81.7091742"
"Waffle House #2057","946 CAROLINA AVENUE","WASHINGTON","NC","27889","35.5551456","-77.0593533"
"Waffle House #2062","11500 MEMORIAL PKWY SW","HUNTSVILLE","AL","35803","34.62818","-86.5676367"
"Waffle House #2060","158 LAUREL LAKE DRIVE","NORTH AUGUSTA","SC","29860","33.5704683","-81.920957"
"Waffle House #2070","1450 VETERANS MEMORIAL HWY SE","MABLETON","GA","30126","33.8132673","-84.5424918"
"Waffle House #2074","4740 FLAT SHOALS PARKWAY","DECATUR","GA","30034","33.683224","-84.23355"
"Waffle House #2045","3129 HWY 80 E","PEARL","MS","39208","32.28045","-90.131863"
"Waffle House #2061","1930 E PRESIDENT ST","SAVANNAH","GA","31404","32.0699134","-81.0568293"
"Waffle House #2064","65 LOWES DRIVE","PITTSBORO","NC","27312","35.746041","-79.166668"
"Waffle House #2049","3603 HIGHWAY 280/431 NORTH","PHENIX CITY","AL","36867","32.502737","-85.04964"
"Waffle House #2067","490 VETERANS PKWY, NORTH","MOULTRIE","GA","31788","31.1873627","-83.7619329"
"Waffle House #2071","2625 LEBANON PIKE","NASHVILLE","TN","37214","36.1699454","-86.675501"
"Waffle House #2063","704 BLANDING BLVD","ORANGE PARK","FL","32065","30.148356","-81.756449"
"Waffle House #2058","6608 US HIGHWAY 19","NEW PORT RICHEY","FL","34652","28.256158","-82.7279732"
"Waffle House #2068","7733 COX ROAD","WEST CHESTER","OH","45069","39.3504377","-84.3651184"
"Waffle House #2069","100 FANNIE LANE","LONOKE","AR","72086","34.8068225","-91.8900293"
"Waffle House #2052","2320 DIXIE FOREST ROAD","RALEIGH","NC","27615","35.863211","-78.6006566"
"Waffle House #2065","260 WEST BELMONT DR.","CALHOUN","GA","30701","34.4795558","-84.9378512"
"Waffle House #2054","601 MCLAWHORNE DR.","NEWPORT NEWS","VA","23605","37.044418","-76.45931"
"Waffle House #2075","1510 US HIGHWAY 1, SOUTH","SOUTHERN PINES","NC","28387","35.162302","-79.410165"
"Waffle House #2072","2631 GENERAL DEGAULLE DR","NEW ORLEANS","LA","70114","29.929863","-90.031937"
"Waffle House #2053","720 CAGAN VIEW ROAD","CLERMONT","FL","34714","28.126834","-81.448349"
"Waffle House #2078","1930 GREENVILLE BLVD SE","GREENVILLE","NC","27858","35.5950789","-77.3388453"
"Waffle House #2079","5028 NEW JESUP HIGHWAY","BRUNSWICK","GA","31520","31.217905","-81.5194294"
"Waffle House #2029","3745 HIGHWAY 53","HUNTSVILLE","AL","35806","34.792675","-86.668511"
"Waffle House #2082","6907 DORCHESTER RD","NORTH CHARLESTON","SC","29418","32.889685","-80.0695829"
"Waffle House #2081","711 FRONTAGE ROAD. E","MYRTLE BEACH","SC","29577","33.7082597","-78.9111718"
"Waffle House #2086","1720 COTTON GROVE ROAD","LEXINGTON","NC","27292","35.7756699","-80.2594071"
"Waffle House #2076","808 FM 646 RD W","DICKINSON","TX","77539","29.4420688","-95.0924777"
"Waffle House #2084","1701 MARTENS DR","HAMMOND","LA","70401","30.5166535","-90.4791173"
"Waffle House #2085","817 CONOVER BLVD. WEST","CONOVER","NC","28613","35.6974558","-81.221855"
"Waffle House #2089","15 TYNER RD","PETAL","MS","39465","31.3524432","-89.2368151"
"Waffle House #2077","19886 W. LITTLE YORK ROAD","KATY","TX","77449","29.8618522","-95.7194101"
"Waffle House #2093","101 SRP DRIVE","EVANS","GA","30809","33.523019","-82.1415573"
"Waffle House #2096","4797 CANTON ROAD","MARIETTA","GA","30066","34.0679175","-84.5218216"
"Waffle House #2090","4517 CAMP ROBINSON ROAD","NORTH LITTLE ROCK","AR","72118","34.7958827","-92.2709863"
"Waffle House #2087","5176 CALDWELL MILL RD","HOOVER","AL","35244","33.3863953","-86.7393402"
"Waffle House #2091","6500 THIRLANE RD","ROANOKE","VA","24019","37.326082","-79.991376"
"Waffle House #2092","9184 COLERAIN AVENUE","COLERAIN TOWNSHIP","OH","45251","39.2384397","-84.5928611"
"Waffle House #2095","2233 EAST PASS ROAD","GULFPORT","MS","39507","30.4006046","-89.0058455"
"Waffle House #2088","22 NW 34TH AVE","OCALA","FL","34475","29.1866843","-82.1786865"
"Waffle House #2094","7497 MIDLOTHIAN TPKE","N. CHESTERFIELD","VA","23225","37.520572","-77.469054"
"Waffle House #2099","1825 BARNETT SHOALS ROAD","ATHENS","GA","30605","33.9263624","-83.3400901"
"Waffle House #2073","4141 S EMERSON AVE","INDIANAPOLIS","IN","46203","39.706373","-86.082361"
"Waffle House #2097","9001 AIRLINE DRIVE","METAIRIE","LA","70003","29.979681","-90.2353118"
"Waffle House #2102","2015 BELTLINE RD SW","DECATUR","AL","35601","34.5720114","-87.0148501"
"Waffle House #2105","1100 S. CANNON BLVD.","KANNAPOLIS","NC","28083","35.479918","-80.611923"
"Waffle House #2056","2207 HWY 11 NORTH","PICAYUNE","MS","39466","30.543041","-89.670356"
"Waffle House #2080","5538 PLATT SPRINGS ROAD","LEXINGTON","SC","29073","33.9081711","-81.2265108"
"Waffle House #2098","442 ELMA G. MILES PKWY","HINESVILLE","GA","31313","31.8393964","-81.6032896"
"Waffle House #2083","11844 LEM TURNER RD","JACKSONVILLE","FL","32218","30.4483173","-81.703664"
"Waffle House #2107","241 EAST MAIN STREET","HENDERSONVILLE","TN","37075","36.3104448","-86.5997024"
"Waffle House #2100","2025 BOLTON ROAD NW","ATLANTA","GA","30318","33.776107","-84.502602"
"Waffle House #2114","1289 YADKINVILLE RD","MOCKSVILLE","NC","27028","35.915604","-80.5826985"
"Waffle House #2103","4351 HAMILTON MIDDLETOWN","LIBERTY TOWNSHIP","OH","45011","39.494695","-84.569179"
"Waffle House #2110","7949 VILLA RICA HIGHWAY","DALLAS","GA","30157","33.9050026","-84.8266859"
"Waffle House #2101","621 DENBGH BLVD","NEWPORT NEWS","VA","23608","37.137315","-76.522552"
"Waffle House #2112","1510 EAST 10TH","JEFFERSONVILLE","IN","47130","38.2937545","-85.7269293"
"Waffle House #2106","4200 SOUTH UNIVERSITY AVE","LITTLE ROCK","AR","72204","34.7149622","-92.3425006"
"Waffle House #2104","7180 NORMANDY BLVD","JACKSONVILLE","FL","32205","30.3000308","-81.7653095"
"Waffle House #2111","5195 JONESBORO RD","LAKE CITY","GA","30260","33.6146123","-84.349295"
"Waffle House #2117","289 CHARTER OAK ROAD","LEXINGTON","SC","29072","33.9911257","-81.305546"
"Waffle House #2115","1815 S. SEMORAN BLVD","ORLANDO","FL","32822","28.4591526","-81.3101536"
"Waffle House #2116","408 PRATT AVE NW","HUNTSVILLE","AL","35801","34.7394356","-86.5896754"
"Waffle House #2119","2443 MANHATTAN BLVD","HARVEY","LA","70058","29.8773001","-90.0489439"
"Waffle House #2120","2555 LIMESTONE PKWY.","GAINESVILLE","GA","30501","34.3318278","-83.8087366"
"Waffle House #2108","103 STEKOIA LANE","KNOXVILLE","TN","37912","36.0051169","-84.0187373"
"Waffle House #2126","5245 STONE MOUNTAIN HWY","STONE MOUNTAIN","GA","30087","33.8238039","-84.1116378"
"Waffle House #2122","3018 ST. JOSEPH RD.","NEW ALBANY","IN","47150","38.34164","-85.802838"
"Waffle House #2109","15747 WALLISVILLE ROAD","HOUSTON","TX","77049","29.8063087","-95.1786297"
"Waffle House #2113","3949 PARKWAY","PIGEON FORGE","TN","37863","35.7782865","-83.5462987"
"Waffle House #2124","20110 TIMBERLAKE RD","LYNCHBURG","VA","24502","37.3463678","-79.232806"
"Waffle House #2123","1610 EAST COUNTY LINE ROAD","RIDGELAND","MS","39157","32.3997327","-90.1446441"
"Waffle House #2129","3103 CLARKSVILLE PIKE","NASHVILLE","TN","37218","36.1929371","-86.8302166"
"Waffle House #2121","644 VETERANS PKWY","BARNESVILLE","GA","30204","33.0603241","-84.1684113"
"Waffle House #2134","7119 HULL ST RD","NORTH CHESTERFIELD","VA","23235","37.409787","-77.651984"
"Waffle House #2136","5021 HIGHWAY 493","MERIDIAN","MS","39305","32.411391","-88.699907"
"Waffle House #2128","1635 CRESWELL LN EXT","OPELOUSAS","LA","70570","30.518963","-92.071306"
"Waffle House #2127","1448 MOUNT PLEASANT RD","CHESAPEAKE","VA","23322","36.7148754","-76.1874679"
"Waffle House #2138","2448 CAROLINA BEACH RD","WILMINGTON","NC","28401","34.1935404","-77.9356345"
"Waffle House #2130","885 WEST CENTRAL AVE.","SPRINGBORO","OH","45066","39.5627703","-84.2623499"
"Waffle House #2125","5681 MCFARLAND BLVD","NORTHPORT","AL","35476","33.235675","-87.6116453"
"Waffle House #2131","938 ALLISON BONNETT MEMORIAL DR","HUEYTOWN","AL","35023","33.4562454","-86.9660087"
"Waffle House #2140","2147 PINHOOK ROAD","LAFAYETTE","LA","70508","30.1849771","-92.0098228"
"Waffle House #2137","2523 WEST KINGS HIGHWAY","PARAGOULD","AR","72450","36.0593393","-90.515837"
"Waffle House #2135","599 ATLANTA ROAD","CUMMING","GA","30040","34.1897785","-84.1364063"
"Waffle House #2133","13975 BEACH BLVD","JACKSONVILLE","FL","32224","30.288192","-81.4499002"
"Waffle House #2139","96 RIVER VIEW DRIVE","FLOWOOD","MS","39232","32.278418","-90.146834"
"Waffle House #2143","5937 HOPKINS RD","NORTH CHESTERFIELD","VA","23234","37.437659","-77.47299"
"Waffle House #2132","11403 ULMERTON ROAD","LARGO","FL","33778","27.8947262","-82.7975733"
"Waffle House #2142","121 WEST OGLETHORPE BLVD","ALBANY","GA","31701","31.5755026","-84.1496002"
"Waffle House #2146","112 COURTLAND STREET","ATLANTA","GA","30303","33.7573495","-84.3845888"
"Waffle House #2156","2720 SANDY PLAINS RD","MARIETTA","GA","30066","34.0166149","-84.4919755"
"Waffle House #2154","3009 SOUTH RUTHERFORD BLVD.","MURFREESBORO","TN","37130","35.8353856","-86.3509414"
"Waffle House #2148","537 EAST BROADWAY BLVD","JEFFERSON CITY","TN","37760","36.1251386","-83.4707494"
"Waffle House #2149","1410 SOUTH COLLEGE AVE","WILMINGTON","NC","28403","34.212032","-77.88659"
"Waffle House #2157","7025 DUNBARTON DRIVE","HORN LAKE","MS","38637","34.9632791","-90.054497"
"Waffle House #2159","7670 STARKEY RD","SEMINOLE","FL","33777","27.8417911","-82.7627618"
"Waffle House #2150","8514 BAYMEADOWS ROAD","JACKSONVILLE","FL","32256","30.2203709","-81.5814683"
"Waffle House #2161","848 LOGANVILLE HWY","BETHLEHEM","GA","30620","33.945168","-83.755451"
"Waffle House #2160","6542 HWY 42","REX","GA","30273","33.578105","-84.275898"
"Waffle House #2152","904 ORANGEBURG RD","KNIGHTSVILLE","SC","29483","33.0142589","-80.2385922"
"Waffle House #2158","4459 WEST HILLSBOROUGH AVE","TAMPA","FL","33614","27.9959733","-82.4968335"
"Waffle House #2144","8111 EAST R.L THORNTON E","DALLAS","TX","75228","32.793778","-96.707298"
"Waffle House #2155","11520 SPRINGFIELD PIKE","SPRINGDALE","OH","45246","39.2848742","-84.485262"
"Waffle House #2147","14201 MUESCHKE ROAD","CYPRESS","TX","77433","29.9811302","-95.7179697"
"Waffle House #2141","940 WAYNE AVENUE","BRIDGE CITY","LA","70094","29.9053028","-90.155878"
"Waffle House #2162","2600 NORTH ROAN ST","JOHNSON CITY","TN","37601","36.350792","-82.380199"
"Waffle House #2151","5397 WESLEYAN DRIVE","VIRGINIA BEACH","VA","23455","36.86989","-76.157532"
"Waffle House #2176","4554 HWY 1","RACELAND","LA","70394","29.705082","-90.5673889"
"Waffle House #2165","4120 LEBANON PIKE","HERMITAGE","TN","37076","36.2006107","-86.618479"
"Waffle House #2153","4203 APEX HIGHWAY","DURHAM","NC","27713","35.9131955","-78.8916724"
"Waffle House #2163","2395 POCAHONTAS TRAIL","QUINTON","VA","23141","37.5085893","-77.1900788"
"Waffle House #2145","515 NORTH MCDONOUGH STREET","DECATUR","GA","30030","33.773784","-84.2964039"
"Waffle House #2118","6011 ASHEVILLE HIGHWAY","HENDERSONVILLE","NC","28791","35.32448","-82.464359"
"Waffle House #2171","102 PEARCES RD","ZEBULON","NC","27597","35.8393487","-78.3240142"
"Waffle House #2164","2010 WEST FRANKLIN ST","GASTONIA","NC","28052","35.25937","-81.218444"
"Waffle House #2167","477 WEST 3RD ST","JACKSON","GA","30233","33.2942048","-83.9711257"
"Waffle House #2172","1916 BEL AIR RD","FALLSTON","MD","21047","39.498299","-76.387945"
"Waffle House #2168","1176 ROSWELL RD","MARIETTA","GA","30062","33.9505147","-84.5175708"
"Waffle House #2178","5111 ROSS AVENUE","DALLAS","TX","75206","32.8080691","-96.7741622"
"Waffle House #2170","584 E BEASLEY RD","JACKSON","MS","39206","32.385442","-90.174194"
"Waffle House #2173","43145 S. AIRPORT RD.","HAMMOND","LA","70403","30.5031766","-90.4151938"
"Waffle House #2181","316 VALLEY AVE","BIRMINGHAM","AL","35209","33.4712854","-86.8238556"
"Waffle House #2185","2250 PEACHTREE INDUSTRIAL BLVD","DULUTH","GA","30097","34.0230083","-84.1163055"
"Waffle House #2179","1507 E BROADWAY ST","PEARLAND","TX","77581","29.5461148","-95.2290006"
"Waffle House #2174","3810 CLEVELAND AVE","FORT MYERS","FL","33901","26.6073677","-81.872096"
"Waffle House #2177","9406 S ORANGE BLOSSOM TRAIL","ORLANDO","FL","32837","28.5072464","-81.3968646"
"Waffle House #2180","1733 NORTH CHURCH STREET","BURLINGTON","NC","27217","36.0958557","-79.4090023"
"Waffle House #2183","1521 LYNNHAVEN PARKWAY","VIRGINIA BEACH","VA","23453","36.7946154","-76.1034044"
"Waffle House #2189","1901 HAMILTON RD","LAGRANGE","GA","30241","33.0029695","-85.0152557"
"Waffle House #2190","4940 DELHI PIKE","CINCINNATI","OH","45238","39.095417","-84.606692"
"Waffle House #2169","790 BELL RD","ANTIOCH","TN","37013","36.050573","-86.647148"
"Waffle House #2195","1139 YORK ST","AIKEN","SC","29801","33.5776278","-81.7028944"
"Waffle House #2186","14005 HIGHWAY 43","RUSSELLVILLE","AL","35653","34.483771","-87.736868"
"Waffle House #2175","1935 BRASELTON HIGHWAY","BUFORD","GA","30519","34.035898","-83.953798"
"Waffle House #2188","3919 ELECTRIC ROAD","ROANOKE","VA","24018","37.2236682","-79.9863158"
"Waffle House #2196","2500 CANAL ST","NEW ORLEANS","LA","70119","29.9702436","-90.0940743"
"Waffle House #2182","2816 CHAMBLEE TUCKER RD","ATLANTA","GA","30341","33.880274","-84.274661"
"Waffle House #2197","1208 WILSON RD","HUMBLE","TX","77338","29.9835677","-95.2502011"
"Waffle House #2194","3818 WEST ILLINOIS AVE","DALLAS","TX","75211","32.7202324","-96.8822317"
"Waffle House #2192","4642 DEL PRADO BLVD","CAPE CORAL","FL","33904","26.5651209","-81.9437131"
"Waffle House #2187","2118 US HWY 411, S","MARYVILLE","TN","37801","35.722348","-84.004456"
"Waffle House #2193","1908 N. MAIN ST","SUMMERVILLE","SC","29486","33.0282019","-80.1688933"
"Waffle House #2184","2560 SUGAR HILL ROAD","MARION","NC","28752","35.6524438","-82.0322649"
"Waffle House #2191","2400 CORTEZ RD","BRADENTON","FL","34207","27.4624179","-82.5690412"
"Waffle House #2205","1014 REGENT PKWY","FORT MILL","SC","29715","35.076942","-80.934723"
"Waffle House #2198","108 TRAVEL CENTER BLVD","DUBLIN","GA","31021","32.4875977","-82.9390206"
"Waffle House #2206","2439 WILLIAMS BLVD","KENNER","LA","70062","30.0004065","-90.2411608"
"Waffle House #2202","5990 LAWRENCEVILLE HWY","TUCKER","GA","30084","33.8500815","-84.2191147"
"Waffle House #2166","1099 NORTHSIDE DR NW","ATLANTA","GA","30318","33.7846834","-84.4070672"
"Waffle House #2204","246 DAVIS ROAD","AUGUSTA","GA","30907","33.5034908","-82.0829737"
"Waffle House #2211","4959 MEFFETT ROAD","MOBILE","AL","36618","30.7202","-88.156512"
"Waffle House #2209","860 GLENWOOD AVE","ATLANTA","GA","30316","33.7400222","-84.3597214"
"Waffle House #2200","2316 COBB PKWY SE","SMYRNA","GA","30080","33.895115","-84.480359"
"Waffle House #2212","429 EAST TAYLOR ST","GRIFFIN","GA","30223","33.2470728","-84.2569268"
"Waffle House #2203","1633A TAYLOR RD","PORT ORANGE","FL","32128","29.1035264","-81.0325403"
"Waffle House #2201","3202 E PARHAM RD","HENRICO","VA","23228","37.633147","-77.5076449"
"Waffle House #2207","1803 THORN ROAD","LAKE CHARLES","LA","70605","30.1872353","-93.250238"
"Waffle House #2208","950 EAST CARTWRIGHT AVE","MESQUITE","TX","75149","32.74548","-96.583282"
"Waffle House #2210","2100 N. ROXBORO STREET","DURHAM","NC","27704","36.017624","-78.8896019"
"Waffle House #2217","3616 AIRLINE DR","METAIRIE","LA","70001","29.9748641","-90.1623245"
"Waffle House #2215","1928 S CHURCH ST","MURFREESBORO","TN","37130","35.818051","-86.3957972"
"Waffle House #2222","2715 LEDO ROAD","ALBANY","GA","31707","31.6224552","-84.2055025"
"Waffle House #2220","3400 OLYMPIA DR","RALEIGH","NC","27603","35.7341134","-78.6516178"
"Waffle House #2199","2121 DEL PRADO BLVD","CAPE CORAL","FL","33990","26.613716","-81.940854"
"Waffle House #2213","9780 US HIGHWAY 64","LAKELAND","TN","38002","35.205191","-89.736381"
"Waffle House #2228","1205 HWY 45 N","COLUMBUS","MS","39705","33.525931","-88.436195"
"Waffle House #2221","1507 FAYETTEVILLE RD","VAN BUREN","AR","72956","35.4560446","-94.3567133"
"Waffle House #2232","300 AG VILLAGE BLVD","PERRY","GA","31069","32.4331708","-83.759522"
"Waffle House #2216","3009 WEST COLUMBUS DR","TAMPA","FL","33607","27.9667987","-82.4913759"
"Waffle House #2231","4630 WILLIAMSON RD","ROANOKE","VA","24012","37.3535014","-79.9354515"
"Waffle House #2224","300 MARIETTA STREET","ATLANTA","GA","30313","33.7615575","-84.3964558"
"Waffle House #2235","1780 J. A. COCHRAN BYPASS","CHESTER","SC","29706","34.7050621","-81.1903423"
"Waffle House #2230","11 SAM'S POINT ROAD","BEAUFORT","SC","29907","32.415296","-80.648418"
"Waffle House #2223","629 NEW FRANKLIN RD","LAGRANGE","GA","30240","33.0623141","-85.0286323"
"Waffle House #2239","1515 N BRINDLEE MOUNTAIN PARKWAY","ARAB","AL","35016","34.3274117","-86.5031572"
"Waffle House #2219","3740 NOVA RD","PORT ORANGE","FL","32129","29.1328829","-81.0087554"
"Waffle House #2218","4406 N ROXBORO ST","DURHAM","NC","27704","36.0548992","-78.9028259"
"Waffle House #2214","1535 INGLESIDE RD","NORFOLK","VA","23502","36.8638369","-76.2453286"
"Waffle House #2238","1931 MADISON ST","CLARKSVILLE","TN","37043","36.5142697","-87.302762"
"Waffle House #2245","203 CARL CANNON BLVD","JASPER","AL","35501","33.7908393","-87.2412271"
"Waffle House #2229","760 PINSON RD","FORNEY","TX","75126","32.7569767","-96.4657404"
"Waffle House #2233","1506 FARMERVILLE HWY","RUSTON","LA","71270","32.5374674","-92.6190971"
"Waffle House #2227","8950 MADISON BLVD","MADISON","AL","35758","34.6760075","-86.752907"
"Waffle House #2234","455 BETHESDA SCHOOL RD","LAWRENCEVILLE","GA","30044","33.924072","-84.084334"
"Waffle House #2243","7505 HWY 76","PENDLETON","SC","29670","34.6382","-82.787194"
"Waffle House #2244","175 SOUTH DOWLEN RD","BEAUMONT","TX","77707","30.069436","-94.171736"
"Waffle House #2236","317 S JEFFERSON ST","FREDERICK","MD","21701","39.4089575","-77.4265658"
"Waffle House #2240","150 ABLE DRIVE","DAYTON","TN","37321","35.4774257","-85.0267803"
"Waffle House #2247","14416 GREENWELL SPRINGS R","GREENWELL SPRINGS","LA","70739","30.513586","-91.028566"
"Waffle House #2237","612 LYNDON LANE","LOUISVILLE","KY","40222","38.244473","-85.60165"
"Waffle House #2241","637 ALTA MERE DR","FORT WORTH","TX","76114","32.752322","-97.431348"
"Waffle House #2252","3585 BRASELTON HWY","DACULA","GA","30019","34.06911","-83.906948"
"Waffle House #2225","6420 IRON BRIDGE RD","NORTH CHESTERFIELD","VA","23234","37.428533","-77.492858"
"Waffle House #2251","219 S THOMPSON ST","SPRINGDALE","AR","72764","36.1837014","-94.1380913"
"Waffle House #2257","1130 N FERDON BLVD","CRESTVIEW","FL","32536","30.765842","-86.568558"
"Waffle House #2242","2312 S. FLORIDA AVE","LAKELAND","FL","33803","28.0166372","-81.9569614"
"Waffle House #2261","2510 SUNSET POINT RD","CLEARWATER","FL","33765","27.9905528","-82.7328239"
"Waffle House #2255","5709 GLENWAY AVE","CINCINNATI","OH","45238","39.1353949","-84.6129083"
"Waffle House #2263","3707 S NEW HOPE RD","GASTONIA","NC","28056","35.226858","-81.110969"
"Waffle House #2268","889 18TH AVE S","MERIDIAN","MS","39301","32.356275","-88.68773"
"Waffle House #2266","2401 HELENA RD","HELENA","AL","35080","33.2825937","-86.8518733"
"Waffle House #2254","348 SW BAYA DR","LAKE CITY","FL","32025","30.1841508","-82.6410941"
"Waffle House #2248","304 RED BANK ROAD","GOOSE CREEK","SC","29445","32.9755076","-80.0255289"
"Waffle House #2265","2516 NIMMO PARKWAY","VIRGINIA BEACH","VA","23456","36.754628","-76.0667501"
"Waffle House #2246","1100 EAST PIONEER PKWY","GRAND PRAIRIE","TX","75051","32.709601","-96.994029"
"Waffle House #2269","2137 WARDS ROAD","LYNCHBURG","VA","24502","37.3719658","-79.1843267"
"Waffle House #2258","7125 WINCHESTER ROAD","MEMPHIS","TN","38125","35.048907","-89.8253545"
"Waffle House #2267","3571 MURFREESBORO PIKE","ANTIOCH","TN","37013","36.050535","-86.614729"
"Waffle House #2260","635 RANKIN ROAD","HOUSTON","TX","77073","29.9660506","-95.4039678"
"Waffle House #2270","2751 FLORIDA STREET","MANDEVILLE","LA","70448","30.3651084","-90.0647609"
"Waffle House #2276","52 WESTBANK EXPY","GRETNA","LA","70053","29.9154726","-90.0461475"
"Waffle House #2275","1718 S MISSOURI AVE","CLEARWATER","FL","33756","27.950003","-82.7876044"
"Waffle House #2262","1540 S CAMPUS DR","CREEDMOOR","NC","27522","36.433146","-78.16745"
"Waffle House #2274","3200 S ATLANTIC AVE","DAYTONA BCH SHORES","FL","32118","29.1601728","-80.9735522"
"Waffle House #2271","13861 CYPRESS N HOUSTON RD","CYPRESS","TX","77429","29.9407693","-95.708904"
"Waffle House #2281","1961 WEST MAIN ST","SALEM","VA","24153","37.2880969","-80.0922401"
"Waffle House #2277","15717 COVINGTON BYPASS RD","PORTERDALE","GA","30014","33.5645289","-83.9019618"
"Waffle House #2273","5020 HWY 78","SACHSE","TX","75048","32.97459","-96.598305"
"Waffle House #2272","1480 JONESBORO ROAD","MCDONOUGH","GA","30253","33.4473363","-84.1531706"
"Waffle House #2259","255 N FRONT ST","WILMINGTON","NC","28401","34.2382231","-77.9491708"
"Waffle House #2279","2535 JOHN HAWKINS PARKWAY","HOOVER","AL","35244","33.3541682","-86.8440441"
"Waffle House #2285","911 AIRLINE BLVD","PORTSMOUTH","VA","23707","36.8308136","-76.3424976"
"Waffle House #2280","85 PARKSTONE PLACE","JACKSON","TN","38305","35.6758883","-88.7799903"
"Waffle House #2287","5491 N RHETT AVE","NORTH CHARLESTON","SC","29406","32.8984299","-79.9856658"
"Waffle House #2284","6025 WATSON BLVD","BYRON","GA","31008","32.6140771","-83.714775"
"Waffle House #2278","832 LIBERTY HILL DR","EVERGREEN","AL","36401","31.4543022","-86.9619796"
"Waffle House #2290","1427 US HIGHWAY 98","DAPHNE","AL","36526","30.5983836","-87.8979673"
"Waffle House #2282","2107 LASCASSAS PIKE","MURFREESBORO","TN","37130","35.8775859","-86.3498902"
"Waffle House #2288","1405 UNIVERSITY DRIVE","BURLINGTON","NC","27215","36.0666827","-79.5174314"
"Waffle House #2293","14618 PLANK RD","BAKER","LA","70714","30.5795359","-91.1266379"
"Waffle House #2292","221 WEST ESPLANADE AVE","KENNER","LA","70065","30.0209574","-90.2545266"
"Waffle House #2226","19675 NW 2ND AVENUE","MIAMI GARDENS","FL","33169","25.9549489","-80.2051431"
"Waffle House #2256","11825 SAN JOSE BLVD","JACKSONVILLE","FL","32223","30.1573133","-81.6326072"
"Waffle House #2296","6000 S INDEPENDENCE AVE","OKLAHOMA CITY","OK","73159","35.4058589","-97.574034"
"Waffle House #2297","4625 HIGHWAY 411","MADISONVILLE","TN","37354","35.512392","-84.363158"
"Waffle House #2289","3855 CONCORD PKWY S","CONCORD","NC","28027","35.3680891","-80.6669652"
"Waffle House #2295","11879 HWY 231 431 N","MERIDIANVILLE","AL","35759","34.857919","-86.571471"
"Waffle House #2291","329 SEABREEZE BLVD","DAYTONA BEACH","FL","32118","29.2344244","-81.0162388"
"Waffle House #2308","5010 HWY 34 E","SHARPSBURG","GA","30277","33.396832","-84.619687"
"Waffle House #2306","117 GEORGE WASHINGTON HWY S","CHESAPEAKE","VA","23323","36.793302","-76.3286127"
"Waffle House #2302","195 EAGLES LANDING PKWY","STOCKBRIDGE","GA","30281","33.5183007","-84.1944202"
"Waffle House #2309","103 KEYES FERRY RD","CHARLES TOWN","WV","25414","39.2912035","-77.8249843"
"Waffle House #2303","45 CIVILIAN ST","FREDERICKSBURG","VA","22406","38.414357","-77.534708"
"Waffle House #2305","1627 WALTON WAY","AUGUSTA","GA","30904","33.47558","-81.992989"
"Waffle House #2299","1134 WINCHESTER RD","LEXINGTON","KY","40505","38.0422275","-84.4637645"
"Waffle House #2298","6320 WEST ROAD","HOUSTON","TX","77086","29.9112294","-95.4994245"
"Waffle House #2300","8604 ROSWELL RD","SANDY SPRINGS","GA","30350","33.989025","-84.351636"
"Waffle House #2307","2928 LONDON GROVEPORT RD","GROVE CITY","OH","43123","39.839841","-83.0834177"
"Waffle House #2283","3048 MALLORY LANE","FRANKLIN","TN","37067","35.9456106","-86.8184623"
"Waffle House #2317","15550 GEORGE O'NEAL RD","BATON ROUGE","LA","70817","30.407705","-91.011629"
"Waffle House #2294","12201 US HIGHWAY 19","HUDSON","FL","34667","28.3359952","-82.6994542"
"Waffle House #2311","3416 US HIGHWAY 601S","CONCORD","NC","28025","35.371146","-80.550128"
"Waffle House #2312","1530 NORTH BROADWAY AVE","BARTOW","FL","33830","27.909861","-81.843674"
"Waffle House #2319","1400 LEE RD","LITHIA SPRINGS","GA","30122","33.775418","-84.653183"
"Waffle House #2304","7440 HACKS CROSS RD","OLIVE BRANCH","MS","38654","34.9647765","-89.7951825"
"Waffle House #2315","4737 REDAN RD","STONE MOUNTAIN","GA","30088","33.761797","-84.196499"
"Waffle House #2310","30 EDDIE RUSHING DR","STATESBORO","GA","30458","32.385747","-81.708347"
"Waffle House #2324","3458 US ROUTE 60 E","BARBOURSVILLE","WV","25504","38.415114","-82.259702"
"Waffle House #2322","17678 FOREST RD","FOREST","VA","24551","37.3719694","-79.25186"
"Waffle House #2313","3885 GERSTNER MEMORIAL BLVD","LAKE CHARLES","LA","70607","30.158345","-93.146735"
"Waffle House #2286","8512 STEELE CREEK ROAD","CHARLOTTE","NC","28273","35.13202","-80.978971"
"Waffle House #2320","13143 KINGSTON AVE","CHESTER","VA","23836","37.346731","-77.340474"
"Waffle House #2323","960 EAST CENTERTON ROAD","CENTERTON","AR","72719","36.358402","-94.27566"
"Waffle House #2327","11121 FREEMONT PIKE","PERRYSBURG","OH","43551","41.549438","-83.601581"
"Waffle House #2332","5440 BOWMAN RD","MACON","GA","31210","32.9241996","-83.7294519"
"Waffle House #2325","11925 NC HWY 210 N","BENSON","NC","27504","35.515718","-78.553142"
"Waffle House #2318","1120 N WOODLAND BLVD","DELAND","FL","32720","29.0469266","-81.3043503"
"Waffle House #2301","1537 BLANDING BLVD","MIDDLEBURG","FL","32068","30.0759824","-81.8636476"
"Waffle House #2330","1478 E NEWNAN CROSSING BLVD","NEWNAN","GA","30265","33.364941","-84.754572"
"Waffle House #2339","844 NORTH CANAL BLVD","THIBODAUX","LA","70301","29.8204052","-90.81262"
"Waffle House #2321","33190 S DIXIE HWY","FLORIDA CITY","FL","33034","25.4600081","-80.4757413"
"Waffle House #2326","1622 JOE B JACKSON PKWY I-24 & PKWY","MURFREESBORO","TN","37127","35.775774","-86.38453"
"Waffle House #2314","618 BEACH BLVD","BILOXI","MS","39530","30.3932759","-88.8807227"
"Waffle House #2329","8310 WILSKY BLVD","TAMPA","FL","33615","28.02592","-82.566485"
"Waffle House #2338","4330 LEGION ROAD","HOPE MILLS","NC","28348","34.981722","-78.9339822"
"Waffle House #2336","10910 WOODLAND BEAVER ROAD","CHARLOTTE","NC","28215","35.2238125","-80.6313493"
"Waffle House #2343","1922 W AIRLINE HWY","LAPLACE","LA","70068","30.0743866","-90.5052082"
"Waffle House #2340","6407 JOHNSTON STREET","LAFAYETTE","LA","70503","30.1572512","-92.0874527"
"Waffle House #2341","1721 WEST WALNUT ST","ROGERS","AR","72756","36.3343956","-94.1419138"
"Waffle House #2333","2729 STATE ROAD 16","SAINT AUGUSTINE","FL","32092","29.92138","-81.416987"
"Waffle House #2335","12304 DESSAU ROAD","AUSTIN","TX","78754","30.3880313","-97.6484618"
"Waffle House #2334","1510 THOMPSON BR RD","GAINESVILLE","GA","30501","34.3224399","-83.8334766"
"Waffle House #2328","1901 S ST HWY 121","LEWISVILLE","TX","75067","33.017766","-96.993065"
"Waffle House #2337","16290 US HIGHWAY 331","FREEPORT","FL","32439","30.490743","-86.12159"
"Waffle House #2348","4810 GEORGE WASH HWY","PORTSMOUTH","VA","23702","36.79712","-76.326223"
"Waffle House #2344","336 W LAKE MARY BLVD","SANFORD","FL","32773","28.7575509","-81.2899886"
"Waffle House #2346","1966 EAGLE DRIVE","WOODSTOCK","GA","30189","34.1128429","-84.5609135"
"Waffle House #2358","111 HECTOR CONNOLY ROAD","CARENCRO","LA","70520","30.3228871","-92.0322714"
"Waffle House #2342","4420 LOUETTA ROAD","SPRING","TX","77388","30.063329","-95.446701"
"Waffle House #2349","10635 ST CHARLES","SAINT ANN","MO","63074","38.725687","-90.377296"
"Waffle House #2331","100 N. KINGS HWY","MYRTLE BEACH","SC","29577","33.686652","-78.889492"
"Waffle House #2345","2697 US- 52","MONCKS CORNER","SC","29461","33.187208","-79.9997423"
"Waffle House #2347","3407 ORANGE AVE NE","ROANOKE","VA","24012","37.3014452","-79.8932983"
"Waffle House #2359","870 EASTGATE N DRIVE","CINCINNATI","OH","45245","39.097235","-84.2661515"
"Waffle House #2350","6308 INTL DR SUITE A","ORLANDO","FL","32819","28.4609152","-81.4668714"
"Waffle House #2356","2951 S US HWY 287","CORSICANA","TX","75109","32.062539","-96.435069"
"Waffle House #2355","17837 ST HWY 285 S","DEFUNIAK SPRINGS","FL","32435","30.735866","-86.358525"
"Waffle House #2354","2223 UNION ROAD","GASTONIA","NC","28054","35.231487","-81.16954"
"Waffle House #2357","3010 RUSSELL PARKWAY","WARNER ROBINS","GA","31088","32.5936723","-83.6595984"
"Waffle House #2376","612 JEFFERSON HWY","JEFFERSON","LA","70121","29.9647718","-90.137259"
"Waffle House #2368","50 BAUER ROAD","PENSACOLA","FL","32506","30.397729","-87.400312"
"Waffle House #2362","1425 BROWN TRAIL","BEDFORD","TX","76022","32.8372753","-97.1607887"
"Waffle House #2353","275 PINNACLE PKWY","BRISTOL","TN","37620","36.5954428","-82.2532027"
"Waffle House #2360","1080 STATE RD 28","MILFORD","OH","45150","39.180351","-84.27716"
"Waffle House #2363","3815 OLD PORT ROYAL ROAD","SPRING HILL","TN","37174","35.7336737","-86.885893"
"Waffle House #2351","4005 W EAU GALLIE BL","MELBOURNE","FL","32935","28.121424","-80.693883"
"Waffle House #2370","2800 MERCURY BLVD","HAMPTON","VA","23666","37.0434707","-76.348513"
"Waffle House #2352","1385 GRAND VENTURE BLVD","NORTH PORT","FL","34286","27.320613","-82.494701"
"Waffle House #2378","168 VINCE MEROLLA DR","CANTON","GA","30114","34.234902","-84.480133"
"Waffle House #2380","855 S STARING LANE","BATON ROUGE","LA","70820","30.364286","-91.1259242"
"Waffle House #2366","9041 NEW KINGS RD AKA US HWY 1","JACKSONVILLE","FL","32219","30.41506","-81.749139"
"Waffle House #2384","1209 S HWY 74","PEACHTREE CITY","GA","30269","33.358539","-84.562773"
"Waffle House #2361","510 GALLIMORE DAIRY ROAD","GREENSBORO","NC","27409","36.0812592","-79.9383109"
"Waffle House #2365","1949 GLYNN AVENUE","BRUNSWICK","GA","31520","31.1597881","-81.4777452"
"Waffle House #2364","1228 TAMIAMI TRAIL","PUNTA GORDA","FL","33950","26.9277189","-82.0474796"
"Waffle House #2371","1050 S BLUFORD AVE","OCOEE","FL","34761","28.551662","-81.538005"
"Waffle House #2382","53 BRENT LANE","PENSACOLA","FL","32503","30.474741","-87.22186"
"Waffle House #2379","3916 FLAT SHOALS PKY","DECATUR","GA","30034","33.69362","-84.261251"
"Waffle House #2372","740 SAM HOUSTON JONES PKWY","LAKE CHARLES","LA","70611","30.300558","-93.208739"
"Waffle House #2369","20618 KUYKENDAHL RD","SPRING","TX","77379","30.072482","-95.511572"
"Waffle House #2389","627 TENNESSEE AVE","ETOWAH","TN","37331","35.3254719","-84.5243083"
"Waffle House #2373","4034 WINDER HWY","FLOWERY BRANCH","GA","30542","34.196718","-83.859028"
"Waffle House #2377","3955 AL HWY 14","MILLBROOK","AL","36054","32.542128","-86.271149"
"Waffle House #2383","10041 US 301","RIVERVIEW","FL","33578","27.8558057","-82.3265965"
"Waffle House #2385","1400 E MAIN ST","WYTHEVILLE","VA","24382","36.9496167","-81.0649944"
"Waffle House #2391","4611 SE MARICAMP RD","OCALA","FL","34480","29.1694401","-82.100446"
"Waffle House #2392","150 HOWELL BR RD EXT","BALL GROUND","GA","30107","34.327716","-84.392631"
"Waffle House #2367","10100 MIDLOTHIAN TURNPIKE","RICHMOND","VA","23235","37.506004","-77.602714"
"Waffle House #2381","1610 GA-20","CONYERS","GA","30012","33.6481772","-84.0118005"
"Waffle House #2386","650 SCHILLINGER RD N","MOBILE","AL","36608","30.701866","-88.2255415"
"Waffle House #2390","2805 BASS PRO DRIVE","GRAPEVINE","TX","76051","32.9555679","-97.0369369"
"Waffle House #857","5350 ALLATOONA GATEWAY","ACWORTH","GA","30101","34.0770937","-84.6764534"
"Waffle House #2399","150 COOK STREET","ABINGDON","VA","24210","36.7028742","-81.9734389"
"Waffle House #2394","937 WEST CENTER ST","GREENWOOD","AR","72936","35.2172632","-94.2711729"
"Waffle House #448","3135 N. GLENSTONE AVE","SPRINGFIELD","MO","65803","37.2538302","-93.2646147"
"Waffle House #2393","837 TAYLOR RD","MONTGOMERY","AL","36117","32.3702812","-86.1711545"
"Waffle House #2388","8243 RUFE SNOW DR","WATAUGA","TX","76148","32.8914316","-97.2386676"
"Waffle House #2398","1000 W. GEORGIA ROAD","SIMPSONVILLE","SC","29680","34.7347137","-82.2825681"
"Waffle House #2387","915 E. UNIVERSITY AV","GAINESVILLE","FL","32601","29.6518614","-82.3144404"
"Waffle House #2401","7801 E. BRAINERD RD","CHATTANOOGA","TN","37421","35.0100793","-85.1538457"
"Waffle House #2396","6403 W INTERSTATE CT","WHITSETT","NC","27377","36.046202","-79.608882"
"Waffle House #2402","4065 FORSYTH ROAD","MACON","GA","31210","32.8655652","-83.6930877"
"Waffle House #2395","2690 COUNTY RD 59","MANVEL","TX","77578","29.541094","-95.400131"
"Waffle House #2403","34058 LA HWY 16","DENHAM SPRINGS","LA","70706","30.562234","-90.955534"
"Waffle House #2400","4670 BILL GARDNER PARKWAY","LOCUST GROVE","GA","30248","33.3509147","-84.1423553"
"Waffle House #2405","662 CORWIN NIXON BLV","SOUTH LEBANON","OH","45065","39.364062","-84.556925"
"Waffle House #2406","4601 ROSE BLVD","NORTHPORT","AL","35475","33.304003","-87.606322"
"Waffle House #2408","2412 SC-14","GREER","SC","29650","34.9658547","-82.235102"
"Waffle House #2404","7004 CITY CENTER WAY","FAIRVIEW","TN","37062","35.9731112","-87.1288385"
"Waffle House #2413","501 VERNON STREET","LAGRANGE","GA","30240","33.0386345","-85.0383163"
"Waffle House #2410","5415 HWY 62","JEFFERSONVILLE","IN","47130","38.35617","-85.702283"
"Waffle House #2409","4886 S. AMHERST HWY","MADISON HEIGHTS","VA","24572","37.438999","-79.121669"
"Waffle House #2407","1005 VOLUNTEER PKWY","BRISTOL","TN","37620","36.5746433","-82.1913664"
"Waffle House #2397","9777 GREENVILLE AVE","DALLAS","TX","75243","32.9086588","-96.7469287"
"Waffle House #2375","10221 PAGE AVENUE","SAINT LOUIS","MO","63132","38.69109","-90.3853443"
"Waffle House #2414","10319 STAGECOACH RD","LITTLE ROCK","AR","72210","34.6580358","-92.4257245"
"Waffle House #2415","11636 US HWY 70","ARLINGTON","TN","38002","35.2748794","-89.6985322"
"Waffle House #2411","690 ASPEN PARKWAY","MIDLOTHIAN","TX","76065","32.869481","-97.184097"
"Waffle House #2419","110 TIMBERWOLF DR","LAGRANGE","GA","30240","33.612564","-84.205003"
"Waffle House #2426","1008 BATEMAN DR","SOCIAL CIRCLE","GA","30025","33.6766646","-83.7096903"
"Waffle House #2412","5811 LAKEWOOD DRIVE","FAYETTEVILLE","NC","28306","34.983043","-79.0152999"
"Waffle House #2423","9651 VAUGHN ROAD","TOWN OF PIKE ROAD","AL","36064","32.346924","-86.087502"
"Waffle House #2416","7438 EAST HILLSBOROUGH AVE","TAMPA","FL","33610","27.996018","-82.4028102"
"Waffle House #2421","5445 MONROE STREET","TOLEDO","OH","43623","41.7054068","-83.663047"
"Waffle House #2417","645 S VETERANS PKWY","MOULTRIE","GA","31788","31.193391","-83.764772"
"Waffle House #2428","901 E BUTLER RD","MAULDIN","SC","29607","34.8038163","-82.2850318"
"Waffle House #2429","4011 SW COLLEGE RD","OCALA","FL","34474","29.1461839","-82.1894334"
"Waffle House #2425","381 US HWY 31 N","ATHENS","AL","35611","34.783789","-86.956717"
"Waffle House #2422","4600 GOLDEN TRIANGLE BLVD","FT WORTH","TX","76244","32.931546","-97.2846594"
"Waffle House #2424","11320 WESTMARK DRIVE","YUKON","OK","73099","35.700023","-97.465571"
"Waffle House #2435","98 ED PERRY BLVD","OXFORD","MS","38655","34.3812159","-89.496924"
"Waffle House #2438","103 CROSSING WAY","STAUNTON","VA","24401","38.140984","-79.122605"
"Waffle House #2418","4504 WEST MARKET ST","GREENSBORO","NC","27407","36.069512","-79.857361"
"Waffle House #2433","7380 BLACKMON ROAD","COLUMBUS","GA","31909","32.5511525","-84.8960495"
"Waffle House #2431","4030 CHAPEL HILL RD","DOUGLASVILLE","GA","30135","33.707548","-84.718035"
"Waffle House #2420","44209 HWY 27","DAVENPORT","FL","33896","28.114061","-81.639977"
"Waffle House #2432","708 E ROBINSON AVE","GROVETOWN","GA","30813","33.4399313","-82.1817724"
"Waffle House #2436","1450 PULASKI HWY.","NEWARK","DE","19702","39.622284","-75.684352"
"Waffle House #2439","2383 NEW SALEM RD","MURFREESBORO","TN","37128","35.8284746","-86.4138996"
"Waffle House #2430","1031 W BELTLINE RD","DESOTO","TX","75115","32.589864","-96.880844"
"Waffle House #2440","3104 EAST MILTON AVE","YOUNGSVILLE","LA","70592","30.1091609","-92.0106905"
"Waffle House #2434","1676 MONTCLAIR ROAD","BIRMINGHAM","AL","35210","33.5272503","-86.7179955"
"Waffle House #2442","1210 WILMINGTON AVE.","DAYTON","OH","45420","39.7255538","-84.1534102"
"Waffle House #2448","188 MONROE PLACE","ASHLAND CITY","TN","37015","36.507069","-87.352226"
"Waffle House Museum #WH_Museum","2719 East College Avenue","Decatur","GA","30030","33.77157","-84.2910193"
"Waffle House #2443","14685 STATE ROAD 52","HUDSON","FL","34669","28.329288","-82.574698"
"Waffle House #2441","1921 EAST LAMAR","MARYVILLE","TN","37804","35.7555218","-83.9449063"
"Waffle House #2444","112 SOUTH LEWIS ST","NEW IBERIA","LA","70560","29.9977187","-91.803926"
"Waffle House #2427","3412 LEE BLVD","LEHIGH ACRES","FL","33971","26.6172938","-81.6888251"
"Waffle House #2447","643 SOUTH MAIN ST.","CLEVELAND","GA","30528","34.5886625","-83.7610341"
"Waffle House #2449","11714 JEFFERSON AVE","NEWPORT NEWS","VA","23606","37.07859","-76.4779101"
"Waffle House #2446","2651 SOUTH A W GRIMES BLVD","ROUND ROCK","TX","78664","30.4833727","-97.6483385"
